201805222350 METAR EBBR 222350Z 05001KT CAVOK 14/13 Q1016 NOSIG=
201805222320 METAR EBBR 222320Z 06001KT CAVOK 14/13 Q1016 NOSIG=
201805222250 METAR EBBR 222250Z VRB01KT CAVOK 15/13 Q1016 NOSIG=
201805222220 METAR EBBR 222220Z 27002KT CAVOK 14/13 Q1016 NOSIG=
201805222150 METAR EBBR 222150Z 29002KT CAVOK 15/13 Q1016 NOSIG=
201805222120 METAR EBBR 222120Z 00000KT CAVOK 15/13 Q1016 NOSIG=
201805222050 METAR EBBR 222050Z 00000KT CAVOK 15/13 Q1016 NOSIG=
201805222020 METAR EBBR 222020Z VRB02KT CAVOK 15/13 Q1016 NOSIG=
201805221950 METAR EBBR 221950Z VRB01KT CAVOK 15/13 Q1015 NOSIG=
201805221920 METAR EBBR 221920Z 07003KT 030V100 9999 FEW030CB 15/14 Q1014
                        NOSIG=
201805221850 METAR EBBR 221850Z 05005KT 9999 VCSH FEW030CB 15/14 Q1014
                        NOSIG=
201805221820 METAR EBBR 221820Z 35005KT 310V040 9999 VCSH FEW030 16/13
                        Q1014 NOSIG=
201805221750 METAR COR EBBR 221750Z 26005KT 9999 -RA FEW030TCU 16/13 Q1014
                        NOSIG=
201805221720 METAR COR EBBR 221720Z VRB02KT 9999 -RA FEW027 FEW036CB 15/13
                        Q1014 TEMPO 2500 TSRAGR=
201805221650 METAR EBBR 221650Z VRB02KT 9000 -SHRA FEW027 FEW036TCU SCT050CB
                        16/13 Q1014 TEMPO 2500 TSRAGR=
201805221620 METAR EBBR 221620Z 10013KT 9999 -SHRA FEW017 SCT050CB 16/13
                        Q1014 RETS TEMPO 2500 TSRAGR=
201805221550 METAR EBBR 221550Z 07011KT 030V090 3600 TSRA FEW017 BKN050CB
                        16/13 Q1014 RESHRA TEMPO 2500 TSRAGR=
201805221520 METAR EBBR 221520Z 11007KT 070V150 6000 -TSRA SCT050CB 19/12
                        Q1013 TEMPO 4000 TSRAGR=
201805221450 METAR EBBR 221450Z 07006G18KT 340V130 9999 SCT035CB SCT050TCU
                        24/12 Q1013 TEMPO 4000 TSRAGR=
201805221420 METAR EBBR 221420Z VRB02KT 9999 FEW035CB SCT041TCU 23/13
                        Q1012 TEMPO 4000 TSRAGR=
201805221350 METAR COR EBBR 221350Z 31004KT 260V030 9999 FEW035CB SCT041TCU
                        24/12 Q1012 TEMPO 4000 TSRAGR=
201805221320 METAR EBBR 221320Z 30004KT 230V010 9999 FEW041 24/12 Q1012
                        NOSIG=
201805221250 METAR EBBR 221250Z 32006KT 290V020 9999 FEW041 24/14 Q1012
                        NOSIG=
201805221220 METAR EBBR 221220Z 35004KT 300V040 9999 FEW046 23/14 Q1012
                        NOSIG=
201805221150 METAR EBBR 221150Z VRB02KT 9999 FEW042 23/13 Q1013 NOSIG=
201805221120 METAR EBBR 221120Z VRB01KT 9999 FEW039 22/13 Q1013 NOSIG=
201805221050 METAR EBBR 221050Z 00000KT CAVOK 23/15 Q1013 NOSIG=
201805221020 METAR EBBR 221020Z VRB01KT CAVOK 22/15 Q1013 NOSIG=
201805220950 METAR EBBR 220950Z VRB02KT CAVOK 21/14 Q1013 NOSIG=
201805220920 METAR EBBR 220920Z VRB02KT 9999 FEW038 20/13 Q1013 NOSIG=
201805220850 METAR EBBR 220850Z 35004KT 310V060 CAVOK 19/13 Q1013 NOSIG=
201805220820 METAR EBBR 220820Z 35003KT 280V070 CAVOK 18/13 Q1013 NOSIG=
201805220750 METAR EBBR 220750Z VRB01KT CAVOK 17/13 Q1013 NOSIG=
201805220720 METAR EBBR 220720Z 36003KT CAVOK 16/13 Q1012 NOSIG=
201805220650 METAR EBBR 220650Z 00000KT CAVOK 17/14 Q1012 NOSIG=
201805220620 METAR EBBR 220620Z 00000KT 9999 FEW045 15/13 Q1012 NOSIG=
201805220550 METAR EBBR 220550Z VRB01KT 9999 FEW045 14/12 Q1012 NOSIG=
201805220520 METAR EBBR 220520Z VRB01KT 8000 FEW045 14/12 Q1012 NOSIG=
201805220450 METAR EBBR 220450Z VRB02KT CAVOK 13/11 Q1012 TEMPO 4000 BR=
201805220420 METAR EBBR 220420Z VRB01KT 7000 NSC 12/10 Q1011 TEMPO 4000
                        BR=
201805220350 METAR EBBR 220350Z 12002KT CAVOK 12/11 Q1011 TEMPO 4000 BR=
201805220320 METAR EBBR 220320Z VRB02KT CAVOK 13/11 Q1011 NOSIG=
201805220250 METAR EBBR 220250Z VRB02KT CAVOK 12/11 Q1011 NOSIG=
201805220220 METAR EBBR 220220Z 12002KT CAVOK 12/11 Q1011 NOSIG=
201805220150 METAR EBBR 220150Z VRB01KT CAVOK 12/11 Q1011 NOSIG=
201805220120 METAR EBBR 220120Z VRB02KT CAVOK 13/12 Q1011 NOSIG=
201805220050 METAR EBBR 220050Z 00000KT CAVOK 13/11 Q1011 NOSIG=
201805220020 METAR EBBR 220020Z VRB01KT CAVOK 12/11 Q1011 NOSIG=
201805212350 METAR EBBR 212350Z 05002KT CAVOK 13/12 Q1011 NOSIG=
201805212320 METAR EBBR 212320Z 07003KT CAVOK 15/13 Q1011 NOSIG=
201805212250 METAR EBBR 212250Z 08002KT CAVOK 15/13 Q1011 NOSIG=
201805212220 METAR EBBR 212220Z 00000KT CAVOK 16/13 Q1012 NOSIG=
201805212150 METAR EBBR 212150Z 07002KT CAVOK 15/13 Q1012 NOSIG=
201805212120 METAR EBBR 212120Z 07001KT CAVOK 16/13 Q1012 NOSIG=
201805212050 METAR EBBR 212050Z 06002KT CAVOK 16/14 Q1012 NOSIG=
201805212020 METAR EBBR 212020Z 02003KT 9999 FEW050CB 17/14 Q1012 NOSIG=
201805211950 METAR EBBR 211950Z VRB01KT 9999 FEW050CB 17/14 Q1012 TEMPO
                        3000 SHRA=
201805211920 METAR EBBR 211920Z 04003KT 9999 FEW050CB 18/14 Q1012 TEMPO
                        3000 TSRA=
201805211850 METAR EBBR 211850Z VRB02KT 9999 FEW050CB 18/14 Q1012 NOSIG=
201805211820 METAR EBBR 211820Z 01002KT 9999 -SHRA VCTS FEW050CB 18/15
                        Q1012 RETSRA NOSIG=
201805211750 METAR EBBR 211750Z 01007KT 9999 -TSRA FEW050CB 19/14 Q1011
                        TEMPO 3500 SHRA TSRA=
201805211720 METAR EBBR 211720Z 31003KT 270V040 9999 -TSRA SCT050CB 20/13
                        Q1011 TEMPO 3500 SHRA TSRA=
201805211650 METAR EBBR 211650Z 09008KT 060V130 9999 FEW045CB SCT050TCU
                        22/11 Q1011 TEMPO 3500 SHRA TSRA=
201805211620 METAR EBBR 211620Z 08002KT 9999 SCT050TCU FEW045CB 24/11
                        Q1011 TEMPO 3500 SHRA TSRA=
201805211550 METAR EBBR 211550Z 05003KT 360V140 9999 FEW045CB 24/11 Q1011
                        TEMPO 3500 SHRA TSRA=
201805211520 METAR EBBR 211520Z 04004KT 350V100 9999 FEW045CB 24/11 Q1012
                        TEMPO 3500 SHRA TSRA=
201805211450 METAR EBBR 211450Z 04004KT 350V080 9999 FEW048CB SCT050TCU
                        24/12 Q1012 NOSIG=
201805211420 METAR EBBR 211420Z 05005KT 030V090 9999 FEW048TCU 23/12 Q1013
                        NOSIG=
201805211350 METAR EBBR 211350Z VRB03KT 9999 FEW048 23/11 Q1013 NOSIG=
201805211320 METAR EBBR 211320Z 09003KT 360V170 9999 FEW042 23/12 Q1013
                        NOSIG=
201805211250 METAR EBBR 211250Z 07005KT 020V120 9999 FEW042 22/11 Q1013
                        NOSIG=
201805211220 METAR EBBR 211220Z 08006KT 050V130 9999 FEW038 21/11 Q1014
                        NOSIG=
201805211150 METAR EBBR 211150Z 07008KT 9999 FEW036 20/11 Q1014 NOSIG=
201805211120 METAR EBBR 211120Z 08007KT 050V110 9999 FEW035 19/11 Q1014
                        NOSIG=
201805211050 METAR EBBR 211050Z 08006KT 9999 FEW035 20/12 Q1014 NOSIG=
201805211020 METAR EBBR 211020Z 07006KT 030V110 CAVOK 19/12 Q1014 NOSIG=
201805210950 METAR EBBR 210950Z 08007KT 050V110 CAVOK 18/11 Q1015 NOSIG=
201805210920 METAR EBBR 210920Z 07005KT 040V100 CAVOK 18/12 Q1015 NOSIG=
201805210850 METAR EBBR 210850Z 07004KT 9999 FEW030 16/13 Q1015 NOSIG=
201805210820 METAR EBBR 210820Z 07004KT 040V100 9999 -SHRA FEW030 16/13
                        Q1015 NOSIG=
201805210750 METAR EBBR 210750Z 08005KT 050V110 9999 FEW030 15/13 Q1015
                        NOSIG=
201805210720 METAR EBBR 210720Z 09005KT 050V120 8000 -SHRA FEW030 14/13
                        Q1016 NOSIG=
201805210650 METAR EBBR 210650Z 05005KT 030V100 8000 -SHRA NSC 13/12 Q1015
                        NOSIG=
201805210620 METAR COR EBBR 210620Z 08006KT 040V110 8000 -SHRA FEW030
                        13/12 Q1016 NOSIG=
201805210550 METAR EBBR 210550Z NIL=
201805210520 METAR EBBR 210520Z 06004KT 7000 -SHRA FEW030 13/12 Q1016
                        NOSIG=
201805210450 METAR COR EBBR 210450Z 08004KT 9999 -RA NSC 13/12 Q1016 NOSIG=
201805210420 METAR EBBR 210420Z VRB02KT 9999 -RA NSC 14/11 Q1016 NOSIG=
201805210350 METAR EBBR 210350Z 11006KT 050V140 CAVOK 14/11 Q1017 NOSIG=
201805210320 METAR EBBR 210320Z 06004KT 030V110 9999 -RA NSC 13/11 Q1017
                        NOSIG=
201805210250 METAR EBBR 210250Z 11003KT 9999 -RA NSC 13/11 Q1017 NOSIG=
201805210220 METAR EBBR 210220Z VRB02KT CAVOK 13/11 Q1017 NOSIG=
201805210150 METAR EBBR 210150Z 02003KT CAVOK 13/12 Q1017 NOSIG=
201805210120 METAR EBBR 210120Z VRB01KT CAVOK 13/11 Q1017 NOSIG=
201805210050 METAR EBBR 210050Z 12002KT CAVOK 14/11 Q1018 NOSIG=
201805210020 METAR EBBR 210020Z 12002KT CAVOK 14/12 Q1018 NOSIG=
201805202350 METAR EBBR 202350Z 10003KT CAVOK 14/12 Q1019 NOSIG=
201805202320 METAR EBBR 202320Z VRB02KT CAVOK 14/12 Q1019 NOSIG=
201805202250 METAR EBBR 202250Z 05002KT CAVOK 14/12 Q1019 NOSIG=
201805202220 METAR EBBR 202220Z VRB01KT CAVOK 14/13 Q1019 NOSIG=
201805202150 METAR EBBR 202150Z VRB02KT CAVOK 14/12 Q1019 NOSIG=
201805202120 METAR EBBR 202120Z 00000KT CAVOK 14/12 Q1019 NOSIG=
201805202050 METAR EBBR 202050Z 02004KT 330V040 CAVOK 15/13 Q1019 NOSIG=
201805202020 METAR EBBR 202020Z 05004KT CAVOK 15/12 Q1019 NOSIG=
201805201950 METAR EBBR 201950Z 06002KT CAVOK 16/13 Q1019 NOSIG=
201805201920 METAR EBBR 201920Z 17004KT 9999 FEW040 17/13 Q1019 TEMPO
                        3500 SHRA=
201805201850 METAR EBBR 201850Z VRB02KT 9999 -SHRA FEW040CB 17/12 Q1019
                        NOSIG=
201805201820 METAR EBBR 201820Z 15010KT 9999 VCTS -SHRA FEW040CB 18/12
                        Q1020 TEMPO 3500 TSRA=
201805201750 METAR EBBR 201750Z 16014KT 9999 FEW040CB 20/08 Q1019 TEMPO
                        3500 TSRA=
201805201720 METAR EBBR 201720Z 11006KT 070V130 9999 FEW040CB 23/09 Q1018
                        TEMPO 3500 TSRA=
201805201650 METAR EBBR 201650Z 10007KT 070V130 9999 FEW048TCU 23/09 Q1018
                        TEMPO 3500 SHRA=
201805201620 METAR EBBR 201620Z 07007KT 050V120 9999 FEW048 23/09 Q1018
                        NOSIG=
201805201550 METAR EBBR 201550Z 05008KT 020V100 9999 FEW048 24/09 Q1018
                        NOSIG=
201805201520 METAR EBBR 201520Z 05008KT 9999 FEW048 23/09 Q1019 NOSIG=
201805201450 METAR EBBR 201450Z 06009KT 9999 FEW048 23/08 Q1019 NOSIG=
201805201420 METAR EBBR 201420Z 08006KT 020V130 9999 FEW046 23/08 Q1020
                        NOSIG=
201805201350 METAR EBBR 201350Z 07007KT 020V120 CAVOK 23/08 Q1020 NOSIG=
201805201320 METAR EBBR 201320Z 06006KT 020V140 CAVOK 23/08 Q1021 NOSIG=
201805201250 METAR EBBR 201250Z 07005KT 020V140 9000 NSC 22/08 Q1021 NOSIG=
201805201220 METAR EBBR 201220Z 08007KT 030V120 9000 FEW032 21/07 Q1021
                        NOSIG=
201805201150 METAR EBBR 201150Z VRB05KT 9000 FEW032 20/09 Q1022 NOSIG=
201805201120 METAR EBBR 201120Z 07006KT 030V100 8000 FEW028 19/08 Q1022
                        NOSIG=
201805201050 METAR EBBR 201050Z 05006KT 350V080 8000 FEW028 18/09 Q1022
                        NOSIG=
201805201020 METAR EBBR 201020Z 01004KT 330V050 8000 FEW028 17/10 Q1023
                        NOSIG=
201805200950 METAR EBBR 200950Z 05004KT 340V120 7000 FEW020 16/09 Q1023
                        NOSIG=
201805200920 METAR EBBR 200920Z 03003KT 310V090 6000 FEW008 14/10 Q1023
                        NOSIG=
201805200850 METAR EBBR 200850Z 05003KT 350V080 6000 FEW005 SCT008 12/10
                        Q1023 NOSIG=
201805200820 METAR EBBR 200820Z VRB02KT 4500 BR FEW004 SCT006 11/09 Q1023
                        BECMG 6000 NSW SCT010=
201805200750 METAR EBBR 200750Z VRB01KT 2500 BR SCT004 BKN006 10/09 Q1023
                        BECMG 4000 BR BKN009=
201805200720 METAR EBBR 200720Z 12004KT 1800 BR BKN003 09/08 Q1023 BECMG
                        3000 BR=
201805200650 METAR EBBR 200650Z 09004KT 060V120 1100 R25L/1300U R25R/1700U
                        R01/1300U BR OVC003 09/07 Q1023 BECMG
                        2500 BR=
201805200620 METAR EBBR 200620Z VRB02KT 0150 R25L/0500N R25R/1000N R01/0550N
                        FG OVC001 08/07 Q1023 NOSIG=
201805200550 METAR EBBR 200550Z 05003KT 010V080 0100 R25L/0325N R25R/0500N
                        R01/0450N FG OVC001 08/07 Q1023 BECMG
                        1000 BR=
201805200520 METAR EBBR 200520Z 01003KT 320V040 0100 R25L/0300N R25R/0325N
                        R01/0300N FG OVC001 08/07 Q1023 BECMG
                        1000 BR=
201805200450 METAR EBBR 200450Z 03003KT 350V060 0100 R25L/0225N R25R/0250N
                        R01/0250N FG OVC001 08/07 Q1023 BECMG
                        1000 BR=
201805200420 METAR EBBR 200420Z 02003KT 350V050 0100 R25L/0225N R25R/0300N
                        R01/0275N FG OVC001 07/07 Q1023 NOSIG=
201805200350 METAR EBBR 200350Z 35002KT 0100 R25L/0225N R25R/0325N R01/0250N
                        FG OVC001 07/07 Q1023 NOSIG=
201805200320 METAR EBBR 200320Z VRB01KT 0150 R25L/0400N R25R/0350N R01/0500D
                        FG BKN001 07/07 Q1023 NOSIG=
201805200250 METAR EBBR 200250Z VRB02KT 0450 R25L/0275N R25R/0600D R01/1200U
                        FG BKN001 07/06 Q1023 NOSIG=
201805200220 METAR EBBR 200220Z VRB01KT 0300 R25L/0300N R25R/0275N R01/0250N
                        FG BKN001 07/07 Q1022 NOSIG=
201805200150 METAR COR EBBR 200150Z 35001KT 0350 R25L/1600D R25R/0275N
                        R01/0500U FG BKN001 07/07 Q1022 NOSIG=
201805200120 METAR EBBR 200120Z VRB01KT 1800 R25L/P2000N R25R/P2000N R01/1300U
                        BR NSC 08/07 Q1022 TEMPO 1000 BR
                        BKN001=
201805200050 METAR EBBR 200050Z 00000KT 2100 R25L/P2000N R25R/0650D R01/P2000N
                        BR NSC 08/07 Q1023 TEMPO 1000 BR
                        BKN001=
201805200020 METAR EBBR 200020Z 35002KT 2100 BR NSC 08/07 Q1023 NOSIG=
201805192350 METAR EBBR 192350Z 02002KT 2100 BR NSC 08/07 Q1023 NOSIG=
201805192320 METAR EBBR 192320Z 36001KT 3500 BR NSC 08/07 Q1023 BECMG
                        2000 BR=
201805192250 METAR EBBR 192250Z 36002KT 3900 BR NSC 09/08 Q1023 BECMG
                        2500 BR=
201805192220 METAR EBBR 192220Z VRB02KT 4000 BR NSC 09/08 Q1023 BECMG
                        2500 BR=
201805192150 METAR EBBR 192150Z 36003KT 5000 BR NSC 10/08 Q1023 BECMG
                        3000 BR=
201805192120 METAR EBBR 192120Z 01003KT 330V040 6000 NSC 10/08 Q1023 BECMG
                        4000 BR=
201805192050 METAR EBBR 192050Z 36002KT 7000 NSC 10/08 Q1023 BECMG 4500
                        BR=
201805192020 METAR EBBR 192020Z 01004KT 9000 NSC 10/08 Q1023 NOSIG=
201805191950 METAR EBBR 191950Z 36003KT CAVOK 11/08 Q1023 NOSIG=
201805191920 METAR EBBR 191920Z 36005KT 350V050 CAVOK 11/08 Q1022 NOSIG=
201805191850 METAR EBBR 191850Z 36006KT CAVOK 12/08 Q1022 NOSIG=
201805191820 METAR EBBR 191820Z 36007KT 9999 FEW023 13/08 Q1022 NOSIG=
201805191750 METAR EBBR 191750Z 36006KT 330V030 9999 FEW023 14/07 Q1022
                        NOSIG=
201805191720 METAR EBBR 191720Z 36006KT 320V030 9999 FEW021 14/07 Q1022
                        NOSIG=
201805191650 METAR EBBR 191650Z 34007KT 300V020 9999 FEW026 SCT030 13/08
                        Q1022 NOSIG=
201805191620 METAR EBBR 191620Z 35007KT 310V020 9999 FEW026 SCT030 14/06
                        Q1022 NOSIG=
201805191550 METAR EBBR 191550Z 35007KT 310V030 9999 FEW026 SCT030 14/07
                        Q1023 NOSIG=
201805191520 METAR EBBR 191520Z 32008KT 290V350 9999 FEW028 SCT030 14/07
                        Q1023 NOSIG=
201805191450 METAR EBBR 191450Z 31008KT 9999 FEW028 BKN033 14/07 Q1023
                        NOSIG=
201805191420 METAR EBBR 191420Z 34006KT 290V030 9999 FEW028 BKN033 14/06
                        Q1023 NOSIG=
201805191350 METAR EBBR 191350Z 35004KT 300V060 9999 SCT028 BKN033 14/06
                        Q1023 NOSIG=
201805191320 METAR EBBR 191320Z 36005KT 310V060 9999 SCT028 BKN033 14/06
                        Q1023 NOSIG=
201805191250 METAR EBBR 191250Z 33006KT 310V020 9999 BKN028 13/05 Q1024
                        NOSIG=
201805191220 METAR EBBR 191220Z 36005KT 290V030 9999 BKN025 12/05 Q1024
                        NOSIG=
201805191150 METAR EBBR 191150Z 04003KT 350V070 9999 BKN025 12/06 Q1024
                        NOSIG=
201805191120 METAR EBBR 191120Z VRB03KT 9999 BKN020 11/05 Q1024 NOSIG=
201805191050 METAR EBBR 191050Z VRB02KT 9999 BKN020 11/06 Q1024 NOSIG=
201805191020 METAR EBBR 191020Z 03003KT 310V070 9999 BKN017 10/06 Q1024
                        NOSIG=
201805190950 METAR EBBR 190950Z 03004KT 350V090 9999 BKN017 10/06 Q1024
                        NOSIG=
201805190920 METAR EBBR 190920Z 01003KT 350V060 9999 BKN018 10/05 Q1024
                        NOSIG=
201805190850 METAR EBBR 190850Z VRB02KT 9999 BKN018 09/05 Q1024 NOSIG=
201805190820 METAR EBBR 190820Z 01003KT 320V040 9999 BKN017 09/06 Q1024
                        NOSIG=
201805190750 METAR EBBR 190750Z 01003KT 340V060 9999 BKN017 09/05 Q1024
                        NOSIG=
201805190720 METAR EBBR 190720Z 04004KT 350V090 9999 BKN018 09/05 Q1024
                        NOSIG=
201805190650 METAR EBBR 190650Z 04003KT 350V080 9999 BKN018 09/05 Q1023
                        NOSIG=
201805190620 METAR EBBR 190620Z 04004KT 9999 BKN022 09/05 Q1023 NOSIG=
201805190550 METAR EBBR 190550Z 03005KT 9999 BKN022 09/05 Q1023 TEMPO
                        BKN013=
201805190520 METAR EBBR 190520Z 01003KT 330V050 9999 BKN022 08/05 Q1023
                        TEMPO BKN013=
201805190450 METAR EBBR 190450Z VRB02KT 9999 BKN022 07/05 Q1023 TEMPO
                        BKN013=
201805190420 METAR EBBR 190420Z 36003KT 300V040 9999 BKN021 07/04 Q1023
                        TEMPO BKN013=
201805190350 METAR EBBR 190350Z 31001KT 9999 BKN020 06/04 Q1023 TEMPO
                        BKN013=
201805190320 METAR EBBR 190320Z 00000KT 9999 BKN019 06/04 Q1023 TEMPO
                        BKN013=
201805190250 METAR EBBR 190250Z 00000KT CAVOK 05/04 Q1023 NOSIG=
201805190220 METAR EBBR 190220Z 33001KT CAVOK 06/04 Q1023 NOSIG=
201805190150 METAR EBBR 190150Z 34002KT CAVOK 06/04 Q1023 NOSIG=
201805190120 METAR EBBR 190120Z 31001KT CAVOK 06/04 Q1023 NOSIG=
201805190050 METAR EBBR 190050Z 00000KT CAVOK 06/04 Q1023 NOSIG=
201805190020 METAR EBBR 190020Z 03002KT CAVOK 06/04 Q1023 NOSIG=
201805182350 METAR EBBR 182350Z 03002KT CAVOK 07/04 Q1023 NOSIG=
201805182320 METAR EBBR 182320Z 04003KT CAVOK 07/04 Q1023 NOSIG=
201805182250 METAR EBBR 182250Z 02002KT CAVOK 07/04 Q1023 NOSIG=
201805182220 METAR EBBR 182220Z 01004KT CAVOK 08/04 Q1023 NOSIG=
201805182150 METAR EBBR 182150Z 36004KT CAVOK 08/05 Q1023 NOSIG=
201805182120 METAR EBBR 182120Z 35004KT CAVOK 09/05 Q1023 NOSIG=
201805182050 METAR EBBR 182050Z 34003KT CAVOK 09/05 Q1023 NOSIG=
201805182020 METAR EBBR 182020Z 34006KT CAVOK 10/05 Q1023 NOSIG=
201805181950 METAR EBBR 181950Z 33008KT CAVOK 10/06 Q1023 NOSIG=
201805181920 METAR EBBR 181920Z 33009KT CAVOK 11/06 Q1023 NOSIG=
201805181850 METAR EBBR 181850Z 34010KT CAVOK 12/06 Q1023 NOSIG=
201805181820 METAR EBBR 181820Z 33010KT CAVOK 13/06 Q1023 NOSIG=
201805181750 METAR EBBR 181750Z 34012KT 9999 FEW038 14/06 Q1022 NOSIG=
201805181720 METAR EBBR 181720Z 33010KT 300V360 9999 FEW038 14/05 Q1023
                        NOSIG=
201805181650 METAR EBBR 181650Z 33009KT 9999 FEW038 14/06 Q1023 NOSIG=
201805181620 METAR EBBR 181620Z 34010KT 9999 FEW038 15/05 Q1023 NOSIG=
201805181550 METAR EBBR 181550Z 35009KT 310V030 9999 FEW038 15/06 Q1023
                        NOSIG=
201805181520 METAR EBBR 181520Z 35008KT 300V020 9999 FEW038 16/06 Q1022
                        NOSIG=
201805181450 METAR EBBR 181450Z 35009KT 310V030 9999 FEW038 16/05 Q1023
                        NOSIG=
201805181420 METAR EBBR 181420Z 34007KT 310V040 9999 FEW038 15/05 Q1023
                        NOSIG=
201805181350 METAR EBBR 181350Z 34008KT 300V040 9999 FEW038 16/06 Q1023
                        NOSIG=
201805181320 METAR EBBR 181320Z 33006KT 280V020 9999 FEW038 16/05 Q1023
                        NOSIG=
201805181250 METAR EBBR 181250Z 32006KT 240V020 9999 FEW038 15/05 Q1023
                        NOSIG=
201805181220 METAR EBBR 181220Z 33006KT 280V030 9999 FEW035 ///// Q1023
                        NOSIG=
201805181150 METAR EBBR 181150Z 34005KT 270V060 9999 FEW035 14/04 Q1023
                        NOSIG=
201805181120 METAR EBBR 181120Z 31006KT 260V350 9999 FEW035 14/05 Q1024
                        NOSIG=
201805181050 METAR EBBR 181050Z VRB03KT 9999 SCT026 13/05 Q1024 NOSIG=
201805181020 METAR EBBR 181020Z 34005KT 300V080 9999 SCT026 12/04 Q1024
                        NOSIG=
201805180950 METAR EBBR 180950Z 32004KT 260V010 9999 SCT026 12/05 Q1024
                        NOSIG=
201805180920 METAR EBBR 180920Z 34005KT 300V030 9999 SCT026 11/04 Q1024
                        NOSIG=
201805180850 METAR EBBR 180850Z 01006KT 320V050 9999 SCT026 11/04 Q1024
                        NOSIG=
201805180820 METAR EBBR 180820Z 01005KT 300V060 9999 BKN024 10/04 Q1024
                        NOSIG=
201805180750 METAR EBBR 180750Z 02004KT 340V050 9999 BKN022 09/04 Q1024
                        NOSIG=
201805180720 METAR EBBR 180720Z 03004KT 350V060 9999 BKN020 09/05 Q1024
                        NOSIG=
201805180650 METAR EBBR 180650Z 03005KT 320V060 9999 BKN020 09/05 Q1024
                        NOSIG=
201805180620 METAR EBBR 180620Z 02005KT 350V050 9999 BKN020 08/05 Q1024
                        NOSIG=
201805180550 METAR EBBR 180550Z 03005KT 9999 BKN020 08/04 Q1024 NOSIG=
201805180520 METAR EBBR 180520Z 03004KT 360V060 9999 BKN020 08/04 Q1024
                        NOSIG=
201805180450 METAR EBBR 180450Z 02004KT 350V110 9999 BKN020 07/05 Q1024
                        NOSIG=
201805180420 METAR EBBR 180420Z 01005KT 340V040 9999 BKN020 07/05 Q1024
                        NOSIG=
201805180350 METAR COR EBBR 180350Z VRB02KT 9999 BKN017 06/04 Q1024 NOSIG=
201805180320 METAR EBBR 180320Z 35002KT 9999 SCT017 06/04 Q1024 NOSIG=
201805180250 METAR EBBR 180250Z 35003KT 9999 FEW023 06/04 Q1024 NOSIG=
201805180220 METAR EBBR 180220Z 36004KT CAVOK 06/04 Q1024 NOSIG=
201805180150 METAR EBBR 180150Z 36004KT CAVOK 06/04 Q1024 NOSIG=
201805180120 METAR EBBR 180120Z 36003KT CAVOK 06/04 Q1024 NOSIG=
201805180050 METAR EBBR 180050Z 36003KT CAVOK 06/04 Q1024 NOSIG=
201805180020 METAR EBBR 180020Z 35004KT CAVOK 07/04 Q1024 NOSIG=
201805172350 METAR EBBR 172350Z 36005KT CAVOK 07/04 Q1024 NOSIG=
201805172320 METAR EBBR 172320Z 36004KT CAVOK 07/05 Q1024 NOSIG=
201805172250 METAR EBBR 172250Z 36004KT CAVOK 08/05 Q1024 NOSIG=
201805172220 METAR EBBR 172220Z 36005KT CAVOK 08/05 Q1024 NOSIG=
201805172150 METAR EBBR 172150Z 36005KT CAVOK 08/05 Q1024 NOSIG=
201805172120 METAR EBBR 172120Z 36007KT CAVOK 09/05 Q1024 NOSIG=
201805172050 METAR EBBR 172050Z 36008KT CAVOK 10/05 Q1024 NOSIG=
201805172020 METAR EBBR 172020Z 35009KT CAVOK 10/05 Q1024 NOSIG=
201805171950 METAR EBBR 171950Z 35007KT CAVOK 11/04 Q1024 NOSIG=
201805171920 METAR EBBR 171920Z 34006KT 280V010 CAVOK 12/04 Q1023 NOSIG=
201805171850 METAR EBBR 171850Z 35008KT CAVOK 12/04 Q1023 NOSIG=
201805171820 METAR EBBR 171820Z 36009KT 320V020 CAVOK 13/04 Q1023 NOSIG=
201805171750 METAR EBBR 171750Z 35011KT 320V020 CAVOK 14/03 Q1023 NOSIG=
201805171720 METAR EBBR 171720Z 33011KT CAVOK 14/05 Q1023 NOSIG=
201805171650 METAR EBBR 171650Z 34012KT CAVOK 14/05 Q1023 NOSIG=
201805171620 METAR EBBR 171620Z 32013KT CAVOK 17/06 Q1023 NOSIG=
201805171550 METAR EBBR 171550Z 32012KT CAVOK 17/06 Q1023 NOSIG=
201805171520 METAR EBBR 171520Z 33012KT 300V010 CAVOK 16/06 Q1023 NOSIG=
201805171450 METAR EBBR 171450Z 32012KT CAVOK 17/06 Q1023 NOSIG=
201805171420 METAR EBBR 171420Z 32013KT 290V360 CAVOK 17/07 Q1023 NOSIG=
201805171350 METAR EBBR 171350Z 34012KT 300V020 9999 FEW048 17/06 Q1023
                        NOSIG=
201805171320 METAR EBBR 171320Z 32011KT 290V360 9999 FEW048 17/07 Q1023
                        NOSIG=
201805171250 METAR EBBR 171250Z 31008G19KT 240V020 9999 FEW048 17/06 Q1023
                        NOSIG=
201805171220 METAR COR EBBR 171220Z 33009KT 290V010 CAVOK 16/05 Q1023
                        NOSIG=
201805171150 METAR EBBR 171150Z 36009KT 320V090 9999 FEW048 16/04 Q1023
                        NOSIG=
201805171120 METAR EBBR 171120Z 35008KT 300V010 9999 FEW042 15/05 Q1023
                        NOSIG=
201805171050 METAR EBBR 171050Z 36008KT 330V040 9999 FEW042 15/05 Q1023
                        NOSIG=
201805171020 METAR EBBR 171020Z 01008KT 350V050 9999 FEW042 14/03 Q1024
                        NOSIG=
201805170950 METAR EBBR 170950Z 36010KT 9999 FEW034 14/04 Q1024 NOSIG=
201805170920 METAR EBBR 170920Z 35009KT 320V030 9999 FEW027 13/05 Q1024
                        NOSIG=
201805170850 METAR COR EBBR 170850Z 35009KT 300V030 9999 SCT025 11/05
                        Q1024 NOSIG=
201805170820 METAR EBBR 170820Z 35009KT 9999 SCT023 11/05 Q1024 NOSIG=
201805170750 METAR EBBR 170750Z 36010KT 9999 BKN022 11/05 Q1024 NOSIG=
201805170720 METAR EBBR 170720Z 35009KT 9999 BKN019 10/05 Q1023 NOSIG=
201805170650 METAR EBBR 170650Z 36009KT 280V040 9999 BKN019 10/05 Q1023
                        NOSIG=
201805170620 METAR EBBR 170620Z 36010KT 9999 BKN019 10/05 Q1023 NOSIG=
201805170550 METAR EBBR 170550Z 35008KT 320V020 9999 BKN021 09/05 Q1023
                        NOSIG=
201805170520 METAR EBBR 170520Z 35007KT 310V020 9999 BKN022 09/05 Q1023
                        NOSIG=
201805170450 METAR EBBR 170450Z 36004KT 9999 BKN021 08/05 Q1023 NOSIG=
201805170420 METAR EBBR 170420Z 36004KT 9999 BKN021 08/05 Q1023 NOSIG=
201805170350 METAR EBBR 170350Z 36004KT 9999 SCT021 08/06 Q1023 NOSIG=
201805170320 METAR EBBR 170320Z 36007KT 9999 FEW015 08/06 Q1023 NOSIG=
201805170250 METAR EBBR 170250Z 01007KT 9999 FEW015 08/06 Q1023 NOSIG=
201805170220 METAR EBBR 170220Z 36007KT 9999 BKN015 09/06 Q1023 TEMPO
                        BKN014=
201805170150 METAR EBBR 170150Z 36009KT 9999 BKN015 10/07 Q1022 TEMPO
                        BKN014=
201805170120 METAR EBBR 170120Z 36007KT 9999 BKN016 10/07 Q1022 TEMPO
                        BKN014=
201805170050 METAR EBBR 170050Z 01009KT 9999 BKN016 10/07 Q1022 TEMPO
                        BKN014=
201805170020 METAR EBBR 170020Z 01010KT 9999 BKN016 10/08 Q1022 TEMPO
                        BKN014=
201805162350 METAR EBBR 162350Z 36008KT 9999 FEW016 11/08 Q1022 TEMPO
                        BKN014=
201805162320 METAR EBBR 162320Z 35010KT 9999 SCT017 11/08 Q1022 NOSIG=
201805162250 METAR EBBR 162250Z 35010KT CAVOK 12/09 Q1022 NOSIG=
201805162220 METAR EBBR 162220Z 35008KT CAVOK 12/09 Q1022 NOSIG=
201805162150 METAR EBBR 162150Z 35007KT 9999 FEW019 12/10 Q1022 NOSIG=
201805162120 METAR EBBR 162120Z 35009KT 9999 -SHRA FEW019 12/10 Q1022
                        NOSIG=
201805162050 METAR EBBR 162050Z 01010KT 9999 -SHRA SCT019 13/09 Q1022
                        NOSIG=
201805162020 METAR EBBR 162020Z 36009KT 340V040 9999 FEW033 14/09 Q1022
                        NOSIG=
201805161950 METAR EBBR 161950Z 01011KT 9999 FEW021 14/10 Q1021 NOSIG=
201805161920 METAR EBBR 161920Z 36011KT 9999 BKN021 15/10 Q1021 NOSIG=
201805161850 METAR EBBR 161850Z 35013KT 9999 SCT021 15/10 Q1020 NOSIG=
201805161820 METAR EBBR 161820Z 35012KT 9999 SCT024 15/11 Q1020 NOSIG=
201805161750 METAR EBBR 161750Z 32013KT 9999 FEW027 15/10 Q1019 NOSIG=
201805161720 METAR EBBR 161720Z 32013KT 9999 FEW035 16/11 Q1019 NOSIG=
201805161650 METAR EBBR 161650Z 31015KT 9999 FEW035 16/11 Q1019 NOSIG=
201805161620 METAR EBBR 161620Z 32015KT 9999 FEW020 16/11 Q1018 NOSIG=
201805161550 METAR EBBR 161550Z 32012KT 9999 FEW020 16/12 Q1019 NOSIG=
201805161520 METAR EBBR 161520Z 32014KT 9999 FEW020 16/12 Q1019 NOSIG=
201805161450 METAR EBBR 161450Z 32010KT 300V360 9999 FEW020 18/13 Q1019
                        NOSIG=
201805161420 METAR EBBR 161420Z 33010KT 9999 FEW020 18/13 Q1019 NOSIG=
201805161350 METAR EBBR 161350Z 34011KT 300V010 9999 FEW020 19/13 Q1019
                        NOSIG=
201805161320 METAR EBBR 161320Z 02012KT 9999 FEW040 19/11 Q1019 NOSIG=
201805161250 METAR EBBR 161250Z 01012KT 9999 FEW040 19/11 Q1018 NOSIG=
201805161220 METAR EBBR 161220Z 36012KT 9999 FEW040 20/11 Q1018 NOSIG=
201805161150 METAR EBBR 161150Z 03014KT 9999 FEW035 20/10 Q1018 NOSIG=
201805161120 METAR EBBR 161120Z 04015KT 010V080 9999 FEW030 21/10 Q1018
                        NOSIG=
201805161050 METAR EBBR 161050Z 01009KT 330V050 9999 FEW030 21/12 Q1018
                        NOSIG=
201805161020 METAR EBBR 161020Z 02014KT 9999 FEW030 20/09 Q1018 NOSIG=
201805160950 METAR EBBR 160950Z 02011KT 340V050 9999 FEW030 20/11 Q1017
                        NOSIG=
201805160920 METAR EBBR 160920Z 02011KT CAVOK 19/11 Q1017 NOSIG=
201805160850 METAR EBBR 160850Z 01009KT 330V050 CAVOK 20/11 Q1017 NOSIG=
201805160820 METAR EBBR 160820Z 01008KT 330V030 CAVOK 18/11 Q1017 NOSIG=
201805160750 METAR EBBR 160750Z 33006KT 310V010 8000 NSC 17/12 Q1017 NOSIG=
201805160720 METAR EBBR 160720Z 32006KT 6000 NSC 15/11 Q1017 NOSIG=
201805160650 METAR EBBR 160650Z 32005KT 280V350 6000 NSC 15/12 Q1017 NOSIG=
201805160620 METAR EBBR 160620Z 30006KT 3000 BR NSC 13/11 Q1016 BECMG
                        8000 NSW=
201805160550 METAR EBBR 160550Z 29006KT 2000 BR NSC 12/11 Q1016 NOSIG=
201805160520 METAR EBBR 160520Z 29005KT 260V320 2000 BR NSC 12/10 Q1016
                        NOSIG=
201805160450 METAR EBBR 160450Z 29006KT 2000 BR NSC 11/10 Q1016 NOSIG=
201805160420 METAR EBBR 160420Z 30006KT 2000 BR NSC 11/10 Q1016 NOSIG=
201805160350 METAR COR EBBR 160350Z 30006KT 2000 BR NSC 11/10 Q1016 NOSIG=
201805160320 METAR COR EBBR 160320Z 30006KT 3000 BR NSC 11/10 Q1016 TEMPO
                        2000 BR=
201805160250 METAR EBBR 160250Z 30005KT 4000 BR NSC 11/09 Q1016 TEMPO
                        2500 BR=
201805160220 METAR EBBR 160220Z 29006KT 5000 BR NSC 12/09 Q1016 TEMPO
                        3500 BR=
201805160150 METAR EBBR 160150Z 30005KT 7000 NSC 12/09 Q1016 NOSIG=
201805160120 METAR EBBR 160120Z 31006KT CAVOK 12/09 Q1016 NOSIG=
201805160050 METAR EBBR 160050Z 29007KT CAVOK 13/10 Q1016 NOSIG=
201805160020 METAR EBBR 160020Z 30006KT CAVOK 14/10 Q1016 NOSIG=
201805152350 METAR EBBR 152350Z 29005KT CAVOK 14/10 Q1016 NOSIG=
201805152320 METAR EBBR 152320Z 31004KT CAVOK 15/09 Q1016 NOSIG=
201805152250 METAR EBBR 152250Z 32004KT CAVOK 16/08 Q1016 NOSIG=
201805152220 METAR EBBR 152220Z 32004KT CAVOK 16/09 Q1016 NOSIG=
201805152150 METAR EBBR 152150Z 36005KT CAVOK 17/09 Q1016 NOSIG=
201805152120 METAR EBBR 152120Z 35006KT CAVOK 17/09 Q1016 NOSIG=
201805152050 METAR EBBR 152050Z 35004KT CAVOK 17/08 Q1016 NOSIG=
201805152020 METAR EBBR 152020Z 36006KT CAVOK 18/08 Q1016 NOSIG=
201805151950 METAR EBBR 151950Z 01005KT CAVOK 20/08 Q1015 NOSIG=
201805151920 METAR EBBR 151920Z 02004KT CAVOK 19/08 Q1015 NOSIG=
201805151850 METAR EBBR 151850Z 36004KT CAVOK 20/08 Q1015 NOSIG=
201805151820 METAR EBBR 151820Z 36004KT CAVOK 21/07 Q1015 NOSIG=
201805151750 METAR EBBR 151750Z 03006KT 360V060 CAVOK 22/06 Q1015 NOSIG=
201805151720 METAR EBBR 151720Z 05005KT CAVOK 23/07 Q1015 NOSIG=
201805151650 METAR EBBR 151650Z 05005KT CAVOK 23/07 Q1015 NOSIG=
201805151620 METAR EBBR 151620Z 03005KT CAVOK 24/05 Q1015 NOSIG=
201805151550 METAR EBBR 151550Z 06004KT CAVOK 23/08 Q1015 NOSIG=
201805151520 METAR EBBR 151520Z 07005KT 050V110 CAVOK 23/06 Q1015 NOSIG=
201805151450 METAR EBBR 151450Z 05005KT 010V130 CAVOK 24/06 Q1015 NOSIG=
201805151420 METAR EBBR 151420Z 03007KT 350V070 CAVOK 24/05 Q1015 NOSIG=
201805151350 METAR EBBR 151350Z 05007KT 010V090 CAVOK 24/07 Q1015 NOSIG=
201805151320 METAR EBBR 151320Z 04008KT 360V080 9999 FEW045 24/06 Q1016
                        NOSIG=
201805151250 METAR EBBR 151250Z 05007KT 030V090 9999 FEW045 23/05 Q1016
                        NOSIG=
201805151220 METAR EBBR 151220Z 04009KT 010V070 9999 FEW040 23/05 Q1016
                        NOSIG=
201805151150 METAR EBBR 151150Z 05005KT 360V110 9999 FEW040 23/07 Q1016
                        NOSIG=
201805151120 METAR EBBR 151120Z 06007KT 020V120 9999 FEW035 22/07 Q1016
                        NOSIG=
201805151050 METAR EBBR 151050Z 06007KT 030V090 9000 FEW033 21/07 Q1016
                        NOSIG=
201805151020 METAR EBBR 151020Z 07004KT 010V110 9000 FEW033 20/09 Q1016
                        NOSIG=
201805150950 METAR EBBR 150950Z 04003KT 310V120 9000 FEW020 19/11 Q1017
                        NOSIG=
201805150920 METAR EBBR 150920Z 05003KT 340V090 7000 FEW012 18/11 Q1017
                        NOSIG=
201805150850 METAR EBBR 150850Z VRB03KT 6000 FEW010 17/12 Q1017 BECMG
                        6000 NSW=
201805150820 METAR EBBR 150820Z VRB02KT 4600 BR SCT008 15/12 Q1017 BECMG
                        6000 NSW=
201805150750 METAR EBBR 150750Z VRB02KT 3300 BR BKN005 14/12 Q1016 BECMG
                        6000 NSW SCT008=
201805150720 METAR EBBR 150720Z 31004KT 280V340 2500 BR BKN003 13/12 Q1016
                        BECMG 6000 NSW SCT010=
201805150650 METAR EBBR 150650Z 29005KT 270V330 2000 BR SCT002 BKN003
                        13/11 Q1016 NOSIG=
201805150620 METAR EBBR 150620Z 30006KT 1700 BR SCT002 BKN003 12/11 Q1015
                        NOSIG=
201805150550 METAR EBBR 150550Z 30006KT 1700 BR SCT002 BKN003 12/11 Q1015
                        NOSIG=
201805150520 METAR EBBR 150520Z 30007KT 2200 BR BKN003 12/11 Q1015 NOSIG=
201805150450 METAR EBBR 150450Z 29006KT 2500 BR SCT003 BKN004 12/10 Q1015
                        NOSIG=
201805150420 METAR COR EBBR 150420Z 29006KT 2500 BR BKN005 12/10 Q1015
                        NOSIG=
201805150350 METAR COR EBBR 150350Z 29006KT 3000 BR BKN005 12/10 Q1015
                        TEMPO BKN004=
201805150320 METAR EBBR 150320Z 28007KT 3500 BR BKN006 12/10 Q1015 TEMPO
                        BKN004=
201805150250 METAR EBBR 150250Z 28007KT 3500 BR FEW006 12/10 Q1014 NOSIG=
201805150220 METAR EBBR 150220Z 28006KT 3000 BR NSC 11/10 Q1014 NOSIG=
201805150150 METAR EBBR 150150Z 28005KT 2500 BR FEW006 11/10 Q1014 NOSIG=
201805150120 METAR EBBR 150120Z 29005KT 2500 BR SCT005 11/10 Q1014 TEMPO
                        BKN004=
201805150050 METAR COR EBBR 150050Z 29008KT 2500 BR SCT005 12/10 Q1015
                        TEMPO BKN004=
201805150020 METAR EBBR 150020Z 29008KT 2700 BR BKN005 12/10 Q1015 NOSIG=
201805142350 METAR EBBR 142350Z 28008KT 3000 BR SCT004 BKN005 12/10 Q1015
                        NOSIG=
201805142320 METAR EBBR 142320Z 30008KT 2500 BR BKN004 12/10 Q1015 NOSIG=
201805142250 METAR EBBR 142250Z 30008KT 3000 BR BKN005 12/10 Q1015 TEMPO
                        BKN004=
201805142220 METAR EBBR 142220Z 29009KT 3000 BR SCT004 BKN005 12/10 Q1015
                        TEMPO BKN004=
201805142150 METAR EBBR 142150Z 30009KT 3000 BR SCT004 BKN005 12/10 Q1015
                        TEMPO BKN004=
201805142120 METAR EBBR 142120Z 30007KT 3500 BR SCT005 BKN006 12/10 Q1015
                        TEMPO BKN004=
201805142050 METAR EBBR 142050Z 30009KT 3800 BR SCT005 BKN006 12/10 Q1015
                        TEMPO BKN004=
201805142020 METAR EBBR 142020Z 30010KT 3800 BR FEW006 BKN007 12/10 Q1015
                        TEMPO BKN004=
201805141950 METAR EBBR 141950Z 30012KT 3800 BR FEW006 BKN007 12/10 Q1015
                        TEMPO 2500 BR BKN004=
201805141920 METAR EBBR 141920Z 30010KT 3800 BR SCT006 BKN008 13/11 Q1014
                        TEMPO 2500 BR BKN004=
201805141850 METAR EBBR 141850Z 28011KT 3800 BR SCT007 BKN009 13/11 Q1014
                        TEMPO 2500 BR BKN004=
201805141820 METAR EBBR 141820Z 28011KT 4000 BR BKN011 14/11 Q1014 TEMPO
                        2500 BR=
201805141750 METAR COR EBBR 141750Z 28010KT 5000 BR BKN012 15/12 Q1014
                        NOSIG=
201805141720 METAR EBBR 141720Z 29010KT 6000 FEW012 16/12 Q1014 NOSIG=
201805141650 METAR EBBR 141650Z 29010KT 6000 FEW024 17/13 Q1014 NOSIG=
201805141620 METAR EBBR 141620Z 30011KT 270V330 6000 FEW024 17/13 Q1014
                        NOSIG=
201805141550 METAR EBBR 141550Z 31009KT 270V330 7000 FEW024 18/13 Q1014
                        NOSIG=
201805141520 METAR EBBR 141520Z 30010KT 270V340 7000 FEW024 18/13 Q1014
                        NOSIG=
201805141450 METAR EBBR 141450Z 32009KT 280V350 7000 FEW024 18/13 Q1014
                        NOSIG=
201805141420 METAR EBBR 141420Z 31008KT 280V340 7000 FEW024 18/14 Q1014
                        NOSIG=
201805141350 METAR EBBR 141350Z 31009KT 280V360 7000 FEW024 19/14 Q1014
                        NOSIG=
201805141320 METAR EBBR 141320Z 31005KT 270V360 7000 FEW024 19/13 Q1014
                        NOSIG=
201805141250 METAR EBBR 141250Z 33005KT 310V010 6000 SCT022 18/13 Q1014
                        NOSIG=
201805141220 METAR EBBR 141220Z 35007KT 320V020 6000 SCT012 BKN016 17/12
                        Q1014 NOSIG=
201805141150 METAR EBBR 141150Z 33006KT 290V360 6000 FEW011 BKN014 15/12
                        Q1014 BECMG SCT015=
201805141120 METAR EBBR 141120Z 35005KT 310V030 6000 FEW009 BKN011 14/12
                        Q1014 BECMG SCT015=
201805141050 METAR EBBR 141050Z 36006KT 330V030 4500 BR FEW007 BKN009
                        13/11 Q1014 BECMG 6000 NSW BKN011=
201805141020 METAR EBBR 141020Z 35007KT 4500 BR FEW005 BKN006 13/11 Q1014
                        BECMG 6000 NSW BKN009=
201805140950 METAR EBBR 140950Z 01006KT 340V040 4500 BR FEW005 BKN006
                        12/11 Q1014 BECMG 6000 NSW BKN009=
201805140920 METAR EBBR 140920Z 02008KT 3000 BR FEW004 BKN005 12/11 Q1014
                        BECMG 4500 BR BKN007=
201805140850 METAR COR EBBR 140850Z 36007KT 330V030 2500 BR FEW004 BKN005
                        12/11 Q1013 BECMG 4500 BR BKN007=
201805140820 METAR EBBR 140820Z 33007KT 1300 R25L/1400N R25R/1600N R01/1700N
                        BR FEW003 BKN004 12/10 Q1013 TEMPO
                        BKN003=
201805140750 METAR EBBR 140750Z 33009KT 1500 BR FEW004 BKN005 12/10 Q1013
                        TEMPO 1200 BR BKN004=
201805140720 METAR EBBR 140720Z 33007KT 3000 BR FEW004 BKN005 12/10 Q1013
                        TEMPO 2000 BR BKN004=
201805140650 METAR EBBR 140650Z 34008KT 3000 BR FEW004 BKN005 11/10 Q1013
                        TEMPO 2000 BR BKN004=
201805140620 METAR EBBR 140620Z 34010KT 3500 BR BKN006 11/10 Q1013 TEMPO
                        2000 BR BKN004=
201805140550 METAR EBBR 140550Z 35008KT 3500 BR BKN006 11/09 Q1013 TEMPO
                        2000 BR BKN004=
201805140520 METAR EBBR 140520Z 35008KT 4500 BR BKN007 11/09 Q1013 TEMPO
                        2500 BR BKN005=
201805140450 METAR EBBR 140450Z 35007KT 4500 BR BKN007 11/09 Q1013 BECMG
                        3000 BR BKN006=
201805140420 METAR EBBR 140420Z 34008KT 7000 BKN008 11/09 Q1013 BECMG
                        3000 BR BKN006=
201805140350 METAR EBBR 140350Z 34009KT 9999 BKN009 11/09 Q1013 NOSIG=
201805140320 METAR EBBR 140320Z 33007KT 9999 FEW010 SCT036 11/09 Q1013
                        NOSIG=
201805140250 METAR EBBR 140250Z 32008KT 9999 SCT040 11/09 Q1013 NOSIG=
201805140220 METAR EBBR 140220Z 31008KT 8000 BKN040 11/09 Q1013 NOSIG=
201805140150 METAR EBBR 140150Z 31008KT 8000 BKN037 11/09 Q1013 TEMPO
                        BKN010=
201805140120 METAR EBBR 140120Z 30008KT 8000 BKN037 11/09 Q1013 TEMPO
                        BKN010=
201805140050 METAR EBBR 140050Z 31007KT 8000 FEW010 BKN040 11/09 Q1013
                        TEMPO BKN010=
201805140020 METAR EBBR 140020Z 31008KT 8000 FEW010 BKN040 11/09 Q1014
                        TEMPO BKN010=
201805132350 METAR EBBR 132350Z 32007KT 8000 SCT010 BKN044 11/09 Q1014
                        TEMPO BKN010=
201805132320 METAR EBBR 132320Z 32009KT 8000 SCT010 11/09 Q1014 TEMPO
                        BKN010=
201805132250 METAR EBBR 132250Z 32007KT 8000 SCT010 11/09 Q1014 TEMPO
                        BKN010=
201805132220 METAR EBBR 132220Z 32007KT 8000 SCT015 11/09 Q1014 NOSIG=
201805132150 METAR EBBR 132150Z 32007KT 9999 SCT015 BKN045 11/09 Q1015
                        NOSIG=
201805132120 METAR EBBR 132120Z 32006KT 9999 SCT015 BKN045 12/09 Q1015
                        NOSIG=
201805132050 METAR EBBR 132050Z 33007KT 9999 SCT015 BKN045 12/09 Q1015
                        NOSIG=
201805132020 METAR EBBR 132020Z 33007KT 290V350 9999 BKN015 12/10 Q1015
                        NOSIG=
201805131950 METAR EBBR 131950Z 32007KT 9999 BKN015 12/10 Q1015 NOSIG=
201805131920 METAR EBBR 131920Z 33008KT 310V010 9999 BKN015 12/09 Q1015
                        NOSIG=
201805131850 METAR EBBR 131850Z 33007KT 9999 BKN015 12/10 Q1014 NOSIG=
201805131820 METAR EBBR 131820Z 33008KT 9999 BKN018 12/10 Q1014 NOSIG=
201805131750 METAR EBBR 131750Z 33009KT 9999 SCT012 BKN017 12/10 Q1014
                        NOSIG=
201805131720 METAR EBBR 131720Z 33007KT 300V360 9999 SCT013 BKN018 12/10
                        Q1014 NOSIG=
201805131650 METAR EBBR 131650Z 32008KT 290V360 9999 SCT013 BKN022 12/10
                        Q1014 NOSIG=
201805131620 METAR EBBR 131620Z 32009KT 9999 SCT013 BKN018 12/10 Q1014
                        NOSIG=
201805131550 METAR EBBR 131550Z 32009KT 9999 SCT012 BKN018 13/10 Q1014
                        NOSIG=
201805131520 METAR EBBR 131520Z 31007KT 9999 SCT009 BKN016 13/11 Q1014
                        NOSIG=
201805131450 METAR EBBR 131450Z 30006KT 6000 -DZ SCT006 BKN009 12/11 Q1014
                        NOSIG=
201805131420 METAR EBBR 131420Z 30007KT 6000 -DZ SCT005 BKN008 12/10 Q1014
                        NOSIG=
201805131350 METAR EBBR 131350Z 29006KT 270V330 5000 -DZ SCT007 BKN009
                        12/10 Q1014 NOSIG=
201805131320 METAR EBBR 131320Z 30006KT 6000 -RA SCT008 BKN011 12/10 Q1014
                        NOSIG=
201805131250 METAR EBBR 131250Z 30007KT 6000 -RA BKN009 12/10 Q1014 NOSIG=
201805131220 METAR EBBR 131220Z 31008KT 6000 -RA BKN009 12/10 Q1014 NOSIG=
201805131150 METAR EBBR 131150Z 30007KT 9000 -RA SCT009 BKN011 12/10 Q1014
                        NOSIG=
201805131120 METAR EBBR 131120Z 30007KT 9000 -RA BKN007 12/10 Q1014 NOSIG=
201805131050 METAR EBBR 131050Z 30006KT 7000 -RADZ SCT007 BKN009 12/10
                        Q1014 NOSIG=
201805131020 METAR EBBR 131020Z 28007KT 5000 -RADZ FEW007 BKN009 11/10
                        Q1014 TEMPO 4000 RA BKN007=
201805130950 METAR COR EBBR 130950Z 27009KT 5000 -RADZ FEW007 BKN009 11/10
                        Q1014 TEMPO 4000 RA BKN007=
201805130920 METAR EBBR 130920Z 29008KT 8000 -RA FEW006 BKN009 12/10 Q1014
                        TEMPO 4000 RA BKN007=
201805130850 METAR EBBR 130850Z 28009KT 8000 -RA FEW008 BKN010 12/10 Q1014
                        TEMPO 4000 RA BKN007=
201805130820 METAR EBBR 130820Z 28009KT 9999 SCT008 BKN010 12/10 Q1014
                        TEMPO 4000 RA BKN005=
201805130750 METAR COR EBBR 130750Z 28011KT 9999 SCT008 BKN009 12/10 Q1013
                        TEMPO 4000 RA BKN005=
201805130720 METAR EBBR 130720Z 28010KT 9999 SCT007 BKN010 12/10 Q1013
                        NOSIG=
201805130650 METAR EBBR 130650Z 28010KT 9999 SCT009 BKN010 12/10 Q1013
                        NOSIG=
201805130620 METAR EBBR 130620Z 27007KT 9999 SCT009 BKN010 12/10 Q1013
                        NOSIG=
201805130550 METAR COR EBBR 130550Z 28008KT 9999 BKN010 12/10 Q1012 NOSIG=
201805130520 METAR EBBR 130520Z 28009KT 6000 BKN011 12/10 Q1012 TEMPO
                        BKN008=
201805130450 METAR COR EBBR 130450Z 26010KT 6000 SCT008 BKN010 12/10 Q1012
                        TEMPO BKN008=
201805130420 METAR EBBR 130420Z 25009KT 7000 BKN009 12/10 Q1012 NOSIG=
201805130350 METAR EBBR 130350Z 26007KT 7000 BKN012 13/10 Q1012 NOSIG=
201805130320 METAR EBBR 130320Z 26005KT 8000 FEW012 13/10 Q1011 TEMPO
                        BKN012=
201805130250 METAR EBBR 130250Z 27006KT 8000 NSC 13/10 Q1011 NOSIG=
201805130220 METAR EBBR 130220Z 26007KT CAVOK 13/10 Q1011 NOSIG=
201805130150 METAR EBBR 130150Z 25008KT CAVOK 13/10 Q1011 NOSIG=
201805130120 METAR EBBR 130120Z 24008KT CAVOK 14/10 Q1011 NOSIG=
201805130050 METAR EBBR 130050Z 31002KT CAVOK 14/10 Q1010 NOSIG=
201805130020 METAR EBBR 130020Z 30004KT CAVOK 14/10 Q1010 NOSIG=
201805122350 METAR EBBR 122350Z 30006KT CAVOK 15/10 Q1010 NOSIG=
201805122320 METAR EBBR 122320Z 28006KT CAVOK 15/10 Q1010 NOSIG=
201805122250 METAR EBBR 122250Z 27008KT CAVOK 15/10 Q1010 NOSIG=
201805122220 METAR EBBR 122220Z 27009KT 9999 FEW046 16/10 Q1010 NOSIG=
201805122150 METAR EBBR 122150Z 27009KT 9999 FEW046 17/11 Q1010 NOSIG=
201805122120 METAR EBBR 122120Z 26009KT 9999 FEW046 17/11 Q1010 NOSIG=
201805122050 METAR EBBR 122050Z 23016KT 9999 FEW046 18/10 Q1011 NOSIG=
201805122020 METAR EBBR 122020Z 13005KT CAVOK 19/10 Q1010 NOSIG=
201805121950 METAR EBBR 121950Z 10004KT CAVOK 19/09 Q1010 NOSIG=
201805121920 METAR EBBR 121920Z 09004KT CAVOK 20/09 Q1009 NOSIG=
201805121850 METAR EBBR 121850Z 09004KT CAVOK 21/// Q1009 NOSIG=
201805121820 METAR EBBR 121820Z 09007KT CAVOK 21/10 Q1009 NOSIG=
201805121750 METAR EBBR 121750Z 08004KT CAVOK 21/09 Q1009 NOSIG=
201805121720 METAR EBBR 121720Z 07004KT CAVOK 22/10 Q1009 NOSIG=
201805121650 METAR EBBR 121650Z 09004KT CAVOK 22/09 Q1010 NOSIG=
201805121620 METAR EBBR 121620Z 09006KT 060V130 CAVOK 23/09 Q1010 NOSIG=
201805121550 METAR EBBR 121550Z 11006KT 080V140 CAVOK 23/08 Q1010 NOSIG=
201805121520 METAR EBBR 121520Z 11007KT 080V140 CAVOK 23/09 Q1011 NOSIG=
201805121450 METAR EBBR 121450Z 10006KT 060V140 CAVOK 23/09 Q1011 NOSIG=
201805121420 METAR EBBR 121420Z 11006KT 060V160 CAVOK 23/09 Q1011 NOSIG=
201805121350 METAR EBBR 121350Z 10007KT 070V150 CAVOK 23/09 Q1012 NOSIG=
201805121320 METAR EBBR 121320Z 12006KT 040V150 CAVOK 23/09 Q1012 NOSIG=
201805121250 METAR EBBR 121250Z 12006KT 060V190 CAVOK 23/08 Q1012 NOSIG=
201805121220 METAR EBBR 121220Z 14005KT 070V200 CAVOK 23/08 Q1013 NOSIG=
201805121150 METAR EBBR 121150Z VRB04KT CAVOK 22/08 Q1013 NOSIG=
201805121120 METAR EBBR 121120Z 11005KT 030V170 CAVOK 22/10 Q1013 NOSIG=
201805121050 METAR EBBR 121050Z 12004KT 040V180 CAVOK 22/09 Q1013 NOSIG=
201805121020 METAR EBBR 121020Z 10004KT 060V200 CAVOK 21/10 Q1014 NOSIG=
201805120950 METAR EBBR 120950Z VRB03KT CAVOK 21/10 Q1014 NOSIG=
201805120920 METAR EBBR 120920Z 13003KT 080V160 CAVOK 19/11 Q1014 NOSIG=
201805120850 METAR EBBR 120850Z 12004KT 090V160 CAVOK 18/10 Q1014 NOSIG=
201805120820 METAR EBBR 120820Z 18006KT CAVOK 17/09 Q1014 NOSIG=
201805120750 METAR EBBR 120750Z 16005KT 140V210 CAVOK 16/09 Q1014 NOSIG=
201805120720 METAR EBBR 120720Z 15004KT CAVOK 14/08 Q1015 NOSIG=
201805120650 METAR EBBR 120650Z 15004KT CAVOK 14/08 Q1014 NOSIG=
201805120620 METAR EBBR 120620Z 15006KT CAVOK 13/08 Q1014 NOSIG=
201805120550 METAR EBBR 120550Z 14006KT CAVOK 13/07 Q1014 NOSIG=
201805120520 METAR EBBR 120520Z 16004KT CAVOK 13/08 Q1015 NOSIG=
201805120450 METAR EBBR 120450Z 16004KT CAVOK 12/08 Q1014 NOSIG=
201805120420 METAR EBBR 120420Z 18004KT CAVOK 12/08 Q1014 NOSIG=
201805120350 METAR EBBR 120350Z 15002KT CAVOK 12/07 Q1014 NOSIG=
201805120320 METAR EBBR 120320Z 18005KT CAVOK 11/07 Q1015 NOSIG=
201805120250 METAR EBBR 120250Z 18005KT CAVOK 11/07 Q1015 NOSIG=
201805120220 METAR EBBR 120220Z 17003KT CAVOK 10/07 Q1015 NOSIG=
201805120150 METAR EBBR 120150Z 16004KT CAVOK 10/07 Q1015 NOSIG=
201805120120 METAR EBBR 120120Z 16004KT CAVOK 10/07 Q1015 NOSIG=
201805120050 METAR EBBR 120050Z 14004KT CAVOK 10/07 Q1015 NOSIG=
201805120020 METAR EBBR 120020Z 14004KT CAVOK 11/07 Q1015 NOSIG=
201805112350 METAR EBBR 112350Z 14004KT CAVOK 11/07 Q1015 NOSIG=
201805112320 METAR EBBR 112320Z 13003KT CAVOK 11/08 Q1015 NOSIG=
201805112250 METAR EBBR 112250Z 15003KT CAVOK 12/08 Q1015 NOSIG=
201805112220 METAR EBBR 112220Z 16002KT CAVOK 12/09 Q1016 NOSIG=
201805112150 METAR EBBR 112150Z 18002KT CAVOK 13/09 Q1016 NOSIG=
201805112120 METAR EBBR 112120Z 25003KT CAVOK 12/09 Q1016 NOSIG=
201805112050 METAR EBBR 112050Z 23003KT CAVOK 13/09 Q1016 NOSIG=
201805112020 METAR EBBR 112020Z 19003KT CAVOK 13/09 Q1016 NOSIG=
201805111950 METAR EBBR 111950Z 20003KT CAVOK 13/09 Q1016 NOSIG=
201805111920 METAR EBBR 111920Z 13002KT CAVOK 16/10 Q1015 NOSIG=
201805111850 METAR EBBR 111850Z 12003KT CAVOK 17/09 Q1015 NOSIG=
201805111820 METAR EBBR 111820Z 12005KT CAVOK 18/09 Q1015 NOSIG=
201805111750 METAR EBBR 111750Z 11004KT 080V150 CAVOK 19/08 Q1015 NOSIG=
201805111720 METAR EBBR 111720Z 11005KT 9999 FEW042 19/08 Q1015 NOSIG=
201805111650 METAR EBBR 111650Z 12005KT 080V160 CAVOK 19/08 Q1015 NOSIG=
201805111620 METAR EBBR 111620Z 13005KT 100V160 CAVOK 19/08 Q1016 NOSIG=
201805111550 METAR EBBR 111550Z 13005KT 080V190 CAVOK 19/09 Q1016 NOSIG=
201805111520 METAR EBBR 111520Z 16006KT 110V210 CAVOK 19/08 Q1016 NOSIG=
201805111450 METAR EBBR 111450Z 14005KT 090V180 9999 BKN048 19/07 Q1016
                        NOSIG=
201805111420 METAR EBBR 111420Z 11007KT 080V140 9999 BKN048 19/08 Q1017
                        NOSIG=
201805111350 METAR EBBR 111350Z 13005KT 100V190 9999 SCT048 18/06 Q1017
                        NOSIG=
201805111320 METAR EBBR 111320Z 13005KT 090V180 9999 SCT048 18/07 Q1017
                        NOSIG=
201805111250 METAR EBBR 111250Z 13006KT 090V190 9999 SCT048 18/08 Q1017
                        NOSIG=
201805111220 METAR EBBR 111220Z 15005KT 060V210 9999 SCT045 17/08 Q1018
                        NOSIG=
201805111150 METAR EBBR 111150Z 12006KT 080V190 9999 SCT045 17/07 Q1018
                        NOSIG=
201805111120 METAR EBBR 111120Z 14005KT 070V180 9999 FEW039 17/07 Q1018
                        NOSIG=
201805111050 METAR EBBR 111050Z 14005KT 090V200 9999 FEW039 16/07 Q1019
                        NOSIG=
201805111020 METAR EBBR 111020Z VRB04KT CAVOK 16/07 Q1019 NOSIG=
201805110950 METAR EBBR 110950Z 11005KT 060V160 CAVOK 15/06 Q1019 NOSIG=
201805110920 METAR EBBR 110920Z 12005KT 060V170 CAVOK 14/05 Q1019 NOSIG=
201805110850 METAR EBBR 110850Z 12006KT 080V150 CAVOK 14/05 Q1020 NOSIG=
201805110820 METAR EBBR 110820Z 11005KT 080V150 CAVOK 13/05 Q1020 NOSIG=
201805110750 METAR EBBR 110750Z 09005KT CAVOK 12/05 Q1020 NOSIG=
201805110720 METAR EBBR 110720Z 11005KT 070V140 CAVOK 11/06 Q1020 NOSIG=
201805110650 METAR EBBR 110650Z 10005KT CAVOK 11/06 Q1021 NOSIG=
201805110620 METAR EBBR 110620Z 12006KT CAVOK 09/06 Q1021 NOSIG=
201805110550 METAR EBBR 110550Z 12004KT CAVOK 09/06 Q1020 NOSIG=
201805110520 METAR EBBR 110520Z VRB02KT CAVOK 08/06 Q1020 NOSIG=
201805110450 METAR EBBR 110450Z 13003KT CAVOK 06/04 Q1020 NOSIG=
201805110420 METAR EBBR 110420Z 14002KT CAVOK 05/04 Q1020 NOSIG=
201805110350 METAR EBBR 110350Z 13002KT CAVOK 05/04 Q1021 NOSIG=
201805110320 METAR EBBR 110320Z 13001KT CAVOK 06/04 Q1021 NOSIG=
201805110250 METAR EBBR 110250Z 17001KT CAVOK 06/04 Q1021 NOSIG=
201805110220 METAR EBBR 110220Z 29001KT CAVOK 05/04 Q1021 NOSIG=
201805110150 METAR EBBR 110150Z 00000KT CAVOK 06/04 Q1021 NOSIG=
201805110120 METAR EBBR 110120Z 14001KT CAVOK 06/05 Q1021 NOSIG=
201805110050 METAR EBBR 110050Z 17001KT CAVOK 07/05 Q1021 NOSIG=
201805110020 METAR EBBR 110020Z VRB01KT CAVOK 07/05 Q1021 NOSIG=
201805102350 METAR EBBR 102350Z 24002KT CAVOK 06/05 Q1021 NOSIG=
201805102320 METAR EBBR 102320Z 18004KT CAVOK 07/06 Q1021 NOSIG=
201805102250 METAR EBBR 102250Z 26002KT CAVOK 07/05 Q1021 NOSIG=
201805102220 METAR EBBR 102220Z 27002KT CAVOK 08/05 Q1021 NOSIG=
201805102150 METAR EBBR 102150Z 30003KT CAVOK 09/06 Q1021 NOSIG=
201805102120 METAR EBBR 102120Z 30003KT CAVOK 10/06 Q1021 NOSIG=
201805102050 METAR EBBR 102050Z 31004KT CAVOK 10/06 Q1021 NOSIG=
201805102020 METAR EBBR 102020Z 30003KT CAVOK 10/07 Q1021 NOSIG=
201805101950 METAR EBBR 101950Z 30004KT 9999 FEW048 11/07 Q1020 NOSIG=
201805101920 METAR EBBR 101920Z 32005KT 9999 FEW046 11/07 Q1020 NOSIG=
201805101850 METAR EBBR 101850Z 32007KT 9999 FEW022 BKN046 12/07 Q1020
                        NOSIG=
201805101820 METAR COR EBBR 101820Z 32008KT 9999 FEW017 BKN037 12/08 Q1019
                        NOSIG=
201805101750 METAR EBBR 101750Z 32010KT 9999 SCT014 SCT049 12/08 Q1019
                        NOSIG=
201805101720 METAR EBBR 101720Z 33012KT 300V360 9999 BKN014 12/08 Q1018
                        NOSIG=
201805101650 METAR EBBR 101650Z 31011KT 9999 FEW019 SCT028 13/09 Q1018
                        NOSIG=
201805101620 METAR EBBR 101620Z 32009KT 290V350 9999 -SHRA FEW024 BKN034
                        14/09 Q1017 NOSIG=
201805101550 METAR EBBR 101550Z 32013KT 9999 SCT027 BKN045 14/08 Q1017
                        NOSIG=
201805101520 METAR EBBR 101520Z 33007KT 310V010 9999 SCT031 BKN045 15/08
                        Q1016 NOSIG=
201805101450 METAR EBBR 101450Z 32013KT 9999 SCT031 BKN045 14/07 Q1016
                        NOSIG=
201805101420 METAR EBBR 101420Z 31007KT 280V340 9999 FEW038 16/08 Q1016
                        NOSIG=
201805101350 METAR EBBR 101350Z 31011KT 9999 -SHRA SCT038 14/09 Q1015
                        NOSIG=
201805101320 METAR EBBR 101320Z 34006KT 310V020 9999 SCT038 16/08 Q1015
                        NOSIG=
201805101250 METAR EBBR 101250Z 32007KT 290V010 9999 SCT038 15/07 Q1015
                        NOSIG=
201805101220 METAR EBBR 101220Z 30011KT 270V330 9999 -SHRA SCT036 15/07
                        Q1014 NOSIG=
201805101150 METAR EBBR 101150Z 30010KT 9999 -SHRA FEW032TCU SCT036 15/07
                        Q1014 NOSIG=
201805101120 METAR EBBR 101120Z 33008KT 9999 -RA FEW032TCU BKN036 15/06
                        Q1013 NOSIG=
201805101050 METAR EBBR 101050Z 29008KT 9999 SCT034 16/07 Q1013 NOSIG=
201805101020 METAR EBBR 101020Z 31009KT 280V340 9999 SCT030 BKN035 16/08
                        Q1013 NOSIG=
201805100950 METAR EBBR 100950Z 29011KT 9999 SCT030 BKN035 15/08 Q1012
                        NOSIG=
201805100920 METAR EBBR 100920Z 28011KT 9999 BKN025 15/09 Q1012 NOSIG=
201805100850 METAR EBBR 100850Z 28008KT 240V310 9999 BKN021 14/08 Q1012
                        NOSIG=
201805100820 METAR EBBR 100820Z 26007KT 9999 BKN019 13/08 Q1011 NOSIG=
201805100750 METAR EBBR 100750Z 26009KT 9999 BKN017 12/08 Q1011 NOSIG=
201805100720 METAR EBBR 100720Z 27010KT 9999 BKN017 12/08 Q1011 NOSIG=
201805100650 METAR EBBR 100650Z 27010KT 9999 BKN017 12/07 Q1010 NOSIG=
201805100620 METAR EBBR 100620Z 26010KT 9999 FEW018 11/07 Q1010 NOSIG=
201805100550 METAR EBBR 100550Z 25008KT CAVOK 11/07 Q1009 NOSIG=
201805100520 METAR EBBR 100520Z 25009KT CAVOK 11/06 Q1009 NOSIG=
201805100450 METAR EBBR 100450Z 25009KT 210V270 CAVOK 11/06 Q1009 NOSIG=
201805100420 METAR EBBR 100420Z 25007KT CAVOK 11/05 Q1009 NOSIG=
201805100350 METAR EBBR 100350Z 25007KT CAVOK 11/05 Q1008 NOSIG=
201805100320 METAR EBBR 100320Z 26007KT CAVOK 11/05 Q1008 NOSIG=
201805100250 METAR EBBR 100250Z 27010KT CAVOK 12/04 Q1008 NOSIG=
201805100220 METAR EBBR 100220Z 28009KT CAVOK 12/06 Q1008 NOSIG=
201805100150 METAR EBBR 100150Z 28010KT CAVOK 13/05 Q1008 NOSIG=
201805100120 METAR EBBR 100120Z 26007KT CAVOK 13/06 Q1008 NOSIG=
201805100050 METAR EBBR 100050Z 28007KT 9999 BKN023 14/09 Q1008 NOSIG=
201805100020 METAR EBBR 100020Z 29007KT 9999 BKN018 14/09 Q1008 NOSIG=
201805092350 METAR EBBR 092350Z 30004KT 270V330 9999 FEW016 BKN025 14/10
                        Q1008 NOSIG=
201805092320 METAR EBBR 092320Z 32004KT 9999 BKN025 14/10 Q1008 NOSIG=
201805092250 METAR EBBR 092250Z 32005KT 9999 BKN025 14/10 Q1008 NOSIG=
201805092220 METAR EBBR 092220Z 31009KT 9999 SCT025 14/10 Q1008 NOSIG=
201805092150 METAR EBBR 092150Z 31006KT CAVOK 14/10 Q1008 NOSIG=
201805092120 METAR EBBR 092120Z 32006KT CAVOK 15/10 Q1008 NOSIG=
201805092050 METAR EBBR 092050Z 33006KT CAVOK 15/11 Q1008 NOSIG=
201805092020 METAR EBBR 092020Z 32006KT CAVOK 16/11 Q1008 NOSIG=
201805091950 METAR EBBR 091950Z 32006KT CAVOK 16/12 Q1007 NOSIG=
201805091920 METAR EBBR 091920Z 32005KT CAVOK 17/11 Q1007 NOSIG=
201805091850 METAR EBBR 091850Z 32007KT CAVOK 17/11 Q1007 NOSIG=
201805091820 METAR EBBR 091820Z 31007KT 290V350 CAVOK 18/12 Q1007 NOSIG=
201805091750 METAR EBBR 091750Z 33009KT CAVOK 19/11 Q1007 NOSIG=
201805091720 METAR EBBR 091720Z 32009KT CAVOK 20/11 Q1007 NOSIG=
201805091650 METAR EBBR 091650Z 34009KT 300V360 CAVOK 20/11 Q1007 NOSIG=
201805091620 METAR EBBR 091620Z 32010KT 300V360 CAVOK 21/11 Q1007 NOSIG=
201805091550 METAR EBBR 091550Z 32011KT 290V350 CAVOK 21/11 Q1007 NOSIG=
201805091520 METAR EBBR 091520Z 33011KT 300V360 CAVOK 22/12 Q1007 NOSIG=
201805091450 METAR EBBR 091450Z 34008KT 310V010 CAVOK 22/12 Q1007 NOSIG=
201805091420 METAR EBBR 091420Z 34010KT CAVOK 23/12 Q1007 NOSIG=
201805091350 METAR EBBR 091350Z 30005KT 250V360 CAVOK 23/12 Q1007 NOSIG=
201805091320 METAR EBBR 091320Z 32007KT 290V360 CAVOK 23/12 Q1007 NOSIG=
201805091250 METAR EBBR 091250Z 33005KT 260V020 CAVOK 22/13 Q1007 NOSIG=
201805091220 METAR EBBR 091220Z 30007KT 270V340 CAVOK 22/13 Q1008 NOSIG=
201805091150 METAR EBBR 091150Z 32007KT 290V360 CAVOK 22/13 Q1008 NOSIG=
201805091120 METAR EBBR 091120Z 32007KT 260V010 CAVOK 22/13 Q1008 NOSIG=
201805091050 METAR EBBR 091050Z 31006KT 270V350 CAVOK 21/12 Q1008 NOSIG=
201805091020 METAR EBBR 091020Z 31006KT 280V350 CAVOK 21/12 Q1008 NOSIG=
201805090950 METAR EBBR 090950Z 30006KT 250V330 9000 NSC 20/12 Q1008 NOSIG=
201805090920 METAR EBBR 090920Z 29006KT 260V330 9000 NSC 20/12 Q1008 NOSIG=
201805090850 METAR EBBR 090850Z 27004KT 240V320 9000 NSC 23/15 Q1008 NOSIG=
201805090820 METAR EBBR 090820Z VRB02KT CAVOK 19/11 Q1008 NOSIG=
201805090750 METAR EBBR 090750Z VRB01KT CAVOK 19/12 Q1008 NOSIG=
201805090720 METAR EBBR 090720Z VRB02KT CAVOK 18/11 Q1008 NOSIG=
201805090650 METAR EBBR 090650Z VRB01KT CAVOK 17/12 Q1008 NOSIG=
201805090620 METAR EBBR 090620Z NIL=
201805090550 METAR EBBR 090550Z NIL=
201805090520 METAR EBBR 090520Z 25003KT 7000 NSC 14/11 Q1008 NOSIG=
201805090450 METAR EBBR 090450Z 26003KT 6000 NSC 13/10 Q1008 NOSIG=
201805090420 METAR EBBR 090420Z 27004KT 6000 NSC 13/10 Q1008 NOSIG=
201805090350 METAR EBBR 090350Z 29007KT 6000 NSC 14/10 Q1008 NOSIG=
201805090320 METAR EBBR 090320Z 30006KT 6000 NSC 14/10 Q1008 NOSIG=
201805090250 METAR EBBR 090250Z 29007KT 6000 NSC 14/10 Q1008 NOSIG=
201805090220 METAR EBBR 090220Z 30009KT 6000 NSC 15/10 Q1008 NOSIG=
201805090150 METAR EBBR 090150Z 30006KT 7000 NSC 15/09 Q1007 NOSIG=
201805090120 METAR EBBR 090120Z 30008KT 8000 NSC 15/09 Q1007 NOSIG=
201805090050 METAR EBBR 090050Z 30006KT CAVOK 15/09 Q1007 NOSIG=
201805090020 METAR EBBR 090020Z 30005KT CAVOK 16/09 Q1008 NOSIG=
201805082350 METAR EBBR 082350Z 29005KT CAVOK 16/09 Q1008 NOSIG=
201805082320 METAR EBBR 082320Z 29008KT CAVOK 17/10 Q1008 NOSIG=
201805082250 METAR EBBR 082250Z 30006KT CAVOK 18/10 Q1008 NOSIG=
201805082220 METAR EBBR 082220Z 30005KT CAVOK 17/11 Q1008 NOSIG=
201805082150 METAR EBBR 082150Z 31004KT CAVOK 19/12 Q1008 NOSIG=
201805082120 METAR EBBR 082120Z 31003KT CAVOK 19/12 Q1008 NOSIG=
201805082050 METAR EBBR 082050Z 32005KT CAVOK 20/12 Q1008 NOSIG=
201805082020 METAR EBBR 082020Z 32007KT CAVOK 21/10 Q1008 NOSIG=
201805081950 METAR EBBR 081950Z VRB01KT CAVOK 21/10 Q1008 NOSIG=
201805081920 METAR EBBR 081920Z 33004KT CAVOK 24/10 Q1007 NOSIG=
201805081850 METAR EBBR 081850Z 33003KT CAVOK 24/09 Q1007 NOSIG=
201805081820 METAR EBBR 081820Z 34004KT 300V010 CAVOK 25/09 Q1007 NOSIG=
201805081750 METAR EBBR 081750Z 36005KT 330V040 CAVOK 25/11 Q1007 NOSIG=
201805081720 METAR EBBR 081720Z VRB02KT CAVOK 26/09 Q1007 NOSIG=
201805081650 METAR EBBR 081650Z 19003KT 160V230 CAVOK 26/11 Q1007 NOSIG=
201805081620 METAR EBBR 081620Z 15004KT 090V180 CAVOK 27/08 Q1007 NOSIG=
201805081550 METAR EBBR 081550Z 13005KT 030V170 CAVOK 27/09 Q1008 NOSIG=
201805081520 METAR EBBR 081520Z 13004KT 080V200 CAVOK 27/08 Q1008 NOSIG=
201805081450 METAR EBBR 081450Z 15007KT 100V190 CAVOK 27/07 Q1008 NOSIG=
201805081420 METAR EBBR 081420Z 12005KT 060V180 CAVOK 27/08 Q1008 NOSIG=
201805081350 METAR EBBR 081350Z 11005KT 060V180 CAVOK 27/08 Q1008 NOSIG=
201805081320 METAR EBBR 081320Z 13006KT 090V170 CAVOK 27/07 Q1009 NOSIG=
201805081250 METAR EBBR 081250Z 13006KT 060V190 CAVOK 26/M11 Q1009 NOSIG=
201805081220 METAR EBBR 081220Z 25005KT 200V310 CAVOK 26/08 Q1009 NOSIG=
201805081150 METAR EBBR 081150Z 07003KT 350V140 CAVOK 26/10 Q1009 NOSIG=
201805081120 METAR EBBR 081120Z VRB03KT CAVOK 25/09 Q1010 NOSIG=
201805081050 METAR EBBR 081050Z 02003KT 330V080 CAVOK 24/12 Q1010 NOSIG=
201805081020 METAR EBBR 081020Z 08003KT 040V110 CAVOK 24/09 Q1010 NOSIG=
201805080950 METAR EBBR 080950Z VRB02KT CAVOK 23/11 Q1010 NOSIG=
201805080920 METAR EBBR 080920Z VRB02KT CAVOK 22/11 Q1011 NOSIG=
201805080850 METAR EBBR 080850Z VRB02KT CAVOK 22/11 Q1011 NOSIG=
201805080820 METAR EBBR 080820Z VRB01KT CAVOK 22/12 Q1011 NOSIG=
201805080750 METAR EBBR 080750Z 16003KT 100V190 CAVOK 20/10 Q1011 NOSIG=
201805080720 METAR EBBR 080720Z VRB01KT CAVOK 20/10 Q1011 NOSIG=
201805080650 METAR EBBR 080650Z VRB01KT CAVOK 18/11 Q1011 NOSIG=
201805080620 METAR EBBR 080620Z VRB01KT CAVOK 16/11 Q1011 NOSIG=
201805080550 METAR EBBR 080550Z 16004KT CAVOK 16/10 Q1011 NOSIG=
201805080520 METAR EBBR 080520Z 17003KT CAVOK 15/11 Q1011 NOSIG=
201805080450 METAR EBBR 080450Z 13003KT CAVOK 12/09 Q1012 NOSIG=
201805080420 METAR EBBR 080420Z 14004KT CAVOK 12/09 Q1012 NOSIG=
201805080350 METAR EBBR 080350Z 11002KT CAVOK 12/08 Q1012 NOSIG=
201805080320 METAR EBBR 080320Z 13002KT CAVOK 12/09 Q1012 NOSIG=
201805080250 METAR EBBR 080250Z VRB01KT CAVOK 12/08 Q1012 NOSIG=
201805080220 METAR EBBR 080220Z VRB02KT CAVOK 12/09 Q1012 NOSIG=
201805080150 METAR EBBR 080150Z 06003KT CAVOK 12/07 Q1013 NOSIG=
201805080120 METAR EBBR 080120Z 14002KT CAVOK 15/09 Q1013 NOSIG=
201805080050 METAR EBBR 080050Z 12004KT CAVOK 15/09 Q1013 NOSIG=
201805080020 METAR EBBR 080020Z 12003KT CAVOK 16/11 Q1013 NOSIG=
201805072350 METAR EBBR 072350Z 11003KT CAVOK 17/09 Q1014 NOSIG=
201805072320 METAR EBBR 072320Z 11004KT 080V140 CAVOK 16/08 Q1014 NOSIG=
201805072250 METAR EBBR 072250Z 10003KT 070V130 CAVOK 17/09 Q1014 NOSIG=
201805072220 METAR EBBR 072220Z 09002KT CAVOK 17/09 Q1014 NOSIG=
201805072150 METAR EBBR 072150Z 08001KT CAVOK 18/08 Q1014 NOSIG=
201805072120 METAR EBBR 072120Z 09002KT CAVOK 18/09 Q1014 NOSIG=
201805072050 METAR EBBR 072050Z 11002KT CAVOK 19/09 Q1014 NOSIG=
201805072020 METAR EBBR 072020Z VRB01KT CAVOK 18/10 Q1015 NOSIG=
201805071950 METAR EBBR 071950Z 10003KT CAVOK 21/08 Q1015 NOSIG=
201805071920 METAR EBBR 071920Z 09003KT CAVOK 21/08 Q1015 NOSIG=
201805071850 METAR EBBR 071850Z 08003KT CAVOK 22/08 Q1015 NOSIG=
201805071820 METAR EBBR 071820Z 07003KT CAVOK 23/08 Q1015 NOSIG=
201805071750 METAR EBBR 071750Z 07004KT CAVOK 24/08 Q1015 NOSIG=
201805071720 METAR EBBR 071720Z 08005KT CAVOK 25/06 Q1015 NOSIG=
201805071650 METAR EBBR 071650Z 09005KT 060V120 CAVOK 25/04 Q1015 NOSIG=
201805071620 METAR EBBR 071620Z 07007KT 040V100 CAVOK 25/06 Q1015 NOSIG=
201805071550 METAR EBBR 071550Z 08005KT 030V130 CAVOK 26/07 Q1016 NOSIG=
201805071520 METAR EBBR 071520Z 09005KT 030V150 CAVOK 25/07 Q1016 NOSIG=
201805071450 METAR EBBR 071450Z 06006KT 020V120 CAVOK 25/08 Q1016 NOSIG=
201805071420 METAR EBBR 071420Z 07004KT 030V140 CAVOK 25/08 Q1016 NOSIG=
201805071350 METAR EBBR 071350Z 05005KT 010V070 CAVOK 25/06 Q1017 NOSIG=
201805071320 METAR EBBR 071320Z 07005KT 030V130 CAVOK 25/07 Q1017 NOSIG=
201805071250 METAR EBBR 071250Z 08006G24KT 020V140 CAVOK 24/06 Q1017 NOSIG=
201805071220 METAR EBBR 071220Z 14006KT 090V180 CAVOK 24/06 Q1018 NOSIG=
201805071150 METAR EBBR 071150Z 11004KT 040V180 CAVOK 25/07 Q1018 NOSIG=
201805071120 METAR EBBR 071120Z 07005KT 020V110 CAVOK 24/10 Q1018 NOSIG=
201805071050 METAR EBBR 071050Z 07005KT 020V120 CAVOK 23/10 Q1018 NOSIG=
201805071020 METAR COR EBBR 071020Z 04004KT 330V070 CAVOK 23/09 Q1019
                        NOSIG=
201805070950 METAR EBBR 070950Z 07003KT 360V130 CAVOK 22/08 Q1019 NOSIG=
201805070920 METAR EBBR 070920Z VRB02KT CAVOK 21/09 Q1019 NOSIG=
201805070850 METAR EBBR 070850Z VRB02KT CAVOK 21/09 Q1019 NOSIG=
201805070820 METAR EBBR 070820Z 13004KT 070V160 CAVOK 19/09 Q1019 NOSIG=
201805070750 METAR EBBR 070750Z 07004KT 040V100 CAVOK 18/09 Q1019 NOSIG=
201805070720 METAR EBBR 070720Z 08003KT 050V110 CAVOK 17/09 Q1019 NOSIG=
201805070650 METAR EBBR 070650Z 09003KT CAVOK 16/09 Q1019 NOSIG=
201805070620 METAR EBBR 070620Z VRB02KT CAVOK 15/09 Q1019 NOSIG=
201805070550 METAR EBBR 070550Z VRB02KT CAVOK 14/09 Q1019 NOSIG=
201805070520 METAR EBBR 070520Z 11003KT CAVOK 14/08 Q1019 NOSIG=
201805070450 METAR EBBR 070450Z 12005KT CAVOK 13/07 Q1019 NOSIG=
201805070420 METAR EBBR 070420Z 13005KT CAVOK 13/07 Q1019 NOSIG=
201805070350 METAR EBBR 070350Z 13004KT CAVOK 12/07 Q1019 NOSIG=
201805070320 METAR EBBR 070320Z 13003KT CAVOK 13/07 Q1019 NOSIG=
201805070250 METAR EBBR 070250Z 13002KT CAVOK 14/08 Q1019 NOSIG=
201805070220 METAR EBBR 070220Z 13002KT CAVOK 13/08 Q1019 NOSIG=
201805070150 METAR EBBR 070150Z 11004KT CAVOK 14/08 Q1019 NOSIG=
201805070120 METAR EBBR 070120Z 12005KT CAVOK 15/09 Q1019 NOSIG=
201805070050 METAR EBBR 070050Z 12004KT CAVOK 15/09 Q1019 NOSIG=
201805070020 METAR EBBR 070020Z 12006KT CAVOK 15/09 Q1019 NOSIG=
201805062350 METAR EBBR 062350Z 12005KT CAVOK 16/08 Q1019 NOSIG=
201805062320 METAR EBBR 062320Z 10004KT CAVOK 16/08 Q1019 NOSIG=
201805062250 METAR EBBR 062250Z 08002KT CAVOK 16/08 Q1020 NOSIG=
201805062220 METAR EBBR 062220Z 09002KT CAVOK 17/06 Q1020 NOSIG=
201805062150 METAR EBBR 062150Z 09003KT CAVOK 18/07 Q1020 NOSIG=
201805062120 METAR EBBR 062120Z 09003KT CAVOK 19/07 Q1020 NOSIG=
201805062050 METAR EBBR 062050Z 09003KT CAVOK 19/07 Q1020 NOSIG=
201805062020 METAR EBBR 062020Z 08003KT CAVOK 20/06 Q1020 NOSIG=
201805061950 METAR EBBR 061950Z 08004KT CAVOK 21/05 Q1019 NOSIG=
201805061920 METAR EBBR 061920Z 08003KT CAVOK 22/05 Q1019 NOSIG=
201805061850 METAR EBBR 061850Z 09004KT CAVOK 22/06 Q1019 NOSIG=
201805061820 METAR EBBR 061820Z 09005KT CAVOK 23/05 Q1019 NOSIG=
201805061750 METAR EBBR 061750Z 09006KT CAVOK 24/06 Q1019 NOSIG=
201805061720 METAR EBBR 061720Z 08005KT CAVOK 25/07 Q1019 NOSIG=
201805061650 METAR EBBR 061650Z 08007KT 030V110 CAVOK 26/06 Q1019 NOSIG=
201805061620 METAR EBBR 061620Z 09007KT 060V120 CAVOK 26/08 Q1019 NOSIG=
201805061550 METAR EBBR 061550Z 08007KT 050V110 CAVOK 26/09 Q1020 NOSIG=
201805061520 METAR EBBR 061520Z 06007KT 020V090 CAVOK 26/10 Q1020 NOSIG=
201805061450 METAR EBBR 061450Z 06006KT CAVOK 26/11 Q1020 NOSIG=
201805061420 METAR EBBR 061420Z 07006KT 030V100 CAVOK 26/09 Q1020 NOSIG=
201805061350 METAR EBBR 061350Z 07005KT CAVOK 25/11 Q1021 NOSIG=
201805061320 METAR EBBR 061320Z 06005KT 020V100 CAVOK 25/10 Q1021 NOSIG=
201805061250 METAR EBBR 061250Z 05005KT 020V130 CAVOK 24/11 Q1021 NOSIG=
201805061220 METAR EBBR 061220Z 07006KT 030V110 CAVOK 24/10 Q1022 NOSIG=
201805061150 METAR EBBR 061150Z 07005KT 040V140 CAVOK 23/11 Q1022 NOSIG=
201805061120 METAR EBBR 061120Z 08005KT 020V140 CAVOK 22/10 Q1022 NOSIG=
201805061050 METAR EBBR 061050Z 07005KT 040V140 CAVOK 22/10 Q1022 NOSIG=
201805061020 METAR EBBR 061020Z 08005KT 040V130 CAVOK 21/10 Q1023 NOSIG=
201805060950 METAR EBBR 060950Z 05005KT 010V090 CAVOK 20/10 Q1023 NOSIG=
201805060920 METAR EBBR 060920Z 03004KT 350V070 CAVOK 19/10 Q1023 NOSIG=
201805060850 METAR EBBR 060850Z VRB02KT CAVOK 18/10 Q1023 NOSIG=
201805060820 METAR EBBR 060820Z 05003KT 010V090 CAVOK 16/09 Q1023 NOSIG=
201805060750 METAR EBBR 060750Z 04003KT 010V070 CAVOK 15/08 Q1023 NOSIG=
201805060720 METAR EBBR 060720Z VRB02KT CAVOK 14/07 Q1023 NOSIG=
201805060650 METAR EBBR 060650Z 06002KT CAVOK 13/07 Q1023 NOSIG=
201805060620 METAR EBBR 060620Z VRB02KT CAVOK 12/07 Q1023 NOSIG=
201805060550 METAR EBBR 060550Z 06002KT CAVOK 10/07 Q1023 NOSIG=
201805060520 METAR EBBR 060520Z 09003KT CAVOK 10/06 Q1023 NOSIG=
201805060450 METAR EBBR 060450Z 09002KT CAVOK 09/06 Q1022 NOSIG=
201805060420 METAR EBBR 060420Z 05002KT CAVOK 09/06 Q1022 NOSIG=
201805060350 METAR EBBR 060350Z 09003KT CAVOK 10/06 Q1022 NOSIG=
201805060320 METAR EBBR 060320Z VRB02KT CAVOK 09/06 Q1022 NOSIG=
201805060250 METAR EBBR 060250Z 06001KT CAVOK 10/06 Q1022 NOSIG=
201805060220 METAR EBBR 060220Z 05003KT CAVOK 11/06 Q1022 NOSIG=
201805060150 METAR EBBR 060150Z 05002KT CAVOK 11/06 Q1022 NOSIG=
201805060120 METAR EBBR 060120Z 05002KT CAVOK 12/06 Q1022 NOSIG=
201805060050 METAR EBBR 060050Z 00000KT CAVOK 12/05 Q1022 NOSIG=
201805060020 METAR EBBR 060020Z 06002KT CAVOK 13/05 Q1023 NOSIG=
201805052350 METAR EBBR 052350Z 08004KT CAVOK 13/06 Q1023 NOSIG=
201805052320 METAR EBBR 052320Z 07002KT CAVOK 14/05 Q1023 NOSIG=
201805052250 METAR EBBR 052250Z 06003KT CAVOK 13/06 Q1023 NOSIG=
201805052220 METAR EBBR 052220Z 06004KT CAVOK 14/06 Q1023 NOSIG=
201805052150 METAR EBBR 052150Z 06003KT CAVOK 15/06 Q1023 NOSIG=
201805052120 METAR EBBR 052120Z 06003KT 040V100 CAVOK 16/05 Q1023 NOSIG=
201805052050 METAR EBBR 052050Z 07003KT 040V100 CAVOK 16/05 Q1023 NOSIG=
201805052020 METAR EBBR 052020Z 06004KT CAVOK 17/06 Q1023 NOSIG=
201805051950 METAR EBBR 051950Z 07003KT CAVOK 18/06 Q1022 NOSIG=
201805051920 METAR EBBR 051920Z 06004KT CAVOK 18/06 Q1022 NOSIG=
201805051850 METAR EBBR 051850Z 06004KT CAVOK 19/07 Q1022 NOSIG=
201805051820 METAR EBBR 051820Z 07004KT CAVOK 20/06 Q1022 NOSIG=
201805051750 METAR EBBR 051750Z 08004KT 050V110 CAVOK 21/06 Q1022 NOSIG=
201805051720 METAR EBBR 051720Z 08006KT CAVOK 22/05 Q1022 NOSIG=
201805051650 METAR EBBR 051650Z 07007KT 030V100 CAVOK 22/04 Q1022 NOSIG=
201805051620 METAR EBBR 051620Z 09007KT 060V120 CAVOK 22/03 Q1022 NOSIG=
201805051550 METAR EBBR 051550Z 06007KT CAVOK 22/04 Q1022 NOSIG=
201805051520 METAR EBBR 051520Z 07006KT 040V110 CAVOK 22/05 Q1023 NOSIG=
201805051450 METAR EBBR 051450Z 07008KT 040V100 CAVOK 22/04 Q1023 NOSIG=
201805051420 METAR EBBR 051420Z 07006KT 030V110 CAVOK 22/06 Q1023 NOSIG=
201805051350 METAR EBBR 051350Z 05008KT 020V110 CAVOK 22/04 Q1023 NOSIG=
201805051320 METAR EBBR 051320Z 05008KT 020V090 CAVOK 21/03 Q1023 NOSIG=
201805051250 METAR EBBR 051250Z 05009KT CAVOK 21/05 Q1024 NOSIG=
201805051220 METAR EBBR 051220Z 05008KT CAVOK 20/05 Q1024 NOSIG=
201805051150 METAR EBBR 051150Z 05009KT 020V090 CAVOK 20/04 Q1024 NOSIG=
201805051120 METAR EBBR 051120Z 04009KT CAVOK 19/05 Q1024 NOSIG=
201805051050 METAR EBBR 051050Z 07008KT 040V110 CAVOK 19/05 Q1024 NOSIG=
201805051020 METAR EBBR 051020Z 05010KT CAVOK 18/05 Q1024 NOSIG=
201805050950 METAR EBBR 050950Z 06010KT 030V090 CAVOK 17/05 Q1024 NOSIG=
201805050920 METAR EBBR 050920Z 05010KT 020V080 CAVOK 17/05 Q1024 NOSIG=
201805050850 METAR EBBR 050850Z 05008KT CAVOK 16/06 Q1025 NOSIG=
201805050820 METAR EBBR 050820Z 05007KT 030V090 CAVOK 15/06 Q1025 NOSIG=
201805050750 METAR EBBR 050750Z 05006KT CAVOK 14/06 Q1025 NOSIG=
201805050720 METAR EBBR 050720Z 04004KT CAVOK 13/06 Q1024 NOSIG=
201805050650 METAR EBBR 050650Z 06005KT CAVOK 11/06 Q1025 NOSIG=
201805050620 METAR EBBR 050620Z 06003KT CAVOK 10/06 Q1024 NOSIG=
201805050550 METAR EBBR 050550Z 10003KT 060V130 CAVOK 09/05 Q1024 NOSIG=
201805050520 METAR EBBR 050520Z 11003KT 080V150 CAVOK 08/05 Q1024 NOSIG=
201805050450 METAR EBBR 050450Z 09003KT 070V130 CAVOK 08/05 Q1024 NOSIG=
201805050420 METAR EBBR 050420Z VRB02KT CAVOK 07/05 Q1024 NOSIG=
201805050350 METAR EBBR 050350Z VRB02KT CAVOK 08/05 Q1024 NOSIG=
201805050320 METAR EBBR 050320Z 06002KT CAVOK 08/04 Q1024 NOSIG=
201805050250 METAR EBBR 050250Z 05002KT CAVOK 08/04 Q1024 NOSIG=
201805050220 METAR EBBR 050220Z 06002KT CAVOK 08/05 Q1024 NOSIG=
201805050150 METAR EBBR 050150Z 03003KT CAVOK 08/04 Q1024 NOSIG=
201805050120 METAR EBBR 050120Z 03003KT CAVOK 08/03 Q1024 NOSIG=
201805050050 METAR EBBR 050050Z 05002KT CAVOK 09/05 Q1024 NOSIG=
201805050020 METAR EBBR 050020Z 04004KT CAVOK 09/04 Q1024 NOSIG=
201805042350 METAR EBBR 042350Z 03003KT CAVOK 09/04 Q1024 NOSIG=
201805042320 METAR EBBR 042320Z 04004KT CAVOK 10/05 Q1024 NOSIG=
201805042250 METAR EBBR 042250Z 03003KT CAVOK 10/05 Q1024 NOSIG=
201805042220 METAR EBBR 042220Z 03003KT CAVOK 10/05 Q1024 NOSIG=
201805042150 METAR EBBR 042150Z 02003KT CAVOK 10/04 Q1024 NOSIG=
201805042120 METAR EBBR 042120Z 03003KT CAVOK 11/05 Q1024 NOSIG=
201805042050 METAR EBBR 042050Z 04004KT CAVOK 12/05 Q1024 NOSIG=
201805042020 METAR EBBR 042020Z 02004KT CAVOK 12/05 Q1024 NOSIG=
201805041950 METAR EBBR 041950Z 03005KT CAVOK 13/03 Q1023 NOSIG=
201805041920 METAR EBBR 041920Z 03004KT CAVOK 14/04 Q1023 NOSIG=
201805041850 METAR EBBR 041850Z 04005KT CAVOK 14/03 Q1023 NOSIG=
201805041820 METAR EBBR 041820Z 03007KT CAVOK 16/04 Q1023 NOSIG=
201805041750 METAR EBBR 041750Z 04008KT CAVOK 17/// Q1023 NOSIG=
201805041720 METAR EBBR 041720Z 04009KT CAVOK 18/05 Q1023 NOSIG=
201805041650 METAR EBBR 041650Z 05007KT 020V080 CAVOK 18/05 Q1022 NOSIG=
201805041620 METAR EBBR 041620Z 06008KT 030V090 CAVOK 18/05 Q1022 NOSIG=
201805041550 METAR EBBR 041550Z 05009KT CAVOK 19/05 Q1022 NOSIG=
201805041520 METAR EBBR 041520Z 05008KT 020V080 CAVOK 19/05 Q1022 NOSIG=
201805041450 METAR EBBR 041450Z 06006KT CAVOK 19/04 Q1022 NOSIG=
201805041420 METAR EBBR 041420Z 06007KT 030V100 CAVOK 18/04 Q1022 NOSIG=
201805041350 METAR EBBR 041350Z 03007KT 010V080 CAVOK 18/05 Q1023 NOSIG=
201805041320 METAR EBBR 041320Z 05008KT 020V090 CAVOK 18/04 Q1023 NOSIG=
201805041250 METAR EBBR 041250Z 04007KT 360V070 CAVOK 17/03 Q1023 NOSIG=
201805041220 METAR EBBR 041220Z 05008KT CAVOK 17/04 Q1023 NOSIG=
201805041150 METAR EBBR 041150Z 04005KT 340V090 CAVOK 17/05 Q1023 NOSIG=
201805041120 METAR EBBR 041120Z 05004KT 020V090 CAVOK 16/04 Q1023 NOSIG=
201805041050 METAR EBBR 041050Z 04007KT 010V090 CAVOK 16/04 Q1023 NOSIG=
201805041020 METAR EBBR 041020Z 05004KT 350V150 CAVOK 15/05 Q1023 NOSIG=
201805040950 METAR EBBR 040950Z 04006KT 010V090 CAVOK 15/04 Q1023 NOSIG=
201805040920 METAR EBBR 040920Z 02003KT 340V090 CAVOK 14/06 Q1023 NOSIG=
201805040850 METAR EBBR 040850Z VRB02KT CAVOK 13/05 Q1023 NOSIG=
201805040820 METAR EBBR 040820Z 02003KT 330V060 CAVOK 12/06 Q1023 NOSIG=
201805040750 METAR EBBR 040750Z 36003KT 320V050 CAVOK 10/05 Q1023 NOSIG=
201805040720 METAR EBBR 040720Z 03003KT 350V060 CAVOK 09/05 Q1023 NOSIG=
201805040650 METAR EBBR 040650Z VRB02KT CAVOK 08/04 Q1023 NOSIG=
201805040620 METAR EBBR 040620Z 01003KT CAVOK 07/03 Q1023 NOSIG=
201805040550 METAR EBBR 040550Z VRB02KT CAVOK 06/04 Q1023 NOSIG=
201805040520 METAR EBBR 040520Z VRB02KT CAVOK 06/03 Q1023 NOSIG=
201805040450 METAR EBBR 040450Z VRB02KT CAVOK 06/03 Q1022 NOSIG=
201805040420 METAR EBBR 040420Z VRB02KT CAVOK 05/03 Q1022 NOSIG=
201805040350 METAR EBBR 040350Z VRB01KT CAVOK 05/02 Q1022 NOSIG=
201805040320 METAR EBBR 040320Z VRB01KT CAVOK 05/03 Q1022 NOSIG=
201805040250 METAR EBBR 040250Z 33002KT CAVOK 06/03 Q1022 NOSIG=
201805040220 METAR EBBR 040220Z 33001KT CAVOK 06/03 Q1022 NOSIG=
201805040150 METAR EBBR 040150Z 31002KT CAVOK 06/02 Q1022 NOSIG=
201805040120 METAR EBBR 040120Z 34001KT CAVOK 06/03 Q1022 NOSIG=
201805040050 METAR EBBR 040050Z 32002KT CAVOK 06/03 Q1022 NOSIG=
201805040020 METAR EBBR 040020Z VRB01KT CAVOK 07/03 Q1022 NOSIG=
201805032350 METAR EBBR 032350Z 33001KT CAVOK 07/02 Q1022 NOSIG=
201805032320 METAR EBBR 032320Z 36001KT CAVOK 07/02 Q1022 NOSIG=
201805032250 METAR EBBR 032250Z VRB02KT CAVOK 08/04 Q1022 NOSIG=
201805032220 METAR EBBR 032220Z 34002KT CAVOK 08/03 Q1022 NOSIG=
201805032150 METAR EBBR 032150Z 31002KT CAVOK 09/03 Q1022 NOSIG=
201805032120 METAR EBBR 032120Z VRB02KT CAVOK 10/03 Q1022 NOSIG=
201805032050 METAR EBBR 032050Z 34003KT 310V010 CAVOK 10/03 Q1022 NOSIG=
201805032020 METAR EBBR 032020Z 33006KT CAVOK 10/02 Q1022 NOSIG=
201805031950 METAR EBBR 031950Z 33006KT CAVOK 11/02 Q1021 NOSIG=
201805031920 METAR EBBR 031920Z 34006KT 310V020 CAVOK 11/02 Q1021 NOSIG=
201805031850 METAR EBBR 031850Z 34007KT CAVOK 12/02 Q1021 NOSIG=
201805031820 METAR EBBR 031820Z 34008KT CAVOK 13/03 Q1020 NOSIG=
201805031750 METAR EBBR 031750Z 33008KT CAVOK 14/03 Q1020 NOSIG=
201805031720 METAR EBBR 031720Z 03007KT 010V090 CAVOK 14/05 Q1020 NOSIG=
201805031650 METAR EBBR 031650Z 03009KT CAVOK 15/03 Q1019 NOSIG=
201805031620 METAR EBBR 031620Z 34004KT 300V040 CAVOK 15/04 Q1019 NOSIG=
201805031550 METAR EBBR 031550Z 35006KT 300V050 CAVOK 15/03 Q1019 NOSIG=
201805031520 METAR EBBR 031520Z 01007KT 330V040 CAVOK 15/04 Q1019 NOSIG=
201805031450 METAR EBBR 031450Z 36005KT CAVOK 14/03 Q1019 NOSIG=
201805031420 METAR EBBR 031420Z 02008KT 360V060 CAVOK 14/03 Q1019 NOSIG=
201805031350 METAR EBBR 031350Z 36008KT CAVOK 14/03 Q1019 NOSIG=
201805031320 METAR EBBR 031320Z 33004KT 280V020 CAVOK 16/02 Q1019 NOSIG=
201805031250 METAR EBBR 031250Z 01007KT 330V030 CAVOK 14/01 Q1019 NOSIG=
201805031220 METAR EBBR 031220Z 34007KT 290V040 CAVOK 15/01 Q1019 NOSIG=
201805031150 METAR EBBR 031150Z 32007KT 280V360 CAVOK 15/02 Q1019 NOSIG=
201805031120 METAR EBBR 031120Z VRB04KT 9999 SCT049 14/03 Q1019 NOSIG=
201805031050 METAR EBBR 031050Z 03003KT 350V110 9999 SCT044 14/02 Q1019
                        NOSIG=
201805031020 METAR EBBR 031020Z VRB02KT 9999 SCT042 14/04 Q1019 NOSIG=
201805030950 METAR EBBR 030950Z 04005KT 340V080 9999 FEW043 13/03 Q1019
                        NOSIG=
201805030920 METAR EBBR 030920Z 03004KT 320V070 9999 FEW036 13/04 Q1019
                        NOSIG=
201805030850 METAR EBBR 030850Z 02005KT 9999 FEW035 12/04 Q1018 NOSIG=
201805030820 METAR COR EBBR 030820Z 02008KT 9999 FEW038 12/02 Q1018 NOSIG=
201805030750 METAR EBBR 030750Z 01007KT 320V040 9999 FEW017 11/05 Q1018
                        NOSIG=
201805030720 METAR EBBR 030720Z 36003KT 300V040 9999 FEW017 11/06 Q1018
                        NOSIG=
201805030650 METAR EBBR 030650Z 36003KT 330V030 CAVOK 10/06 Q1018 NOSIG=
201805030620 METAR EBBR 030620Z 32004KT 290V350 CAVOK 09/07 Q1017 NOSIG=
201805030550 METAR EBBR 030550Z 30005KT 9999 FEW045 08/06 Q1017 NOSIG=
201805030520 METAR EBBR 030520Z 30005KT 8000 BKN043 08/06 Q1016 NOSIG=
201805030450 METAR EBBR 030450Z 29004KT CAVOK 07/06 Q1016 NOSIG=
201805030420 METAR EBBR 030420Z 28004KT 7000 NSC 07/06 Q1016 NOSIG=
201805030350 METAR EBBR 030350Z 29004KT 8000 NSC 07/06 Q1015 NOSIG=
201805030320 METAR EBBR 030320Z 30004KT CAVOK 07/06 Q1015 NOSIG=
201805030250 METAR EBBR 030250Z 28005KT CAVOK 07/06 Q1015 NOSIG=
201805030220 METAR EBBR 030220Z 28004KT CAVOK 07/06 Q1014 NOSIG=
201805030150 METAR EBBR 030150Z 28005KT CAVOK 08/07 Q1014 NOSIG=
201805030120 METAR COR EBBR 030120Z 29005KT CAVOK 08/07 Q1013 NOSIG=
201805030050 METAR EBBR 030050Z 29005KT 9999 FEW014 09/07 Q1013 NOSIG=
201805030020 METAR EBBR 030020Z 29007KT CAVOK 09/07 Q1013 NOSIG=
201805022350 METAR EBBR 022350Z 27008KT 9999 SCT012 SCT026 10/08 Q1013
                        NOSIG=
201805022320 METAR EBBR 022320Z 27008KT 9999 SCT011 10/08 Q1013 NOSIG=
201805022250 METAR EBBR 022250Z 26008KT 9999 SCT013 10/09 Q1012 NOSIG=
201805022220 METAR EBBR 022220Z 23007KT 9999 SCT036 11/09 Q1012 RERA NOSIG=
201805022150 METAR EBBR 022150Z 23007KT 9999 -RA BKN036 10/09 Q1012 NOSIG=
201805022120 METAR EBBR 022120Z 24012KT 5000 RA FEW018 SCT037 BKN042 10/09
                        Q1012 BECMG NSW=
201805022050 METAR EBBR 022050Z 23009KT 5000 -RA BKN024 11/08 Q1012 TEMPO
                        BKN012=
201805022020 METAR COR EBBR 022020Z 23011KT 9999 -RA SCT026 BKN032 12/08
                        Q1012 NOSIG=
201805021950 METAR EBBR 021950Z 24011KT 210V280 9999 -RA BKN048 12/07
                        Q1011 NOSIG=
201805021920 METAR EBBR 021920Z 25012KT 9999 -RA BKN048 13/05 Q1011 NOSIG=
201805021850 METAR EBBR 021850Z 21011KT 9999 -RA NSC 13/04 Q1010 NOSIG=
201805021820 METAR EBBR 021820Z 21010KT CAVOK 14/04 Q1010 NOSIG=
201805021750 METAR EBBR 021750Z 22012KT 9999 -RA NSC 14/04 Q1010 NOSIG=
201805021720 METAR EBBR 021720Z 21012KT 190V250 CAVOK 15/03 Q1009 NOSIG=
201805021650 METAR EBBR 021650Z 22014KT CAVOK 15/03 Q1009 NOSIG=
201805021620 METAR EBBR 021620Z 22012KT CAVOK 16/01 Q1009 NOSIG=
201805021550 METAR EBBR 021550Z 20013KT CAVOK 16/02 Q1009 NOSIG=
201805021520 METAR EBBR 021520Z 19015KT 9999 FEW048 16/04 Q1009 TEMPO
                        21015G25KT=
201805021450 METAR EBBR 021450Z 20014KT 170V230 9999 FEW048 16/03 Q1009
                        TEMPO 21015G25KT=
201805021420 METAR COR EBBR 021420Z 19016KT 9999 FEW048 16/03 Q1009 TEMPO
                        21015G25KT=
201805021350 METAR EBBR 021350Z 19015KT 9999 FEW048 16/04 Q1009 NOSIG=
201805021320 METAR EBBR 021320Z 20014KT 170V240 9999 FEW048 15/03 Q1010
                        NOSIG=
201805021250 METAR EBBR 021250Z 18018KT 9999 FEW048 15/04 Q1010 NOSIG=
201805021220 METAR EBBR 021220Z 18016KT 9999 FEW048 15/04 Q1010 NOSIG=
201805021150 METAR EBBR 021150Z 18017KT 9999 FEW048 15/04 Q1010 NOSIG=
201805021120 METAR EBBR 021120Z 20014KT 9999 FEW048 14/05 Q1011 NOSIG=
201805021050 METAR EBBR 021050Z 20014KT 9999 FEW048 14/03 Q1011 NOSIG=
201805021020 METAR EBBR 021020Z 21013KT 9999 FEW046 14/03 Q1011 NOSIG=
201805020950 METAR EBBR 020950Z 20015KT 170V230 9999 FEW044 13/02 Q1011
                        NOSIG=
201805020920 METAR EBBR 020920Z 22012KT 180V260 9999 FEW041 13/03 Q1011
                        NOSIG=
201805020850 METAR EBBR 020850Z 22013KT 9999 FEW039 12/02 Q1011 NOSIG=
201805020820 METAR EBBR 020820Z 20011KT 9999 FEW035 12/02 Q1011 NOSIG=
201805020750 METAR EBBR 020750Z 19008KT CAVOK 11/04 Q1012 NOSIG=
201805020720 METAR EBBR 020720Z 19008KT CAVOK 10/04 Q1012 NOSIG=
201805020650 METAR EBBR 020650Z 19008KT CAVOK 09/04 Q1012 NOSIG=
201805020620 METAR EBBR 020620Z 19009KT CAVOK 08/04 Q1012 NOSIG=
201805020550 METAR EBBR 020550Z 19009KT CAVOK 07/03 Q1012 NOSIG=
201805020520 METAR EBBR 020520Z 19008KT CAVOK 06/03 Q1012 NOSIG=
201805020450 METAR EBBR 020450Z 19008KT CAVOK 05/03 Q1012 NOSIG=
201805020420 METAR EBBR 020420Z 18008KT CAVOK 05/03 Q1012 NOSIG=
201805020350 METAR EBBR 020350Z 18008KT CAVOK 05/03 Q1012 NOSIG=
201805020320 METAR EBBR 020320Z 18008KT CAVOK 05/03 Q1012 NOSIG=
201805020250 METAR EBBR 020250Z 18007KT CAVOK 05/03 Q1012 NOSIG=
201805020220 METAR EBBR 020220Z 18007KT CAVOK 06/03 Q1012 NOSIG=
201805020150 METAR EBBR 020150Z 18006KT CAVOK 06/03 Q1012 NOSIG=
201805020120 METAR EBBR 020120Z 18005KT CAVOK 07/04 Q1012 NOSIG=
201805020050 METAR EBBR 020050Z 18006KT CAVOK 07/04 Q1012 NOSIG=
201805020020 METAR EBBR 020020Z 18005KT CAVOK 07/04 Q1012 NOSIG=
201805012350 METAR EBBR 012350Z 17005KT CAVOK 07/04 Q1013 NOSIG=
201805012320 METAR EBBR 012320Z 19004KT CAVOK 06/04 Q1013 NOSIG=
201805012250 METAR EBBR 012250Z 18006KT CAVOK 06/04 Q1013 NOSIG=
201805012220 METAR EBBR 012220Z 20004KT CAVOK 07/04 Q1013 NOSIG=
201805012150 METAR EBBR 012150Z 20004KT CAVOK 07/04 Q1013 NOSIG=
201805012120 METAR EBBR 012120Z 19005KT CAVOK 08/05 Q1013 NOSIG=
201805012050 METAR EBBR 012050Z 19006KT CAVOK 08/05 Q1013 NOSIG=
201805012020 METAR EBBR 012020Z 19005KT CAVOK 08/05 Q1013 NOSIG=
201805011950 METAR EBBR 011950Z 17004KT CAVOK 09/05 Q1013 NOSIG=
201805011920 METAR EBBR 011920Z 20005KT CAVOK 09/04 Q1012 NOSIG=
201805011850 METAR EBBR 011850Z 20005KT CAVOK 10/04 Q1012 NOSIG=
201805011820 METAR EBBR 011820Z 22006KT CAVOK 11/04 Q1012 NOSIG=
201805011750 METAR EBBR 011750Z 23009KT 9999 FEW038 11/04 Q1012 NOSIG=
201805011720 METAR EBBR 011720Z 23012KT CAVOK 11/04 Q1012 NOSIG=
201805011650 METAR EBBR 011650Z 20009KT 170V230 CAVOK 12/03 Q1012 NOSIG=
201805011620 METAR EBBR 011620Z 20009KT CAVOK 12/03 Q1012 NOSIG=
201805011550 METAR EBBR 011550Z 24007KT CAVOK 12/02 Q1012 NOSIG=
201805011520 METAR EBBR 011520Z 24009KT CAVOK 13/00 Q1012 NOSIG=
201805011450 METAR EBBR 011450Z 27009KT 230V290 CAVOK 13/02 Q1012 NOSIG=
201805011420 METAR EBBR 011420Z 25009KT CAVOK 12/02 Q1012 NOSIG=
201805011350 METAR EBBR 011350Z 25012KT CAVOK 13/M01 Q1012 NOSIG=
201805011320 METAR EBBR 011320Z 27010KT 240V310 CAVOK 12/02 Q1012 NOSIG=
201805011250 METAR EBBR 011250Z 27010KT 230V300 CAVOK 12/02 Q1012 NOSIG=
201805011220 METAR EBBR 011220Z 25009KT 220V280 9999 SCT046 13/03 Q1012
                        NOSIG=
201805011150 METAR EBBR 011150Z 27010KT 240V300 9999 SCT036 11/01 Q1012
                        NOSIG=
201805011120 METAR EBBR 011120Z 27012KT 9999 SCT036 11/01 Q1012 NOSIG=
201805011050 METAR COR EBBR 011050Z 26012KT 9999 SCT036 11/02 Q1012 NOSIG=
201805011020 METAR EBBR 011020Z 24015KT 9999 SCT030 10/02 Q1012 NOSIG=
201805010950 METAR EBBR 010950Z 24015KT 9999 SCT030 10/03 Q1012 NOSIG=
201805010920 METAR EBBR 010920Z 25015KT 210V280 9999 SCT030 10/03 Q1011
                        NOSIG=
201805010850 METAR EBBR 010850Z 24015KT 200V260 9999 SCT020 10/06 Q1011
                        NOSIG=
201805010820 METAR COR EBBR 010820Z 24012KT 9999 SCT017 09/05 Q1011 NOSIG=
201805010750 METAR EBBR 010750Z 23013KT 9999 SCT020 09/05 Q1010 NOSIG=
201805010720 METAR EBBR 010720Z 24013KT 9999 FEW015 08/05 Q1010 NOSIG=
201805010650 METAR EBBR 010650Z 23012KT 9999 FEW012 07/04 Q1010 NOSIG=
201805010620 METAR EBBR 010620Z 23012KT CAVOK 06/04 Q1010 NOSIG=
201805010550 METAR EBBR 010550Z 23013KT 9999 FEW012 06/03 Q1009 NOSIG=
201805010520 METAR EBBR 010520Z 23014KT 9999 FEW012 05/03 Q1009 NOSIG=
201805010450 METAR EBBR 010450Z 23014KT 9999 FEW012 05/03 Q1008 NOSIG=
201805010420 METAR EBBR 010420Z 23015KT 9999 FEW012 05/03 Q1008 NOSIG=
201805010350 METAR EBBR 010350Z 24015KT 9999 FEW015 05/03 Q1007 NOSIG=
201805010320 METAR EBBR 010320Z 24014KT 9999 FEW014 05/03 Q1007 NOSIG=
201805010250 METAR EBBR 010250Z 24014KT 9999 FEW014 05/03 Q1007 NOSIG=
201805010220 METAR EBBR 010220Z 24014KT 9999 FEW016 SCT020 05/03 Q1007
                        NOSIG=
201805010150 METAR EBBR 010150Z 25015KT 9999 SCT014 BKN020 05/03 Q1007
                        NOSIG=
201805010120 METAR EBBR 010120Z 26016KT 9999 -RA SCT012 BKN014 05/03 Q1006
                        NOSIG=
201805010050 METAR EBBR 010050Z 25018KT 9999 -RA SCT012 BKN014 05/04 Q1006
                        NOSIG=
201805010020 METAR EBBR 010020Z 25016KT 9999 -RA SCT012 BKN014 05/04 Q1006
201805012350 METAR EBBR 012350Z 17005KT CAVOK 07/04 Q1013 NOSIG=
201805012320 METAR EBBR 012320Z 19004KT CAVOK 06/04 Q1013 NOSIG=
201805012250 METAR EBBR 012250Z 18006KT CAVOK 06/04 Q1013 NOSIG=
201805012220 METAR EBBR 012220Z 20004KT CAVOK 07/04 Q1013 NOSIG=
201805012150 METAR EBBR 012150Z 20004KT CAVOK 07/04 Q1013 NOSIG=
201805012120 METAR EBBR 012120Z 19005KT CAVOK 08/05 Q1013 NOSIG=
201805012050 METAR EBBR 012050Z 19006KT CAVOK 08/05 Q1013 NOSIG=
201805012020 METAR EBBR 012020Z 19005KT CAVOK 08/05 Q1013 NOSIG=
201805011950 METAR EBBR 011950Z 17004KT CAVOK 09/05 Q1013 NOSIG=
201805011920 METAR EBBR 011920Z 20005KT CAVOK 09/04 Q1012 NOSIG=
201805011850 METAR EBBR 011850Z 20005KT CAVOK 10/04 Q1012 NOSIG=
201805011820 METAR EBBR 011820Z 22006KT CAVOK 11/04 Q1012 NOSIG=
201805011750 METAR EBBR 011750Z 23009KT 9999 FEW038 11/04 Q1012 NOSIG=
201805011720 METAR EBBR 011720Z 23012KT CAVOK 11/04 Q1012 NOSIG=
201805011650 METAR EBBR 011650Z 20009KT 170V230 CAVOK 12/03 Q1012 NOSIG=
201805011620 METAR EBBR 011620Z 20009KT CAVOK 12/03 Q1012 NOSIG=
201805011550 METAR EBBR 011550Z 24007KT CAVOK 12/02 Q1012 NOSIG=
201805011520 METAR EBBR 011520Z 24009KT CAVOK 13/00 Q1012 NOSIG=
201805011450 METAR EBBR 011450Z 27009KT 230V290 CAVOK 13/02 Q1012 NOSIG=
201805011420 METAR EBBR 011420Z 25009KT CAVOK 12/02 Q1012 NOSIG=
201805011350 METAR EBBR 011350Z 25012KT CAVOK 13/M01 Q1012 NOSIG=
201805011320 METAR EBBR 011320Z 27010KT 240V310 CAVOK 12/02 Q1012 NOSIG=
201805011250 METAR EBBR 011250Z 27010KT 230V300 CAVOK 12/02 Q1012 NOSIG=
201805011220 METAR EBBR 011220Z 25009KT 220V280 9999 SCT046 13/03 Q1012
                        NOSIG=
201805011150 METAR EBBR 011150Z 27010KT 240V300 9999 SCT036 11/01 Q1012
                        NOSIG=
201805011120 METAR EBBR 011120Z 27012KT 9999 SCT036 11/01 Q1012 NOSIG=
201805011050 METAR COR EBBR 011050Z 26012KT 9999 SCT036 11/02 Q1012 NOSIG=
201805011020 METAR EBBR 011020Z 24015KT 9999 SCT030 10/02 Q1012 NOSIG=
201805010950 METAR EBBR 010950Z 24015KT 9999 SCT030 10/03 Q1012 NOSIG=
201805010920 METAR EBBR 010920Z 25015KT 210V280 9999 SCT030 10/03 Q1011
                        NOSIG=
201805010850 METAR EBBR 010850Z 24015KT 200V260 9999 SCT020 10/06 Q1011
                        NOSIG=
201805010820 METAR COR EBBR 010820Z 24012KT 9999 SCT017 09/05 Q1011 NOSIG=
201805010750 METAR EBBR 010750Z 23013KT 9999 SCT020 09/05 Q1010 NOSIG=
201805010720 METAR EBBR 010720Z 24013KT 9999 FEW015 08/05 Q1010 NOSIG=
201805010650 METAR EBBR 010650Z 23012KT 9999 FEW012 07/04 Q1010 NOSIG=
201805010620 METAR EBBR 010620Z 23012KT CAVOK 06/04 Q1010 NOSIG=
201805010550 METAR EBBR 010550Z 23013KT 9999 FEW012 06/03 Q1009 NOSIG=
201805010520 METAR EBBR 010520Z 23014KT 9999 FEW012 05/03 Q1009 NOSIG=
201805010450 METAR EBBR 010450Z 23014KT 9999 FEW012 05/03 Q1008 NOSIG=
201805010420 METAR EBBR 010420Z 23015KT 9999 FEW012 05/03 Q1008 NOSIG=
201805010350 METAR EBBR 010350Z 24015KT 9999 FEW015 05/03 Q1007 NOSIG=
201805010320 METAR EBBR 010320Z 24014KT 9999 FEW014 05/03 Q1007 NOSIG=
201805010250 METAR EBBR 010250Z 24014KT 9999 FEW014 05/03 Q1007 NOSIG=
201805010220 METAR EBBR 010220Z 24014KT 9999 FEW016 SCT020 05/03 Q1007
                        NOSIG=
201805010150 METAR EBBR 010150Z 25015KT 9999 SCT014 BKN020 05/03 Q1007
                        NOSIG=
201805010120 METAR EBBR 010120Z 26016KT 9999 -RA SCT012 BKN014 05/03 Q1006
                        NOSIG=
201805010050 METAR EBBR 010050Z 25018KT 9999 -RA SCT012 BKN014 05/04 Q1006
                        NOSIG=
201805010020 METAR EBBR 010020Z 25016KT 9999 -RA SCT012 BKN014 05/04 Q1006
                        NOSIG=
201804302350 METAR EBBR 302350Z 25018KT 9999 -RA SCT010 BKN012 05/04 Q1006
                        NOSIG=
201804302320 METAR EBBR 302320Z 25016KT 9999 -RA SCT009 BKN011 06/04 Q1005
                        NOSIG=
201804302250 METAR EBBR 302250Z 25016KT 9999 -RA FEW009 BKN011 BKN013
                        06/04 Q1005 NOSIG=
201804302220 METAR EBBR 302220Z 26015KT 9999 -RA FEW009 BKN011 BKN013
                        06/04 Q1004 NOSIG=
201804302150 METAR EBBR 302150Z 26016KT 9999 -RA FEW008 BKN011 BKN013
                        06/04 Q1004 NOSIG=
201804302120 METAR EBBR 302120Z 25014KT 9999 -RA BKN012 BKN020 06/04 Q1003
                        NOSIG=
201804302050 METAR EBBR 302050Z 27015KT 9999 -RA BKN012 BKN020 06/04 Q1003
                        NOSIG=
201804302020 METAR EBBR 302020Z 26014KT 230V290 5000 -RA BR SCT008 BKN010
                        BKN014 06/04 Q1002 NOSIG=
201804301950 METAR EBBR 301950Z 23012KT 5000 -RA BR SCT005 BKN008 06/05
                        Q1001 NOSIG=
201804301920 METAR EBBR 301920Z 22011KT 3500 -RA BR BKN005 BKN007 05/04
                        Q1001 NOSIG=
201804301850 METAR EBBR 301850Z 23013KT 9999 BKN010 BKN032 05/04 Q1000
                        NOSIG=
201804301820 METAR EBBR 301820Z 25013KT 6000 -RADZ SCT005 BKN009 BKN011
                        05/03 Q0999 NOSIG=
201804301750 METAR EBBR 301750Z 21013KT 2800 -RADZ BKN005 BKN007 05/04
                        Q0999 NOSIG=
201804301720 METAR EBBR 301720Z 20010KT 170V230 3800 -RADZ SCT005 BKN007
                        05/04 Q0998 TEMPO BKN005=
201804301650 METAR EBBR 301650Z 20013KT 5000 -RA SCT006 BKN014 05/03 Q0998
                        TEMPO BKN005=
201804301620 METAR COR EBBR 301620Z 20016KT 160V220 4000 RA SCT004 BKN015
                        05/03 Q0998 TEMPO BKN005=
201804301550 METAR EBBR 301550Z 19014KT 160V220 9999 -RA BKN024 06/03
                        Q0998 TEMPO 4000 RA BKN012=
201804301520 METAR EBBR 301520Z 20012KT 9999 -RA SCT017 BKN025 06/04 Q0999
                        TEMPO 4000 RA BKN012=
201804301450 METAR COR EBBR 301450Z 18017G32KT 9999 -RA SCT030 SCT040
                        08/03 Q0999 TEMPO 4000 RA BKN012=
201804301420 METAR EBBR 301420Z 19018KT 9999 -RA SCT030 09/04 Q0999 TEMPO
                        4000 RA BKN012=
201804301350 METAR EBBR 301350Z 19019G33KT 9999 SCT028 BKN033 09/03 Q0999
                        TEMPO 4000 RA BKN012=
201804301320 METAR EBBR 301320Z 20016G28KT 170V230 9999 SCT030 BKN040
                        09/03 Q0999 TEMPO 4000 RA BKN012=
201804301250 METAR EBBR 301250Z 19018KT 9999 SCT028 BKN040 09/04 Q0999
                        TEMPO 20022G32KT=
201804301220 METAR EBBR 301220Z 19022KT 9999 SCT030 BKN040 10/04 Q0998
                        TEMPO 20022G32KT=
201804301150 METAR EBBR 301150Z 20020KT 9999 SCT030 BKN040 11/05 Q0998
                        TEMPO 20022G32KT=
201804301120 METAR EBBR 301120Z 20014KT 9999 SCT025 BKN040 12/06 Q0997
                        TEMPO 18017G27KT=
201804301050 METAR EBBR 301050Z 18014KT 9999 VCSH SCT025 SCT037 12/07
                        Q0997 TEMPO 18017G27KT=
201804301020 METAR COR EBBR 301020Z 18015KT 9999 VCSH SCT025 SCT037 13/08
                        Q0997 TEMPO 18017G27KT=
201804300950 METAR EBBR 300950Z 18010KT 9999 SCT025 BKN037 13/08 Q0997
                        NOSIG=
201804300920 METAR EBBR 300920Z 18013KT 140V210 9999 SCT024 BKN038 12/08
                        Q0997 NOSIG=
201804300850 METAR EBBR 300850Z 18012KT 140V200 9999 BKN024 12/08 Q0997
                        NOSIG=
201804300820 METAR EBBR 300820Z 18013KT 9999 BKN020 12/08 Q0997 NOSIG=
201804300750 METAR EBBR 300750Z 18013KT 9999 BKN020 12/09 Q0997 NOSIG=
201804300720 METAR EBBR 300720Z 18010KT 9999 BKN020 12/09 Q0997 NOSIG=
201804300650 METAR EBBR 300650Z 18007KT 9999 SCT020 BKN036 11/09 Q0997
                        NOSIG=
201804300620 METAR EBBR 300620Z 19008KT 9999 FEW026 11/09 Q0997 NOSIG=
201804300550 METAR EBBR 300550Z 19009KT 9999 FEW012 SCT026 11/09 Q0997
                        BECMG NSW=
201804300520 METAR EBBR 300520Z 19012KT 9999 -RA FEW012 BKN022 11/09 Q0997
                        BECMG NSW=
201804300450 METAR EBBR 300450Z 17008KT 9999 -RA SCT012 BKN022 11/10 Q0997
                        NOSIG=
201804300420 METAR EBBR 300420Z 15006KT 9999 -RA FEW005 SCT014 BKN040
                        12/10 Q0997 NOSIG=
201804300350 METAR EBBR 300350Z 13004KT 100V160 2800 -RA BR BKN003 BKN025
                        11/10 Q0997 NOSIG=
201804300320 METAR EBBR 300320Z 13004KT 1200 R25L/1500D R25R/P2000N R01/1800U
                        PRFG BR BKN002 11/10 Q0997 NOSIG=
201804300250 METAR EBBR 300250Z VRB02KT 1800 BR BKN002 11/10 Q0997 NOSIG=
201804300220 METAR EBBR 300220Z 07003KT 1800 -DZRA BR BKN002 11/10 Q0997
                        NOSIG=
201804300150 METAR EBBR 300150Z VRB02KT 2200 -DZRA BR BKN003 BKN014 11/10
                        Q0998 NOSIG=
201804300120 METAR COR EBBR 300120Z 05003KT 3800 -RA BR BKN004 BKN014
                        11/10 Q0998 NOSIG=
201804300050 METAR COR EBBR 300050Z VRB02KT 3800 -RA BR BKN004 11/10 Q0999
                        NOSIG=
201804300020 METAR EBBR 300020Z 27005KT 3800 RA BR BKN004 11/10 Q0999
                        NOSIG=
201804292350 METAR EBBR 292350Z 30004KT 270V010 5000 RA BR BKN004 11/10
                        Q0999 NOSIG=
201804292320 METAR EBBR 292320Z 08005KT 040V110 5000 RA BR BKN004 11/10
                        Q0999 NOSIG=
201804292250 METAR EBBR 292250Z 08007KT 050V120 5000 -RA BR BKN004 11/10
                        Q0999 NOSIG=
201804292220 METAR EBBR 292220Z 06008KT 5000 -RA BR BKN004 11/10 Q0999
                        NOSIG=
201804292150 METAR EBBR 292150Z 07007KT 5000 -RA BR BKN004 11/10 Q1000
                        NOSIG=
201804292120 METAR EBBR 292120Z 06005KT 5000 BR BKN004 11/10 Q1000 NOSIG=
201804292050 METAR EBBR 292050Z 03008KT 5000 -DZ BKN004 11/10 Q1000 NOSIG=
201804292020 METAR EBBR 292020Z 34007KT 310V010 6000 -RA BKN005 11/10
                        Q1001 NOSIG=
201804291950 METAR EBBR 291950Z 03010KT 5000 RA BKN005 BKN042 11/10 Q1002
                        NOSIG=
201804291920 METAR EBBR 291920Z 06007KT 3800 RA BKN006 BKN042CB 11/10
                        Q1003 RETS NOSIG=
201804291850 METAR EBBR 291850Z 33007KT 260V360 2200 +RA SCT004 BKN006
                        11/10 Q1004 RETS NOSIG=
201804291820 METAR EBBR 291820Z 33006KT 290V010 3000 TSRA BKN007CB 11/10
                        Q1003 TEMPO VRB20G36KT 2000 TSRAGR
                        BKN011CB=
201804291750 METAR COR EBBR 291750Z 36010KT 6000 -TSRA BKN008CB 12/10
                        Q1002 TEMPO VRB20G36KT 2000 TSRAGR
                        BKN011CB=
201804291720 METAR EBBR 291720Z 35009KT 6000 SCT008 BKN014TCU 12/10 Q1002
                        TEMPO VRB20G36KT 2000 TSRAGR BKN011CB=
201804291650 METAR EBBR 291650Z 36007KT 6000 BKN008 12/10 Q1003 TEMPO
                        4500 SHRA BKN011=
201804291620 METAR COR EBBR 291620Z 35008KT 7000 BKN009 12/10 Q1003 TEMPO
                        4500 SHRA BKN011=
201804291550 METAR EBBR 291550Z 36005KT 320V020 6000 BKN009 12/10 Q1004
                        NOSIG=
201804291520 METAR EBBR 291520Z 01006KT 6000 BKN009 12/10 Q1004 NOSIG=
201804291450 METAR EBBR 291450Z 02006KT 6000 BKN010 12/10 Q1004 NOSIG=
201804291420 METAR EBBR 291420Z 02007KT 9000 BKN008 11/10 Q1004 NOSIG=
201804291350 METAR EBBR 291350Z 04007KT 9000 FEW008 BKN010 11/10 Q1005
                        NOSIG=
201804291320 METAR EBBR 291320Z 05009KT 8000 FEW008 BKN010 11/09 Q1005
                        NOSIG=
201804291250 METAR EBBR 291250Z 04008KT 7000 FEW007 BKN010 11/10 Q1005
                        NOSIG=
201804291220 METAR EBBR 291220Z 03009KT 6000 BKN007 11/09 Q1006 NOSIG=
201804291150 METAR EBBR 291150Z 04009KT 6000 SCT006 SCT008 BKN011 11/09
                        Q1006 NOSIG=
201804291120 METAR EBBR 291120Z 03009KT 4500 BR BKN006 10/09 Q1006 BECMG
                        6000 NSW=
201804291050 METAR EBBR 291050Z 04008KT 3900 BR FEW004 BKN005 10/09 Q1007
                        NOSIG=
201804291020 METAR EBBR 291020Z 05008KT 2000 BR SCT003 BKN004 10/09 Q1007
                        BECMG 3500 BR=
201804290950 METAR EBBR 290950Z 03007KT 2000 BR FEW003 BKN004 BKN006 10/08
                        Q1008 BECMG 3500 BR=
201804290920 METAR EBBR 290920Z 04006KT 2100 BR FEW002 SCT005 BKN033 09/08
                        Q1008 BECMG 3500 BR=
201804290850 METAR EBBR 290850Z 04007KT 2100 -RA BR FEW003 SCT004 BKN038
                        09/08 Q1008 BECMG 3500 BR=
201804290820 METAR EBBR 290820Z 07003KT 040V110 2100 -RA BR SCT003 BKN004
                        09/08 Q1009 NOSIG=
201804290750 METAR EBBR 290750Z 05004KT 2100 -RA BR SCT003 BKN004 08/07
                        Q1008 NOSIG=
201804290720 METAR EBBR 290720Z 05004KT 2100 -RA BR FEW003 08/07 Q1009
                        NOSIG=
201804290650 METAR EBBR 290650Z 05007KT 2000 -RA BR FEW023 08/07 Q1009
                        NOSIG=
201804290620 METAR EBBR 290620Z 04003KT 2100 -RA BR FEW040 08/07 Q1009
                        TEMPO RA BKN010=
201804290550 METAR EBBR 290550Z 01003KT 2300 -RA BR BKN046 08/07 Q1009
                        TEMPO RA BKN010=
201804290520 METAR COR EBBR 290520Z 01003KT 330V050 2500 -RA BR NSC 08/06
                        Q1009 TEMPO RA BKN010=
201804290450 METAR EBBR 290450Z 00000KT 3300 -RA BR SCT010 BKN048 07/06
                        Q1010 BECMG RA BKN010=
201804290420 METAR EBBR 290420Z VRB01KT 2800 BR SCT010 07/07 Q1010 BECMG
                        RA BKN010=
201804290350 METAR EBBR 290350Z 36002KT 2000 BR NSC 06/05 Q1009 NOSIG=
201804290320 METAR EBBR 290320Z VRB02KT 2000 BR NSC 07/06 Q1009 NOSIG=
201804290250 METAR COR EBBR 290250Z 03002KT 1800 BR MIFG FEW009 06/05
                        Q1009 TEMPO 1200 BR=
201804290220 METAR EBBR 290220Z 08002KT 2800 BR MIFG FEW009 07/06 Q1010
                        TEMPO 2000 BR=
201804290150 METAR EBBR 290150Z VRB02KT 4200 BR MIFG NSC 07/06 Q1010 TEMPO
                        2000 BR=
201804290120 METAR EBBR 290120Z 36002KT 6000 NSC 07/06 Q1010 BECMG 4800
                        BR=
201804290050 METAR EBBR 290050Z VRB01KT 6000 NSC 08/06 Q1011 BECMG 4800
                        BR=
201804290020 METAR EBBR 290020Z 06002KT 7000 NSC 08/07 Q1011 NOSIG=
201804282350 METAR EBBR 282350Z 07001KT 8000 NSC 08/07 Q1011 NOSIG=
201804282320 METAR EBBR 282320Z 00000KT 8000 NSC 07/06 Q1011 NOSIG=
201804282250 METAR EBBR 282250Z 02003KT CAVOK 09/07 Q1011 NOSIG=
201804282220 METAR EBBR 282220Z 36003KT CAVOK 09/06 Q1011 NOSIG=
201804282150 METAR EBBR 282150Z 00000KT CAVOK 09/06 Q1011 NOSIG=
201804282120 METAR EBBR 282120Z 15002KT CAVOK 09/06 Q1011 NOSIG=
201804282050 METAR EBBR 282050Z 00000KT CAVOK 11/07 Q1011 NOSIG=
201804282020 METAR EBBR 282020Z 00000KT CAVOK 11/07 Q1011 NOSIG=
201804281950 METAR EBBR 281950Z 00000KT CAVOK 12/07 Q1011 NOSIG=
201804281920 METAR EBBR 281920Z VRB02KT 9999 FEW047 13/06 Q1011 NOSIG=
201804281850 METAR EBBR 281850Z 23005KT 9999 FEW047 12/06 Q1011 NOSIG=
201804281820 METAR EBBR 281820Z 22005KT 9999 FEW042 13/05 Q1011 NOSIG=
201804281750 METAR EBBR 281750Z 23007KT 9999 FEW042 14/06 Q1010 NOSIG=
201804281720 METAR EBBR 281720Z 23008KT 9999 FEW042 15/05 Q1010 NOSIG=
201804281650 METAR EBBR 281650Z 24007KT 9999 SCT041 15/05 Q1010 NOSIG=
201804281620 METAR EBBR 281620Z 24007KT 210V270 9999 FEW044 15/06 Q1010
                        NOSIG=
201804281550 METAR EBBR 281550Z 22009KT 9999 SCT043 15/06 Q1010 NOSIG=
201804281520 METAR EBBR 281520Z 26009KT 220V290 9999 FEW044 15/05 Q1010
                        NOSIG=
201804281450 METAR EBBR 281450Z 23007KT 210V270 9999 SCT043 15/06 Q1010
                        NOSIG=
201804281420 METAR EBBR 281420Z 22007KT 180V250 9999 SCT045 15/06 Q1010
                        NOSIG=
201804281350 METAR EBBR 281350Z 24010KT 9999 SCT045 16/05 Q1010 NOSIG=
201804281320 METAR EBBR 281320Z 24009KT 210V270 9999 SCT041 16/07 Q1011
                        NOSIG=
201804281250 METAR EBBR 281250Z 22010KT 9999 FEW032 15/06 Q1011 NOSIG=
201804281220 METAR EBBR 281220Z 22010KT 9999 FEW031 14/06 Q1011 NOSIG=
201804281150 METAR EBBR 281150Z 22011KT 9999 FEW031 14/07 Q1011 NOSIG=
201804281120 METAR COR EBBR 281120Z 21012KT 9999 FEW030 13/07 Q1011 NOSIG=
201804281050 METAR EBBR 281050Z 21013KT 9999 BKN026 BKN048 13/07 Q1011
                        NOSIG=
201804281020 METAR EBBR 281020Z 22010KT 9999 FEW028 13/08 Q1011 NOSIG=
201804280950 METAR EBBR 280950Z 21008KT 9999 BKN024 13/08 Q1011 NOSIG=
201804280920 METAR EBBR 280920Z 20012KT 9999 BKN024 13/08 Q1010 NOSIG=
201804280850 METAR EBBR 280850Z 20010KT 9999 FEW021 12/08 Q1010 NOSIG=
201804280820 METAR EBBR 280820Z 21012KT 9999 BKN021 BKN045 12/07 Q1010
                        NOSIG=
201804280750 METAR COR EBBR 280750Z 21011KT 9999 SCT023 12/07 Q1010 NOSIG=
201804280720 METAR EBBR 280720Z 21012KT 9999 FEW025 BKN035 12/07 Q1010
                        NOSIG=
201804280650 METAR EBBR 280650Z 20008KT 170V230 9999 BKN026 12/07 Q1010
                        NOSIG=
201804280620 METAR EBBR 280620Z 20010KT 9999 BKN023 12/07 Q1009 NOSIG=
201804280550 METAR EBBR 280550Z 21009KT 9999 BKN027 12/07 Q1009 NOSIG=
201804280520 METAR EBBR 280520Z 21010KT 9999 FEW029 12/07 Q1009 NOSIG=
201804280450 METAR EBBR 280450Z 21010KT 9999 SCT028 12/06 Q1008 NOSIG=
201804280420 METAR EBBR 280420Z 21008KT 9999 BKN029 12/06 Q1008 NOSIG=
201804280350 METAR EBBR 280350Z 22010KT 9999 BKN029 12/06 Q1008 NOSIG=
201804280320 METAR EBBR 280320Z 21010KT 170V230 9999 BKN030 12/06 Q1008
                        NOSIG=
201804280250 METAR EBBR 280250Z 22010KT 9999 BKN034 12/06 Q1008 NOSIG=
201804280220 METAR EBBR 280220Z 22010KT 9999 BKN038 12/06 Q1008 NOSIG=
201804280150 METAR EBBR 280150Z 22007KT 9999 BKN038 12/06 Q1008 NOSIG=
201804280120 METAR EBBR 280120Z 20008KT 9999 SCT045 12/05 Q1008 NOSIG=
201804280050 METAR EBBR 280050Z 20006KT 9999 BKN045 12/05 Q1008 NOSIG=
201804280020 METAR EBBR 280020Z 20006KT 9999 SCT046 12/06 Q1008 NOSIG=
201804272350 METAR EBBR 272350Z 24010KT CAVOK 13/06 Q1008 NOSIG=
201804272320 METAR EBBR 272320Z 23010KT CAVOK 13/06 Q1008 NOSIG=
201804272250 METAR EBBR 272250Z 23009KT CAVOK 13/07 Q1007 NOSIG=
201804272220 METAR EBBR 272220Z 23010KT CAVOK 14/07 Q1007 NOSIG=
201804272150 METAR EBBR 272150Z 23009KT CAVOK 14/07 Q1007 NOSIG=
201804272120 METAR EBBR 272120Z 24013KT 9999 -RA NSC 14/08 Q1007 NOSIG=
201804272050 METAR EBBR 272050Z 18007KT CAVOK 15/05 Q1006 NOSIG=
201804272020 METAR EBBR 272020Z 17005KT CAVOK 14/05 Q1006 NOSIG=
201804271950 METAR EBBR 271950Z 16004KT CAVOK 14/05 Q1006 NOSIG=
201804271920 METAR EBBR 271920Z 17004KT CAVOK 15/04 Q1006 NOSIG=
201804271850 METAR EBBR 271850Z 17003KT CAVOK 15/03 Q1006 NOSIG=
201804271820 METAR EBBR 271820Z 19006KT CAVOK 15/04 Q1006 NOSIG=
201804271750 METAR EBBR 271750Z 20005KT CAVOK 16/05 Q1006 NOSIG=
201804271720 METAR EBBR 271720Z 21006KT 180V240 CAVOK 16/03 Q1006 NOSIG=
201804271650 METAR EBBR 271650Z 20008KT 160V240 CAVOK 17/04 Q1006 NOSIG=
201804271620 METAR EBBR 271620Z 21006KT 180V250 CAVOK 17/04 Q1006 NOSIG=
201804271550 METAR EBBR 271550Z 20005KT 160V280 CAVOK 17/04 Q1006 NOSIG=
201804271520 METAR EBBR 271520Z 19005KT 150V210 CAVOK 17/02 Q1007 NOSIG=
201804271450 METAR EBBR 271450Z 20004KT 170V270 CAVOK 17/02 Q1007 NOSIG=
201804271420 METAR EBBR 271420Z 19006KT 130V260 CAVOK 17/04 Q1007 NOSIG=
201804271350 METAR EBBR 271350Z 16007KT 130V200 CAVOK 17/03 Q1007 NOSIG=
201804271320 METAR EBBR 271320Z 18007KT 130V230 CAVOK 16/03 Q1008 NOSIG=
201804271250 METAR EBBR 271250Z 15006KT 110V210 CAVOK 16/02 Q1008 NOSIG=
201804271220 METAR EBBR 271220Z 14007KT 100V180 CAVOK 16/02 Q1009 NOSIG=
201804271150 METAR EBBR 271150Z 16009KT 110V180 CAVOK 16/02 Q1009 NOSIG=
201804271120 METAR EBBR 271120Z 16007KT 110V200 CAVOK 15/02 Q1009 NOSIG=
201804271050 METAR EBBR 271050Z 16008KT 120V220 CAVOK 14/01 Q1010 NOSIG=
201804271020 METAR EBBR 271020Z 17005KT 110V210 9999 FEW042 14/04 Q1011
                        NOSIG=
201804270950 METAR EBBR 270950Z 18006KT 140V220 CAVOK 14/03 Q1011 NOSIG=
201804270920 METAR EBBR 270920Z 18007KT CAVOK 13/04 Q1011 NOSIG=
201804270850 METAR EBBR 270850Z 17007KT 150V210 CAVOK 13/04 Q1012 NOSIG=
201804270820 METAR EBBR 270820Z 15006KT 100V190 CAVOK 12/03 Q1012 NOSIG=
201804270750 METAR EBBR 270750Z 14006KT 110V170 CAVOK 11/03 Q1012 NOSIG=
201804270720 METAR EBBR 270720Z 13005KT CAVOK 11/03 Q1012 NOSIG=
201804270650 METAR EBBR 270650Z 13003KT CAVOK 09/03 Q1013 NOSIG=
201804270620 METAR EBBR 270620Z 12002KT CAVOK 08/03 Q1013 NOSIG=
201804270550 METAR EBBR 270550Z 15002KT CAVOK 07/03 Q1013 NOSIG=
201804270520 METAR EBBR 270520Z 18004KT CAVOK 06/03 Q1013 NOSIG=
201804270450 METAR EBBR 270450Z 17005KT CAVOK 06/02 Q1013 NOSIG=
201804270420 METAR EBBR 270420Z 17005KT CAVOK 06/03 Q1014 NOSIG=
201804270350 METAR EBBR 270350Z 18005KT 9999 SCT049 05/03 Q1014 NOSIG=
201804270320 METAR EBBR 270320Z 18006KT CAVOK 05/02 Q1014 NOSIG=
201804270250 METAR EBBR 270250Z 19007KT CAVOK 05/02 Q1015 NOSIG=
201804270220 METAR EBBR 270220Z 19007KT CAVOK 05/02 Q1015 NOSIG=
201804270150 METAR EBBR 270150Z 19007KT CAVOK 05/02 Q1015 NOSIG=
201804270120 METAR EBBR 270120Z 18006KT CAVOK 06/03 Q1015 NOSIG=
201804270050 METAR EBBR 270050Z 18006KT CAVOK 05/02 Q1016 NOSIG=
201804270020 METAR EBBR 270020Z 19006KT CAVOK 05/02 Q1016 NOSIG=
201804262350 METAR EBBR 262350Z 19005KT CAVOK 06/02 Q1016 NOSIG=
201804262320 METAR EBBR 262320Z 20006KT CAVOK 06/02 Q1017 NOSIG=
201804262250 METAR EBBR 262250Z 21005KT CAVOK 06/02 Q1017 NOSIG=
201804262220 METAR EBBR 262220Z 21005KT CAVOK 06/02 Q1017 NOSIG=
201804262150 METAR EBBR 262150Z 23006KT CAVOK 07/02 Q1017 NOSIG=
201804262120 METAR EBBR 262120Z 24007KT CAVOK 08/02 Q1017 NOSIG=
201804262050 METAR EBBR 262050Z 23007KT CAVOK 08/03 Q1017 NOSIG=
201804262020 METAR EBBR 262020Z 24007KT CAVOK 09/02 Q1017 NOSIG=
201804261950 METAR EBBR 261950Z 25010KT CAVOK 11/01 Q1018 NOSIG=
201804261920 METAR EBBR 261920Z 25011KT CAVOK 11/01 Q1017 NOSIG=
201804261850 METAR EBBR 261850Z 25011KT CAVOK 12/01 Q1017 NOSIG=
201804261820 METAR EBBR 261820Z 26014KT CAVOK 12/M00 Q1017 NOSIG=
201804261750 METAR EBBR 261750Z 25012KT CAVOK 12/01 Q1017 NOSIG=
201804261720 METAR EBBR 261720Z 26013KT CAVOK 13/00 Q1017 NOSIG=
201804261650 METAR EBBR 261650Z 27014KT 240V300 CAVOK 14/01 Q1017 NOSIG=
201804261620 METAR EBBR 261620Z 26013KT 230V290 CAVOK 14/01 Q1017 NOSIG=
201804261550 METAR EBBR 261550Z 27015KT CAVOK 14/01 Q1017 NOSIG=
201804261520 METAR EBBR 261520Z 27014KT CAVOK 14/02 Q1017 NOSIG=
201804261450 METAR EBBR 261450Z 26012KT 9999 SCT048 13/02 Q1017 NOSIG=
201804261420 METAR EBBR 261420Z 26016KT 9999 FEW045 14/02 Q1017 NOSIG=
201804261350 METAR EBBR 261350Z 25013KT 9999 VCSH FEW045 13/03 Q1017 NOSIG=
201804261320 METAR EBBR 261320Z 26015KT 9999 VCSH SCT045 13/02 Q1017 NOSIG=
201804261250 METAR EBBR 261250Z 27014KT 9999 FEW045 14/04 Q1017 NOSIG=
201804261220 METAR EBBR 261220Z 27015KT 9999 FEW045 13/05 Q1017 NOSIG=
201804261150 METAR EBBR 261150Z 26010KT 230V290 9999 VCSH SCT035 11/05
                        Q1018 NOSIG=
201804261120 METAR EBBR 261120Z 26014KT 230V290 9999 -SHRA SCT038 12/04
                        Q1018 NOSIG=
201804261050 METAR EBBR 261050Z 27013G28KT 230V290 9999 -SHRA SCT038 10/04
                        Q1018 NOSIG=
201804261020 METAR EBBR 261020Z 26015KT 9999 SCT038 11/03 Q1018 NOSIG=
201804260950 METAR EBBR 260950Z 25012KT 9999 SCT038 11/04 Q1018 NOSIG=
201804260920 METAR EBBR 260920Z 26012KT 9999 SCT032 11/04 Q1017 NOSIG=
201804260850 METAR EBBR 260850Z 26013KT 9999 SCT028 11/05 Q1017 NOSIG=
201804260820 METAR EBBR 260820Z 26014KT 9999 SCT025 10/05 Q1017 NOSIG=
201804260750 METAR EBBR 260750Z 26014KT 9999 BKN022 10/05 Q1017 NOSIG=
201804260720 METAR EBBR 260720Z 27015KT 9999 SCT017 BKN025 09/05 Q1017
                        NOSIG=
201804260650 METAR EBBR 260650Z 26011KT 9999 SCT017 BKN025 09/05 Q1017
                        NOSIG=
201804260620 METAR EBBR 260620Z 26014KT 9999 SCT017 SCT027 09/05 Q1016
                        NOSIG=
201804260550 METAR EBBR 260550Z 25013KT 9999 SCT015 08/05 Q1016 NOSIG=
201804260520 METAR EBBR 260520Z 25013KT 9999 SCT013 08/05 Q1016 NOSIG=
201804260450 METAR EBBR 260450Z 25013KT 9999 FEW018 SCT028 08/05 Q1015
                        NOSIG=
201804260420 METAR EBBR 260420Z 25012KT 9999 FEW015 BKN018 08/05 Q1015
                        NOSIG=
201804260350 METAR EBBR 260350Z 25013KT 9999 FEW015 BKN018 08/05 Q1015
                        NOSIG=
201804260320 METAR EBBR 260320Z 25013KT 9999 SCT018 BKN022 09/06 Q1015
                        NOSIG=
201804260250 METAR EBBR 260250Z 25012KT 9999 BKN020 08/06 Q1015 NOSIG=
201804260220 METAR EBBR 260220Z 25010KT 9999 FEW019 SCT044 08/05 Q1014
                        NOSIG=
201804260150 METAR EBBR 260150Z 26014G28KT 7000 -SHRA FEW021 SCT023 08/05
                        Q1015 TEMPO 4000 SHRA=
201804260120 METAR EBBR 260120Z 24014KT 9999 FEW021 SCT023 09/05 Q1014
                        NOSIG=
201804260050 METAR EBBR 260050Z 24014KT 9999 FEW020 SCT026 BKN047 09/05
                        Q1014 NOSIG=
201804260020 METAR EBBR 260020Z 24013KT 9999 FEW021 SCT046 09/05 Q1014
                        NOSIG=
201804252350 METAR EBBR 252350Z 24013KT 9999 FEW021 SCT046 09/05 Q1014
                        NOSIG=
201804252320 METAR EBBR 252320Z 24014KT 9999 FEW022 09/05 Q1014 NOSIG=
201804252250 METAR EBBR 252250Z 24016KT 9999 FEW022 09/05 Q1014 NOSIG=
201804252220 METAR EBBR 252220Z 24015KT 9999 FEW025 09/04 Q1014 NOSIG=
201804252150 METAR EBBR 252150Z 24013KT 9999 FEW028 09/04 Q1014 NOSIG=
201804252120 METAR EBBR 252120Z 25013KT CAVOK 10/03 Q1014 NOSIG=
201804252050 METAR EBBR 252050Z 24015KT 210V270 CAVOK 10/03 Q1014 NOSIG=
201804252020 METAR EBBR 252020Z 24012KT CAVOK 10/02 Q1014 NOSIG=
201804251950 METAR EBBR 251950Z 25013KT 9999 FEW042 11/01 Q1014 NOSIG=
201804251920 METAR EBBR 251920Z 26014KT 9999 FEW042 11/02 Q1014 NOSIG=
201804251850 METAR EBBR 251850Z 25012KT 9999 FEW044 12/02 Q1013 NOSIG=
201804251820 METAR EBBR 251820Z 25013KT 9999 FEW047 12/02 Q1013 NOSIG=
201804251750 METAR EBBR 251750Z 26015KT CAVOK 13/02 Q1013 NOSIG=
201804251720 METAR EBBR 251720Z 26016KT CAVOK 14/02 Q1013 NOSIG=
201804251650 METAR EBBR 251650Z 26016KT 9999 SCT048 14/03 Q1013 NOSIG=
201804251620 METAR EBBR 251620Z 25014KT 9999 SCT048 15/04 Q1013 NOSIG=
201804251550 METAR EBBR 251550Z 27014KT 240V300 9999 -SHRA SCT048 14/04
                        Q1013 NOSIG=
201804251520 METAR EBBR 251520Z 27012KT 9999 SCT048 14/04 Q1013 NOSIG=
201804251450 METAR EBBR 251450Z 27014KT 9999 SCT048 14/03 Q1013 NOSIG=
201804251420 METAR EBBR 251420Z 28015KT 9999 FEW048 16/03 Q1013 NOSIG=
201804251350 METAR EBBR 251350Z 26016KT 9999 FEW040 15/03 Q1013 NOSIG=
201804251320 METAR EBBR 251320Z 26013KT 230V290 9999 SCT040 15/04 Q1013
                        NOSIG=
201804251250 METAR EBBR 251250Z 27011KT 9999 SCT035 14/05 Q1013 NOSIG=
201804251220 METAR EBBR 251220Z 28012KT 9999 SCT028 SCT040 14/05 Q1013
                        NOSIG=
201804251150 METAR EBBR 251150Z 25013KT 9999 SCT026 SCT040 14/06 Q1013
                        NOSIG=
201804251120 METAR EBBR 251120Z 27013KT 9999 SCT026 SCT040 14/06 Q1013
                        NOSIG=
201804251050 METAR EBBR 251050Z 27011KT 240V300 9999 SCT026 SCT040 13/07
                        Q1013 NOSIG=
201804251020 METAR EBBR 251020Z 29012KT 9999 SCT027 SCT042 13/06 Q1013
                        NOSIG=
201804250950 METAR EBBR 250950Z 27012KT 240V300 9999 SCT030 14/06 Q1013
                        NOSIG=
201804250920 METAR EBBR 250920Z 28012KT 9999 FEW030 SCT045 13/06 Q1013
                        NOSIG=
201804250850 METAR EBBR 250850Z 28016KT 9999 FEW022 BKN045 12/07 Q1012
                        NOSIG=
201804250820 METAR EBBR 250820Z 27013KT 9999 SCT020 BKN045 12/07 Q1012
                        NOSIG=
201804250750 METAR EBBR 250750Z 29008KT 260V320 9999 SCT020 BKN045 12/09
                        Q1012 NOSIG=
201804250720 METAR EBBR 250720Z 26013KT 9999 -SHRA SCT018 BKN038 12/08
                        Q1011 NOSIG=
201804250650 METAR EBBR 250650Z 26013KT 9999 SCT015 BKN044 12/09 Q1011
                        NOSIG=
201804250620 METAR EBBR 250620Z 26011KT 9999 SCT013 BKN046 12/10 Q1011
                        NOSIG=
201804250550 METAR COR EBBR 250550Z 26012KT 9999 BKN010 BKN043 11/10 Q1010
                        NOSIG=
201804250520 METAR EBBR 250520Z 26012KT 6000 -DZ SCT008 BKN011 11/10 Q1010
                        TEMPO BKN008=
201804250450 METAR COR EBBR 250450Z 26011KT 9999 SCT008 BKN009 11/10 Q1010
                        REDZ RERA TEMPO 25022G32KT 4000 DZRA=
201804250420 METAR COR EBBR 250420Z 26019KT 4000 -DZRA SCT006 BKN014 12/09
                        Q1010 TEMPO 25022G32KT BKN008=
201804250350 METAR COR EBBR 250350Z 25014KT 9999 SCT024 BKN044 13/09 Q1009
                        TEMPO 25018G28KT=
201804250320 METAR EBBR 250320Z 25016G26KT 9999 SCT020 13/09 Q1009 NOSIG=
201804250250 METAR EBBR 250250Z 26015KT 9999 SCT019 BKN024 13/09 Q1009
                        NOSIG=
201804250220 METAR EBBR 250220Z 25013KT 230V290 9999 BKN019 13/10 Q1009
                        TEMPO BKN012=
201804250150 METAR EBBR 250150Z 25012KT 9999 BKN018 13/10 Q1009 TEMPO
                        BKN012=
201804250120 METAR COR EBBR 250120Z 25014KT 9999 BKN019 13/10 Q1010 TEMPO
                        BKN012=
201804250050 METAR EBBR 250050Z 25013KT 9999 FEW019 SCT039 14/10 Q1010
                        NOSIG=
201804250020 METAR EBBR 250020Z 23011KT 9999 SCT035 14/10 Q1010 NOSIG=
201804242350 METAR EBBR 242350Z 24011KT 9999 BKN030 14/10 Q1010 NOSIG=
201804242320 METAR EBBR 242320Z 24009KT 9999 SCT026 14/10 Q1010 NOSIG=
201804242250 METAR EBBR 242250Z 28011KT 9999 SCT020 14/10 Q1011 NOSIG=
201804242220 METAR EBBR 242220Z 22006KT CAVOK 15/11 Q1011 NOSIG=
201804242150 METAR EBBR 242150Z 21005KT CAVOK 15/11 Q1011 NOSIG=
201804242120 METAR EBBR 242120Z 21005KT CAVOK 15/11 Q1011 NOSIG=
201804242050 METAR EBBR 242050Z 21006KT CAVOK 15/10 Q1012 NOSIG=
201804242020 METAR EBBR 242020Z 22005KT CAVOK 15/10 Q1012 NOSIG=
201804241950 METAR EBBR 241950Z 23007KT 9999 BKN042 16/10 Q1013 NOSIG=
201804241920 METAR EBBR 241920Z 23008KT 9999 BKN042 16/10 Q1013 NOSIG=
201804241850 METAR EBBR 241850Z 22010KT 9999 SCT035 BKN048 16/10 Q1013
                        NOSIG=
201804241820 METAR EBBR 241820Z 23011KT 9999 SCT036 16/09 Q1013 NOSIG=
201804241750 METAR EBBR 241750Z 22010KT 9999 SCT034 16/09 Q1013 NOSIG=
201804241720 METAR EBBR 241720Z 23007KT 210V270 9999 SCT034 16/09 Q1014
                        NOSIG=
201804241650 METAR EBBR 241650Z 22010KT CAVOK 15/09 Q1014 NOSIG=
201804241620 METAR EBBR 241620Z 21011KT CAVOK 15/09 Q1014 NOSIG=
201804241550 METAR EBBR 241550Z 23012KT CAVOK 16/09 Q1015 NOSIG=
201804241520 METAR EBBR 241520Z 22010KT 9999 FEW031 16/09 Q1015 NOSIG=
201804241450 METAR EBBR 241450Z 22011KT 190V250 9999 BKN030 15/08 Q1015
                        NOSIG=
201804241420 METAR EBBR 241420Z 22012KT 9999 BKN030 15/09 Q1016 NOSIG=
201804241350 METAR EBBR 241350Z 23012KT 9999 BKN029 15/08 Q1016 NOSIG=
201804241320 METAR EBBR 241320Z 24012KT 210V270 9999 BKN027 15/09 Q1017
                        NOSIG=
201804241250 METAR EBBR 241250Z 23011KT 190V250 9999 BKN024 14/09 Q1017
                        NOSIG=
201804241220 METAR EBBR 241220Z 23012KT 9999 BKN020 13/09 Q1017 NOSIG=
201804241150 METAR EBBR 241150Z 23010KT 9999 BKN021 13/08 Q1018 NOSIG=
201804241120 METAR EBBR 241120Z 24010KT 9999 BKN020 13/08 Q1018 NOSIG=
201804241050 METAR EBBR 241050Z 24011KT 210V270 9999 BKN015 12/08 Q1018
                        NOSIG=
201804241020 METAR EBBR 241020Z 24009KT 210V280 9999 BKN015 12/08 Q1018
                        NOSIG=
201804240950 METAR EBBR 240950Z 25011KT 9999 BKN014 11/07 Q1018 NOSIG=
201804240920 METAR EBBR 240920Z 24010KT 9999 BKN014 11/07 Q1018 NOSIG=
201804240850 METAR EBBR 240850Z 24010KT 9999 BKN014 11/07 Q1018 NOSIG=
201804240820 METAR EBBR 240820Z 24011KT 9999 BKN015 11/08 Q1018 TEMPO
                        BKN012=
201804240750 METAR EBBR 240750Z 24009KT 9999 BKN015 10/07 Q1018 TEMPO
                        BKN012=
201804240720 METAR EBBR 240720Z 23009KT 9999 BKN014 10/07 Q1018 NOSIG=
201804240650 METAR EBBR 240650Z 23009KT 9999 BKN015 10/07 Q1017 BECMG
                        BKN012=
201804240620 METAR EBBR 240620Z 24010KT 9999 -RA BKN015 10/06 Q1017 BECMG
                        BKN012=
201804240550 METAR EBBR 240550Z 24011KT 9999 SCT018 BKN033 10/06 Q1017
                        NOSIG=
201804240520 METAR EBBR 240520Z 24010KT 9999 BKN035 10/05 Q1017 NOSIG=
201804240450 METAR EBBR 240450Z 24011KT 9999 SCT035 09/05 Q1017 NOSIG=
201804240420 METAR EBBR 240420Z 23013KT CAVOK 09/05 Q1017 NOSIG=
201804240350 METAR EBBR 240350Z 23013KT CAVOK 09/05 Q1017 NOSIG=
201804240320 METAR EBBR 240320Z 23011KT CAVOK 09/05 Q1017 NOSIG=
201804240250 METAR EBBR 240250Z 22011KT CAVOK 09/05 Q1017 NOSIG=
201804240220 METAR EBBR 240220Z 23012KT CAVOK 09/05 Q1017 NOSIG=
201804240150 METAR EBBR 240150Z 23011KT CAVOK 09/05 Q1017 NOSIG=
201804240120 METAR EBBR 240120Z 22010KT CAVOK 09/05 Q1017 NOSIG=
201804240050 METAR EBBR 240050Z 22011KT CAVOK 09/05 Q1017 NOSIG=
201804240020 METAR EBBR 240020Z 24011KT 200V260 CAVOK 09/05 Q1018 NOSIG=
201804232350 METAR EBBR 232350Z 23011KT CAVOK 09/05 Q1018 NOSIG=
201804232320 METAR EBBR 232320Z 24010KT CAVOK 09/05 Q1018 NOSIG=
201804232250 METAR EBBR 232250Z 25011KT CAVOK 10/05 Q1018 NOSIG=
201804232220 METAR EBBR 232220Z 25012KT CAVOK 10/05 Q1018 NOSIG=
201804232150 METAR EBBR 232150Z 25010KT CAVOK 10/05 Q1018 NOSIG=
201804232120 METAR EBBR 232120Z 25010KT CAVOK 10/05 Q1018 NOSIG=
201804232050 METAR EBBR 232050Z 25012KT CAVOK 11/05 Q1018 NOSIG=
201804232020 METAR EBBR 232020Z 25013KT CAVOK 11/05 Q1018 NOSIG=
201804231950 METAR EBBR 231950Z 25010KT CAVOK 12/05 Q1018 NOSIG=
201804231920 METAR EBBR 231920Z 25010KT CAVOK 13/05 Q1018 NOSIG=
201804231850 METAR EBBR 231850Z 26010KT CAVOK 13/05 Q1018 NOSIG=
201804231820 METAR EBBR 231820Z 24011KT CAVOK 14/06 Q1017 NOSIG=
201804231750 METAR EBBR 231750Z 25011KT 9999 FEW048 14/06 Q1017 NOSIG=
201804231720 METAR EBBR 231720Z 25011KT 9999 FEW048 15/05 Q1017 NOSIG=
201804231650 METAR EBBR 231650Z 28012G23KT 9999 FEW048 16/06 Q1017 NOSIG=
201804231620 METAR EBBR 231620Z 25009KT 9999 FEW048 16/06 Q1017 NOSIG=
201804231550 METAR EBBR 231550Z 27010KT 9999 SCT046 17/06 Q1017 NOSIG=
201804231520 METAR EBBR 231520Z 28011KT 250V310 9999 SCT044 17/06 Q1017
                        NOSIG=
201804231450 METAR EBBR 231450Z 26012KT 230V290 9999 SCT044 17/05 Q1017
                        NOSIG=
201804231420 METAR EBBR 231420Z 27012KT 230V290 9999 SCT044 16/05 Q1017
                        NOSIG=
201804231350 METAR EBBR 231350Z 27011KT 240V300 9999 SCT042 17/06 Q1017
                        NOSIG=
201804231320 METAR EBBR 231320Z 26009KT 230V300 9999 SCT042 17/06 Q1017
                        NOSIG=
201804231250 METAR EBBR 231250Z 26008KT 220V300 9999 SCT042 17/07 Q1017
                        NOSIG=
201804231220 METAR EBBR 231220Z 24009G19KT 220V290 9999 SCT042 17/07 Q1017
                        NOSIG=
201804231150 METAR EBBR 231150Z 27010KT 220V310 9999 SCT038 17/07 Q1017
                        NOSIG=
201804231120 METAR COR EBBR 231120Z 27012KT 9999 SCT038 16/06 Q1017 NOSIG=
201804231050 METAR EBBR 231050Z 26011KT 230V290 9999 SCT035 16/07 Q1017
                        NOSIG=
201804231020 METAR EBBR 231020Z 27010KT 240V300 9999 SCT032 15/06 Q1017
                        NOSIG=
201804230950 METAR EBBR 230950Z 26012KT 240V310 9999 SCT023 15/06 Q1017
                        NOSIG=
201804230920 METAR EBBR 230920Z 27012KT 9999 SCT023 15/07 Q1017 NOSIG=
201804230850 METAR EBBR 230850Z 27011KT 230V290 9999 SCT015 14/08 Q1017
                        NOSIG=
201804230820 METAR EBBR 230820Z 27012KT 9999 SCT015 13/08 Q1016 NOSIG=
201804230750 METAR EBBR 230750Z 28010KT 9999 SCT015 14/09 Q1016 NOSIG=
201804230720 METAR EBBR 230720Z 26009KT 9999 FEW012 13/09 Q1016 NOSIG=
201804230650 METAR EBBR 230650Z 26009KT 9999 FEW038 13/08 Q1015 NOSIG=
201804230620 METAR EBBR 230620Z 25008KT 9999 SCT038 12/08 Q1015 NOSIG=
201804230550 METAR EBBR 230550Z 25009KT 9999 SCT038 12/08 Q1015 NOSIG=
201804230520 METAR EBBR 230520Z 25008KT CAVOK 12/08 Q1015 NOSIG=
201804230450 METAR EBBR 230450Z 25008KT CAVOK 12/07 Q1014 NOSIG=
201804230420 METAR EBBR 230420Z 26010KT CAVOK 12/07 Q1014 NOSIG=
201804230350 METAR EBBR 230350Z 26009KT CAVOK 13/06 Q1014 NOSIG=
201804230320 METAR EBBR 230320Z 25009KT CAVOK 13/06 Q1014 NOSIG=
201804230250 METAR EBBR 230250Z 25009KT CAVOK 14/06 Q1014 NOSIG=
201804230220 METAR EBBR 230220Z 25009KT CAVOK 14/07 Q1013 NOSIG=
201804230150 METAR EBBR 230150Z 25010KT CAVOK 14/06 Q1013 NOSIG=
201804230120 METAR EBBR 230120Z 25010KT CAVOK 15/08 Q1013 NOSIG=
201804230050 METAR EBBR 230050Z 26010KT CAVOK 15/07 Q1013 NOSIG=
201804230020 METAR EBBR 230020Z 25010KT CAVOK 16/09 Q1013 NOSIG=
201804222350 METAR EBBR 222350Z 25009KT CAVOK 17/09 Q1013 NOSIG=
201804222320 METAR EBBR 222320Z 24009KT 9999 FEW047 17/09 Q1013 NOSIG=
201804222250 METAR EBBR 222250Z 26008KT CAVOK 17/10 Q1012 RETS NOSIG=
201804222220 METAR EBBR 222220Z 25007KT 9999 VCTS -SHRA FEW033TCU FEW050CB
                        18/09 Q1012 NOSIG=
201804222150 METAR EBBR 222150Z 24007KT CAVOK 18/10 Q1012 NOSIG=
201804222120 METAR EBBR 222120Z 25012KT CAVOK 19/09 Q1012 NOSIG=
201804222050 METAR EBBR 222050Z 27010KT CAVOK 20/09 Q1012 NOSIG=
201804222020 METAR EBBR 222020Z 29009KT CAVOK 20/11 Q1011 NOSIG=
201804221950 METAR EBBR 221950Z 27009KT CAVOK 21/11 Q1011 NOSIG=
201804221920 METAR EBBR 221920Z 26007KT CAVOK 21/11 Q1011 NOSIG=
201804221850 METAR EBBR 221850Z 24008KT CAVOK 22/11 Q1010 NOSIG=
201804221820 METAR EBBR 221820Z 24011KT CAVOK 23/10 Q1010 NOSIG=
201804221750 METAR EBBR 221750Z 24012KT CAVOK 24/09 Q1010 NOSIG=
201804221720 METAR EBBR 221720Z 25015KT CAVOK 24/10 Q1010 NOSIG=
201804221650 METAR EBBR 221650Z 25014KT 9999 FEW060TCU 25/10 Q1010 NOSIG=
201804221620 METAR EBBR 221620Z 24012G24KT 210V270 9999 FEW060TCU 25/11
                        Q1010 NOSIG=
201804221550 METAR EBBR 221550Z 25016KT 9999 FEW060TCU 24/10 Q1010 NOSIG=
201804221520 METAR COR EBBR 221520Z 23015KT 210V270 9999 FEW050TCU 24/10
                        Q1010 NOSIG=
201804221450 METAR COR EBBR 221450Z 24013KT 9999 SCT050TCU 25/12 Q1010
                        NOSIG=
201804221420 METAR EBBR 221420Z 24015KT 210V280 CAVOK 26/14 Q1010 NOSIG=
201804221350 METAR EBBR 221350Z 22013KT 190V260 CAVOK 25/14 Q1010 NOSIG=
201804221320 METAR EBBR 221320Z 22013KT 190V250 CAVOK 26/13 Q1010 NOSIG=
201804221250 METAR EBBR 221250Z 20011KT CAVOK 26/12 Q1010 NOSIG=
201804221220 METAR EBBR 221220Z 22012KT CAVOK 26/12 Q1010 NOSIG=
201804221150 METAR EBBR 221150Z 24010KT 160V270 CAVOK 26/12 Q1010 NOSIG=
201804221120 METAR EBBR 221120Z 22012KT 180V240 CAVOK 25/12 Q1011 NOSIG=
201804221050 METAR EBBR 221050Z 21012KT CAVOK 25/11 Q1011 NOSIG=
201804221020 METAR EBBR 221020Z 19004KT 160V220 CAVOK 24/14 Q1011 NOSIG=
201804220950 METAR EBBR 220950Z 16004KT 120V240 CAVOK 23/14 Q1011 NOSIG=
201804220920 METAR EBBR 220920Z VRB02KT CAVOK 22/12 Q1012 NOSIG=
201804220850 METAR EBBR 220850Z 13005KT 100V160 CAVOK 21/13 Q1012 NOSIG=
201804220820 METAR EBBR 220820Z 14006KT 8000 FEW020CB 20/13 Q1013 NOSIG=
201804220750 METAR EBBR 220750Z 20003KT 130V260 6000 FEW020CB 19/12 Q1013
                        TEMPO 4000 TSRA=
201804220720 METAR COR EBBR 220720Z 16004KT 9000 NSC 18/12 Q1013 TEMPO
                        4000 TSRA=
201804220650 METAR EBBR 220650Z 18006KT 9000 NSC 16/12 Q1013 NOSIG=
201804220620 METAR EBBR 220620Z 20005KT 9000 NSC 15/12 Q1013 NOSIG=
201804220550 METAR EBBR 220550Z 17004KT 9000 NSC 13/11 Q1013 NOSIG=
201804220520 METAR EBBR 220520Z 17006KT 7000 NSC 12/10 Q1013 NOSIG=
201804220450 METAR EBBR 220450Z 22002KT 7000 FEW045 11/09 Q1013 NOSIG=
201804220420 METAR EBBR 220420Z VRB01KT CAVOK 11/08 Q1013 NOSIG=
201804220350 METAR EBBR 220350Z 14002KT CAVOK 11/09 Q1013 NOSIG=
201804220320 METAR EBBR 220320Z 12001KT CAVOK 12/09 Q1014 NOSIG=
201804220250 METAR EBBR 220250Z 10003KT CAVOK 12/09 Q1014 NOSIG=
201804220220 METAR EBBR 220220Z 11002KT CAVOK 12/09 Q1014 NOSIG=
201804220150 METAR EBBR 220150Z 06002KT CAVOK 12/09 Q1015 NOSIG=
201804220120 METAR EBBR 220120Z 05001KT CAVOK 13/09 Q1015 NOSIG=
201804220050 METAR EBBR 220050Z 03002KT CAVOK 12/10 Q1015 NOSIG=
201804220020 METAR EBBR 220020Z 10004KT CAVOK 15/10 Q1015 NOSIG=
201804212350 METAR EBBR 212350Z 10003KT CAVOK 15/10 Q1016 NOSIG=
201804212320 METAR EBBR 212320Z 08004KT CAVOK 15/10 Q1016 NOSIG=
201804212250 METAR COR EBBR 212250Z 10003KT CAVOK 16/10 Q1016 NOSIG=
201804212220 METAR EBBR 212220Z 10003KT 9000 NSC 16/10 Q1017 NOSIG=
201804212150 METAR EBBR 212150Z 11003KT CAVOK 16/11 Q1017 NOSIG=
201804212120 METAR EBBR 212120Z 10003KT CAVOK 17/10 Q1017 NOSIG=
201804212050 METAR EBBR 212050Z 09002KT CAVOK 18/11 Q1018 NOSIG=
201804212020 METAR EBBR 212020Z 07002KT CAVOK 18/10 Q1018 NOSIG=
201804211950 METAR EBBR 211950Z 08003KT CAVOK 19/11 Q1018 NOSIG=
201804211920 METAR EBBR 211920Z 05005KT CAVOK 19/12 Q1018 NOSIG=
201804211850 METAR EBBR 211850Z 05005KT CAVOK 19/11 Q1018 NOSIG=
201804211820 METAR EBBR 211820Z 04005KT CAVOK 21/11 Q1018 NOSIG=
201804211750 METAR EBBR 211750Z 05004KT CAVOK 21/12 Q1018 NOSIG=
201804211720 METAR EBBR 211720Z 04005KT CAVOK 22/12 Q1018 NOSIG=
201804211650 METAR EBBR 211650Z 04005KT CAVOK 23/12 Q1018 NOSIG=
201804211620 METAR EBBR 211620Z 04005KT CAVOK 23/10 Q1019 NOSIG=
201804211550 METAR EBBR 211550Z 04005KT 010V070 CAVOK 24/10 Q1019 NOSIG=
201804211520 METAR EBBR 211520Z 05005KT 030V090 CAVOK 24/10 Q1019 NOSIG=
201804211450 METAR EBBR 211450Z 04006KT CAVOK 24/10 Q1020 NOSIG=
201804211420 METAR EBBR 211420Z 05006KT 360V080 CAVOK 23/10 Q1020 NOSIG=
201804211350 METAR EBBR 211350Z 04005KT 010V110 CAVOK 23/10 Q1020 NOSIG=
201804211320 METAR EBBR 211320Z 06004KT 040V130 8000 NSC 23/11 Q1021 NOSIG=
201804211250 METAR EBBR 211250Z 05005KT 020V080 8000 NSC 23/10 Q1021 NOSIG=
201804211220 METAR EBBR 211220Z 05004KT 350V080 8000 NSC 22/11 Q1021 NOSIG=
201804211150 METAR EBBR 211150Z 06004KT 350V110 7000 NSC 21/11 Q1021 NOSIG=
201804211120 METAR EBBR 211120Z 04004KT 350V090 7000 NSC 21/11 Q1022 NOSIG=
201804211050 METAR EBBR 211050Z 05004KT 010V090 7000 NSC 20/12 Q1022 NOSIG=
201804211020 METAR EBBR 211020Z 05004KT 010V100 7000 NSC 18/10 Q1022 NOSIG=
201804210950 METAR EBBR 210950Z 05005KT 4600 HZ NSC 18/10 Q1022 BECMG
                        7000 NSW=
201804210920 METAR EBBR 210920Z 04004KT 010V090 4600 HZ NSC 16/10 Q1023
                        BECMG 7000 NSW=
201804210850 METAR EBBR 210850Z VRB02KT 4600 HZ NSC 16/11 Q1023 BECMG
                        7000 NSW=
201804210820 METAR EBBR 210820Z 05003KT 020V110 3900 HZ NSC 15/11 Q1023
                        BECMG 7000 NSW=
201804210750 METAR EBBR 210750Z 08003KT 030V130 3800 BR NSC 13/10 Q1023
                        BECMG 7000 NSW=
201804210720 METAR EBBR 210720Z 06003KT 030V110 3000 BR NSC 12/10 Q1023
                        BECMG 7000 NSW=
201804210650 METAR EBBR 210650Z 05004KT 2700 BR NSC 11/09 Q1023 BECMG
                        7000 NSW=
201804210620 METAR COR EBBR 210620Z 04004KT 360V070 2700 BR NSC 11/09
                        Q1023 BECMG 7000 NSW=
201804210550 METAR EBBR 210550Z VRB02KT 2100 BR NSC 11/09 Q1023 BECMG
                        6000 NSW=
201804210520 METAR COR EBBR 210520Z 33003KT 290V010 1500 BR NSC 10/08
                        Q1022 TEMPO 0700 BCFG=
201804210450 METAR EBBR 210450Z 32004KT 0800 R25L/1900N R25R/P2000N R01/P2000N
                        FG NSC 10/08 Q1022 TEMPO 0700 FG=
201804210420 METAR EBBR 210420Z 32003KT 0800 R25L/P2000N R25R/P2000N R01/P2000N
                        FG NSC 10/08 Q1022 TEMPO 1200 BCFG
                        BR=
201804210350 METAR EBBR 210350Z 31002KT 2400 BR NSC 10/08 Q1022 TEMPO
                        1200 BCFG BR=
201804210320 METAR EBBR 210320Z 31003KT 2500 BR NSC 10/08 Q1022 TEMPO
                        1200 BCFG BR=
201804210250 METAR EBBR 210250Z 31003KT 3200 BR NSC 10/08 Q1022 NOSIG=
201804210220 METAR EBBR 210220Z 31003KT 3200 BR NSC 11/08 Q1022 NOSIG=
201804210150 METAR EBBR 210150Z 32004KT 3200 BR NSC 11/09 Q1022 NOSIG=
201804210120 METAR EBBR 210120Z 32003KT 3500 BR NSC 12/09 Q1022 NOSIG=
201804210050 METAR EBBR 210050Z 33002KT 3500 BR NSC 12/09 Q1022 NOSIG=
201804210020 METAR EBBR 210020Z 33002KT 3900 BR NSC 13/10 Q1022 NOSIG=
201804202350 METAR EBBR 202350Z 30002KT 4200 HZ NSC 13/09 Q1022 NOSIG=
201804202320 METAR EBBR 202320Z 33002KT 4400 HZ NSC 13/10 Q1023 NOSIG=
201804202250 METAR EBBR 202250Z 30002KT 4400 HZ NSC 14/10 Q1022 NOSIG=
201804202220 METAR EBBR 202220Z 32004KT 5000 HZ NSC 15/10 Q1022 TEMPO
                        4000 BR=
201804202150 METAR EBBR 202150Z 31004KT 6000 NSC 15/10 Q1022 TEMPO 4000
                        BR=
201804202120 METAR EBBR 202120Z 31005KT 5000 HZ NSC 16/10 Q1022 TEMPO
                        4000 BR=
201804202050 METAR EBBR 202050Z 31004KT 5000 HZ NSC 17/11 Q1022 TEMPO
                        4000 BR=
201804202020 METAR EBBR 202020Z 30004KT 7000 NSC 18/12 Q1022 TEMPO 4000
                        BR=
201804201950 METAR EBBR 201950Z 33006KT CAVOK 19/11 Q1022 TEMPO 4000 BR=
201804201920 METAR EBBR 201920Z 32005KT CAVOK 20/10 Q1022 NOSIG=
201804201850 METAR EBBR 201850Z 32005KT CAVOK 21/08 Q1022 NOSIG=
201804201820 METAR EBBR 201820Z 35004KT CAVOK 22/07 Q1022 NOSIG=
201804201750 METAR EBBR 201750Z 34008KT CAVOK 23/06 Q1022 NOSIG=
201804201720 METAR EBBR 201720Z 34008KT CAVOK 23/08 Q1022 NOSIG=
201804201650 METAR EBBR 201650Z 34008KT CAVOK 24/08 Q1022 NOSIG=
201804201620 METAR EBBR 201620Z 34010KT CAVOK 24/09 Q1022 NOSIG=
201804201550 METAR EBBR 201550Z 34010KT 310V010 CAVOK 25/11 Q1022 NOSIG=
201804201520 METAR EBBR 201520Z 30008KT 280V340 CAVOK 26/11 Q1022 NOSIG=
201804201450 METAR EBBR 201450Z 31006KT CAVOK 26/11 Q1022 NOSIG=
201804201420 METAR EBBR 201420Z 31006KT 240V360 CAVOK 27/12 Q1022 NOSIG=
201804201350 METAR EBBR 201350Z 30008KT CAVOK 27/11 Q1022 NOSIG=
201804201320 METAR EBBR 201320Z 29007KT 250V340 CAVOK 27/11 Q1023 NOSIG=
201804201250 METAR EBBR 201250Z 27008KT 220V320 CAVOK 26/11 Q1023 NOSIG=
201804201220 METAR EBBR 201220Z 27009KT CAVOK 26/11 Q1023 NOSIG=
201804201150 METAR EBBR 201150Z 28009KT CAVOK 26/10 Q1023 NOSIG=
201804201120 METAR EBBR 201120Z 27009KT 230V290 CAVOK 26/11 Q1023 NOSIG=
201804201050 METAR EBBR 201050Z 25007G17KT 210V310 CAVOK 26/12 Q1023 NOSIG=
201804201020 METAR EBBR 201020Z 25007KT 210V290 CAVOK 25/11 Q1023 NOSIG=
201804200950 METAR EBBR 200950Z 26006KT 230V290 CAVOK 25/11 Q1023 NOSIG=
201804200920 METAR EBBR 200920Z 27005KT 230V300 CAVOK 24/12 Q1023 NOSIG=
201804200850 METAR EBBR 200850Z 24004KT 210V270 CAVOK 24/11 Q1023 NOSIG=
201804200820 METAR EBBR 200820Z 22005KT CAVOK 23/13 Q1023 NOSIG=
201804200750 METAR EBBR 200750Z 22005KT CAVOK 21/14 Q1023 NOSIG=
201804200720 METAR EBBR 200720Z 22005KT CAVOK 20/13 Q1023 NOSIG=
201804200650 METAR EBBR 200650Z 19005KT CAVOK 18/12 Q1023 NOSIG=
201804200620 METAR EBBR 200620Z 19006KT CAVOK 17/12 Q1023 NOSIG=
201804200550 METAR EBBR 200550Z 19007KT CAVOK 16/11 Q1023 NOSIG=
201804200520 METAR EBBR 200520Z 18008KT CAVOK 15/11 Q1023 NOSIG=
201804200450 METAR EBBR 200450Z 19008KT CAVOK 14/10 Q1023 NOSIG=
201804200420 METAR EBBR 200420Z 19009KT CAVOK 14/10 Q1023 NOSIG=
201804200350 METAR EBBR 200350Z 18008KT CAVOK 14/10 Q1023 NOSIG=
201804200320 METAR EBBR 200320Z 17005KT CAVOK 13/10 Q1023 NOSIG=
201804200250 METAR EBBR 200250Z 14005KT CAVOK 12/10 Q1023 NOSIG=
201804200220 METAR EBBR 200220Z 13005KT CAVOK 13/10 Q1023 NOSIG=
201804200150 METAR EBBR 200150Z 13005KT CAVOK 13/10 Q1023 NOSIG=
201804200120 METAR EBBR 200120Z 10003KT CAVOK 15/11 Q1023 NOSIG=
201804200050 METAR EBBR 200050Z 06001KT CAVOK 15/10 Q1024 NOSIG=
201804200020 METAR EBBR 200020Z VRB01KT CAVOK 15/10 Q1024 NOSIG=
201804192350 METAR EBBR 192350Z 13003KT CAVOK 14/11 Q1024 NOSIG=
201804192320 METAR EBBR 192320Z 17003KT CAVOK 15/11 Q1024 NOSIG=
201804192250 METAR EBBR 192250Z 19004KT CAVOK 16/11 Q1024 NOSIG=
201804192220 METAR EBBR 192220Z 19003KT CAVOK 16/10 Q1024 NOSIG=
201804192150 METAR EBBR 192150Z 19003KT CAVOK 18/11 Q1024 NOSIG=
201804192120 METAR EBBR 192120Z 21004KT CAVOK 16/11 Q1024 NOSIG=
201804192050 METAR COR EBBR 192050Z 21005KT CAVOK 17/10 Q1024 NOSIG=
201804192020 METAR EBBR 192020Z 21004KT CAVOK 19/11 Q1024 NOSIG=
201804191950 METAR EBBR 191950Z 21004KT CAVOK 20/11 Q1024 NOSIG=
201804191920 METAR EBBR 191920Z 22004KT CAVOK 22/12 Q1024 NOSIG=
201804191850 METAR EBBR 191850Z 24004KT CAVOK 21/12 Q1024 NOSIG=
201804191820 METAR EBBR 191820Z 25005KT CAVOK 22/12 Q1023 NOSIG=
201804191750 METAR EBBR 191750Z 22005KT CAVOK 24/11 Q1023 NOSIG=
201804191720 METAR COR EBBR 191720Z 23005KT CAVOK 24/12 Q1023 NOSIG=
201804191650 METAR EBBR 191650Z 19005KT 150V210 CAVOK 26/07 Q1023 NOSIG=
201804191620 METAR EBBR 191620Z 16003KT 100V190 CAVOK 28/07 Q1024 NOSIG=
201804191550 METAR EBBR 191550Z 16006KT 130V210 CAVOK 28/07 Q1024 NOSIG=
201804191520 METAR EBBR 191520Z 16005KT 100V220 CAVOK 28/07 Q1024 NOSIG=
201804191450 METAR EBBR 191450Z 18004KT 110V230 CAVOK 27/07 Q1024 NOSIG=
201804191420 METAR EBBR 191420Z VRB03KT CAVOK 27/11 Q1024 NOSIG=
201804191350 METAR EBBR 191350Z 20004KT 150V250 CAVOK 27/10 Q1024 NOSIG=
201804191320 METAR EBBR 191320Z 15005KT 080V220 CAVOK 27/09 Q1025 NOSIG=
201804191250 METAR EBBR 191250Z 15006KT 120V190 CAVOK 26/07 Q1025 NOSIG=
201804191220 METAR EBBR 191220Z 16004KT 100V220 CAVOK 26/07 Q1025 NOSIG=
201804191150 METAR EBBR 191150Z 14005KT 060V200 CAVOK 26/08 Q1025 NOSIG=
201804191120 METAR EBBR 191120Z 16008KT 120V200 CAVOK 25/07 Q1026 NOSIG=
201804191050 METAR EBBR 191050Z 18008KT 140V200 CAVOK 25/08 Q1026 NOSIG=
201804191020 METAR EBBR 191020Z 16008KT 130V210 CAVOK 25/06 Q1026 NOSIG=
201804190950 METAR EBBR 190950Z 15008KT 110V190 CAVOK 24/08 Q1026 NOSIG=
201804190920 METAR EBBR 190920Z 15008KT CAVOK 22/07 Q1026 NOSIG=
201804190850 METAR EBBR 190850Z 15007KT 120V180 CAVOK 22/08 Q1026 NOSIG=
201804190820 METAR EBBR 190820Z 15007KT CAVOK 21/09 Q1026 NOSIG=
201804190750 METAR EBBR 190750Z 16006KT CAVOK 20/09 Q1026 NOSIG=
201804190720 METAR EBBR 190720Z 14004KT 110V170 CAVOK 18/09 Q1026 NOSIG=
201804190650 METAR EBBR 190650Z 11003KT 070V140 CAVOK 17/09 Q1026 NOSIG=
201804190620 METAR EBBR 190620Z VRB01KT CAVOK 16/09 Q1026 NOSIG=
201804190550 METAR EBBR 190550Z VRB01KT CAVOK 14/07 Q1026 NOSIG=
201804190520 METAR COR EBBR 190520Z VRB02KT CAVOK 12/06 Q1026 NOSIG=
201804190450 METAR EBBR 190450Z 11003KT CAVOK 13/06 Q1026 NOSIG=
201804190420 METAR EBBR 190420Z 13004KT CAVOK 13/07 Q1026 NOSIG=
201804190350 METAR EBBR 190350Z 12006KT CAVOK 13/07 Q1026 NOSIG=
201804190320 METAR EBBR 190320Z 12005KT CAVOK 14/07 Q1026 NOSIG=
201804190250 METAR EBBR 190250Z VRB02KT CAVOK 14/07 Q1026 NOSIG=
201804190220 METAR EBBR 190220Z 11002KT CAVOK 14/07 Q1026 NOSIG=
201804190150 METAR EBBR 190150Z 10003KT CAVOK 15/08 Q1027 NOSIG=
201804190120 METAR EBBR 190120Z 11004KT CAVOK 15/08 Q1027 NOSIG=
201804190050 METAR EBBR 190050Z 12005KT CAVOK 15/08 Q1027 NOSIG=
201804190020 METAR EBBR 190020Z 12006KT CAVOK 15/07 Q1027 NOSIG=
201804182350 METAR EBBR 182350Z 11005KT CAVOK 16/07 Q1027 NOSIG=
201804182320 METAR EBBR 182320Z 12005KT CAVOK 16/08 Q1027 NOSIG=
201804182250 METAR EBBR 182250Z 12005KT CAVOK 16/08 Q1027 NOSIG=
201804182220 METAR EBBR 182220Z 12005KT CAVOK 16/08 Q1027 NOSIG=
201804182150 METAR EBBR 182150Z 11004KT CAVOK 17/07 Q1027 NOSIG=
201804182120 METAR EBBR 182120Z 10004KT CAVOK 18/08 Q1027 NOSIG=
201804182050 METAR EBBR 182050Z 10004KT CAVOK 19/07 Q1028 NOSIG=
201804182020 METAR EBBR 182020Z 09003KT CAVOK 20/06 Q1027 NOSIG=
201804181950 METAR EBBR 181950Z 08003KT CAVOK 20/07 Q1027 NOSIG=
201804181920 METAR EBBR 181920Z 09004KT CAVOK 21/08 Q1027 NOSIG=
201804181850 METAR EBBR 181850Z 09003KT CAVOK 22/08 Q1027 NOSIG=
201804181820 METAR EBBR 181820Z 10003KT CAVOK 22/09 Q1027 NOSIG=
201804181750 METAR EBBR 181750Z 09004KT CAVOK 23/07 Q1027 NOSIG=
201804181720 METAR EBBR 181720Z 08005KT CAVOK 24/07 Q1027 NOSIG=
201804181650 METAR EBBR 181650Z 08005KT CAVOK 24/06 Q1028 NOSIG=
201804181620 METAR EBBR 181620Z 10005KT 060V140 CAVOK 25/06 Q1028 NOSIG=
201804181550 METAR EBBR 181550Z 11006KT 080V140 CAVOK 25/07 Q1028 NOSIG=
201804181520 METAR EBBR 181520Z 10006KT 070V140 CAVOK 25/05 Q1028 NOSIG=
201804181450 METAR EBBR 181450Z 13008KT CAVOK 25/05 Q1029 NOSIG=
201804181420 METAR EBBR 181420Z 13008KT CAVOK 25/05 Q1029 NOSIG=
201804181350 METAR EBBR 181350Z 11006KT 080V160 CAVOK 24/05 Q1029 NOSIG=
201804181320 METAR EBBR 181320Z 12006KT 090V170 CAVOK 24/06 Q1029 NOSIG=
201804181250 METAR EBBR 181250Z 11005G15KT 050V150 CAVOK 24/07 Q1030 NOSIG=
201804181220 METAR EBBR 181220Z 13006KT 080V170 CAVOK 23/07 Q1030 NOSIG=
201804181150 METAR EBBR 181150Z 11006KT 070V140 CAVOK 22/09 Q1030 NOSIG=
201804181120 METAR EBBR 181120Z 13006KT 080V200 CAVOK 22/07 Q1031 NOSIG=
201804181050 METAR EBBR 181050Z 12007KT 090V170 CAVOK 21/06 Q1031 NOSIG=
201804181020 METAR EBBR 181020Z 13006KT 090V160 CAVOK 21/07 Q1031 NOSIG=
201804180950 METAR EBBR 180950Z 07004KT 050V120 CAVOK 20/07 Q1031 NOSIG=
201804180920 METAR EBBR 180920Z 08004KT 050V120 CAVOK 19/08 Q1031 NOSIG=
201804180850 METAR EBBR 180850Z 12003KT 080V170 CAVOK 19/09 Q1031 NOSIG=
201804180820 METAR EBBR 180820Z 12003KT 090V150 CAVOK 19/10 Q1031 NOSIG=
201804180750 METAR EBBR 180750Z VRB01KT CAVOK 19/10 Q1031 NOSIG=
201804180720 METAR EBBR 180720Z VRB01KT CAVOK 17/09 Q1031 NOSIG=
201804180650 METAR EBBR 180650Z 16002KT CAVOK 15/09 Q1031 NOSIG=
201804180620 METAR EBBR 180620Z 17005KT CAVOK 13/08 Q1030 NOSIG=
201804180550 METAR EBBR 180550Z 18006KT CAVOK 12/08 Q1030 NOSIG=
201804180520 METAR EBBR 180520Z 18006KT CAVOK 10/07 Q1029 NOSIG=
201804180450 METAR EBBR 180450Z 18006KT CAVOK 10/06 Q1029 NOSIG=
201804180420 METAR EBBR 180420Z 18006KT CAVOK 10/06 Q1029 NOSIG=
201804180350 METAR EBBR 180350Z 18006KT CAVOK 10/07 Q1029 NOSIG=
201804180320 METAR EBBR 180320Z 18006KT CAVOK 10/06 Q1029 NOSIG=
201804180250 METAR EBBR 180250Z 17005KT CAVOK 10/06 Q1029 NOSIG=
201804180220 METAR EBBR 180220Z 18005KT CAVOK 10/07 Q1028 NOSIG=
201804180150 METAR EBBR 180150Z 17004KT CAVOK 11/07 Q1028 NOSIG=
201804180120 METAR EBBR 180120Z 17005KT CAVOK 11/07 Q1028 NOSIG=
201804180050 METAR EBBR 180050Z 19005KT CAVOK 11/07 Q1028 NOSIG=
201804180020 METAR EBBR 180020Z 18005KT CAVOK 11/07 Q1028 NOSIG=
201804172350 METAR EBBR 172350Z 18005KT CAVOK 11/07 Q1028 NOSIG=
201804172320 METAR EBBR 172320Z 18005KT CAVOK 12/08 Q1028 NOSIG=
201804172250 METAR EBBR 172250Z 17005KT CAVOK 12/07 Q1028 NOSIG=
201804172220 METAR EBBR 172220Z 17005KT CAVOK 12/08 Q1027 NOSIG=
201804172150 METAR EBBR 172150Z 18004KT CAVOK 12/07 Q1027 NOSIG=
201804172120 METAR EBBR 172120Z 21006KT CAVOK 12/08 Q1027 NOSIG=
201804172050 METAR EBBR 172050Z 20005KT CAVOK 13/08 Q1027 NOSIG=
201804172020 METAR EBBR 172020Z 20004KT CAVOK 15/07 Q1027 NOSIG=
201804171950 METAR EBBR 171950Z 20005KT CAVOK 15/08 Q1027 NOSIG=
201804171920 METAR EBBR 171920Z 20004KT CAVOK 15/08 Q1026 NOSIG=
201804171850 METAR EBBR 171850Z 20004KT CAVOK 16/07 Q1026 NOSIG=
201804171820 METAR EBBR 171820Z 20005KT CAVOK 17/08 Q1026 NOSIG=
201804171750 METAR EBBR 171750Z 19005KT CAVOK 18/08 Q1025 NOSIG=
201804171720 METAR EBBR 171720Z 21006KT CAVOK 19/08 Q1025 NOSIG=
201804171650 METAR EBBR 171650Z 24005KT 210V280 CAVOK 19/09 Q1025 NOSIG=
201804171620 METAR EBBR 171620Z 23007KT 200V270 CAVOK 20/06 Q1025 NOSIG=
201804171550 METAR EBBR 171550Z 24007KT CAVOK 20/06 Q1025 NOSIG=
201804171520 METAR EBBR 171520Z 24008KT CAVOK 20/06 Q1025 NOSIG=
201804171450 METAR EBBR 171450Z 25007KT CAVOK 20/07 Q1025 NOSIG=
201804171420 METAR EBBR 171420Z 22007KT 180V250 CAVOK 20/07 Q1025 NOSIG=
201804171350 METAR EBBR 171350Z 19007KT 150V230 CAVOK 20/08 Q1025 NOSIG=
201804171320 METAR EBBR 171320Z 21006KT 150V240 CAVOK 20/07 Q1025 NOSIG=
201804171250 METAR EBBR 171250Z 20008KT 160V230 CAVOK 19/07 Q1025 NOSIG=
201804171220 METAR EBBR 171220Z 18010KT CAVOK 19/07 Q1025 NOSIG=
201804171150 METAR EBBR 171150Z 19009KT 150V220 CAVOK 18/07 Q1025 NOSIG=
201804171120 METAR EBBR 171120Z 18009KT 140V220 CAVOK 18/07 Q1025 NOSIG=
201804171050 METAR EBBR 171050Z 18009KT CAVOK 17/06 Q1025 NOSIG=
201804171020 METAR EBBR 171020Z 19011KT CAVOK 17/07 Q1025 NOSIG=
201804170950 METAR EBBR 170950Z 19009KT 160V220 CAVOK 16/06 Q1025 NOSIG=
201804170920 METAR EBBR 170920Z 19009KT CAVOK 16/07 Q1025 NOSIG=
201804170850 METAR EBBR 170850Z 19007KT CAVOK 16/08 Q1025 NOSIG=
201804170820 METAR EBBR 170820Z 19006KT 150V210 CAVOK 15/08 Q1025 NOSIG=
201804170750 METAR EBBR 170750Z 19007KT CAVOK 14/08 Q1024 NOSIG=
201804170720 METAR EBBR 170720Z 18006KT CAVOK 13/07 Q1024 NOSIG=
201804170650 METAR EBBR 170650Z 17006KT CAVOK 12/07 Q1024 NOSIG=
201804170620 METAR EBBR 170620Z 18006KT CAVOK 11/07 Q1024 NOSIG=
201804170550 METAR EBBR 170550Z 17005KT CAVOK 09/06 Q1023 NOSIG=
201804170520 METAR EBBR 170520Z 18006KT CAVOK 08/06 Q1023 NOSIG=
201804170450 METAR EBBR 170450Z 18006KT CAVOK 08/06 Q1023 NOSIG=
201804170420 METAR EBBR 170420Z 16004KT CAVOK 07/06 Q1022 NOSIG=
201804170350 METAR EBBR 170350Z 15007KT CAVOK 09/06 Q1022 NOSIG=
201804170320 METAR EBBR 170320Z 14007KT CAVOK 09/07 Q1022 NOSIG=
201804170250 METAR EBBR 170250Z 14009KT CAVOK 09/06 Q1022 NOSIG=
201804170220 METAR EBBR 170220Z 14007KT CAVOK 09/06 Q1022 NOSIG=
201804170150 METAR EBBR 170150Z 13006KT CAVOK 09/06 Q1022 NOSIG=
201804170120 METAR EBBR 170120Z 13005KT CAVOK 09/06 Q1022 NOSIG=
201804170050 METAR EBBR 170050Z 13005KT CAVOK 09/07 Q1022 NOSIG=
201804170020 METAR EBBR 170020Z 13005KT CAVOK 08/06 Q1022 NOSIG=
201804162350 METAR EBBR 162350Z 13004KT CAVOK 08/06 Q1022 NOSIG=
201804162320 METAR EBBR 162320Z 13004KT CAVOK 08/06 Q1021 NOSIG=
201804162250 METAR EBBR 162250Z 13002KT CAVOK 08/06 Q1021 NOSIG=
201804162220 METAR EBBR 162220Z 08002KT CAVOK 09/06 Q1021 NOSIG=
201804162150 METAR EBBR 162150Z 05002KT CAVOK 10/06 Q1021 NOSIG=
201804162120 METAR EBBR 162120Z 07001KT CAVOK 11/06 Q1021 NOSIG=
201804162050 METAR EBBR 162050Z VRB02KT CAVOK 11/06 Q1020 NOSIG=
201804162020 METAR EBBR 162020Z 05003KT CAVOK 11/07 Q1020 NOSIG=
201804161950 METAR EBBR 161950Z 02003KT 320V040 CAVOK 12/08 Q1020 NOSIG=
201804161920 METAR EBBR 161920Z 35003KT CAVOK 12/08 Q1020 NOSIG=
201804161850 METAR EBBR 161850Z 34005KT CAVOK 13/08 Q1019 NOSIG=
201804161820 METAR EBBR 161820Z 30006KT CAVOK 14/05 Q1018 NOSIG=
201804161750 METAR EBBR 161750Z 26005KT CAVOK 15/05 Q1018 NOSIG=
201804161720 METAR EBBR 161720Z 29006KT 9999 FEW048 15/05 Q1018 NOSIG=
201804161650 METAR EBBR 161650Z 27007KT 9999 FEW044 15/06 Q1018 NOSIG=
201804161620 METAR EBBR 161620Z 27007KT 240V300 9999 FEW044 16/06 Q1017
                        NOSIG=
201804161550 METAR EBBR 161550Z 25007KT 210V270 9999 FEW044 16/06 Q1017
                        NOSIG=
201804161520 METAR EBBR 161520Z 30007KT 260V320 9999 FEW044 17/07 Q1017
                        NOSIG=
201804161450 METAR EBBR 161450Z 27009KT 240V300 9999 FEW044 16/07 Q1017
                        NOSIG=
201804161420 METAR EBBR 161420Z 27007KT 240V300 9999 FEW042 16/07 Q1017
                        NOSIG=
201804161350 METAR EBBR 161350Z 25011KT 9999 FEW042 15/07 Q1017 NOSIG=
201804161320 METAR EBBR 161320Z 26008KT 210V300 9999 FEW038 16/07 Q1017
                        NOSIG=
201804161250 METAR EBBR 161250Z 26009KT 210V290 9999 FEW038 16/08 Q1017
                        NOSIG=
201804161220 METAR EBBR 161220Z 27009KT 9999 SCT038 15/07 Q1017 NOSIG=
201804161150 METAR EBBR 161150Z 22008KT 190V260 9999 SCT038 15/08 Q1016
                        NOSIG=
201804161120 METAR EBBR 161120Z 23007KT 200V280 9999 SCT032 15/08 Q1016
                        NOSIG=
201804161050 METAR EBBR 161050Z 24006KT 9999 SCT032 14/08 Q1016 NOSIG=
201804161020 METAR EBBR 161020Z 26006KT 9999 SCT028 14/07 Q1016 NOSIG=
201804160950 METAR EBBR 160950Z 28005KT 230V300 9999 FEW025 13/08 Q1016
                        NOSIG=
201804160920 METAR EBBR 160920Z 28006KT 240V300 9999 FEW025 13/08 Q1016
                        NOSIG=
201804160850 METAR EBBR 160850Z 25006KT 9999 FEW022 12/08 Q1016 NOSIG=
201804160820 METAR EBBR 160820Z 25006KT 9999 FEW020 12/08 Q1015 NOSIG=
201804160750 METAR EBBR 160750Z 26006KT 9999 FEW016 12/08 Q1015 NOSIG=
201804160720 METAR EBBR 160720Z 27005KT 230V290 9999 FEW013 11/08 Q1015
                        NOSIG=
201804160650 METAR EBBR 160650Z 26006KT 9999 FEW043 11/08 Q1014 NOSIG=
201804160620 METAR EBBR 160620Z 25005KT 9999 SCT043 11/08 Q1014 NOSIG=
201804160550 METAR EBBR 160550Z 23004KT 9999 FEW048 10/08 Q1014 NOSIG=
201804160520 METAR EBBR 160520Z 24005KT CAVOK 09/08 Q1013 NOSIG=
201804160450 METAR EBBR 160450Z 23005KT CAVOK 08/07 Q1013 NOSIG=
201804160420 METAR EBBR 160420Z 22004KT CAVOK 08/07 Q1013 NOSIG=
201804160350 METAR EBBR 160350Z 23004KT CAVOK 08/07 Q1012 NOSIG=
201804160320 METAR EBBR 160320Z 22006KT CAVOK 09/08 Q1012 NOSIG=
201804160250 METAR EBBR 160250Z 21005KT CAVOK 09/08 Q1012 NOSIG=
201804160220 METAR EBBR 160220Z 20005KT CAVOK 09/08 Q1012 NOSIG=
201804160150 METAR EBBR 160150Z 20005KT CAVOK 09/08 Q1011 NOSIG=
201804160120 METAR EBBR 160120Z 18004KT CAVOK 09/08 Q1011 NOSIG=
201804160050 METAR EBBR 160050Z 18002KT CAVOK 10/09 Q1011 NOSIG=
201804160020 METAR EBBR 160020Z 20002KT CAVOK 11/09 Q1011 NOSIG=
201804152350 METAR EBBR 152350Z VRB02KT CAVOK 11/10 Q1011 NOSIG=
201804152320 METAR EBBR 152320Z 25004KT CAVOK 12/10 Q1011 NOSIG=
201804152250 METAR EBBR 152250Z 24008KT 9999 -RA FEW012 SCT035 12/10 Q1011
                        NOSIG=
201804152220 METAR EBBR 152220Z 21007KT 9999 -RA NSC 13/10 Q1011 NOSIG=
201804152150 METAR EBBR 152150Z 18005KT 9999 -RA NSC 13/10 Q1011 NOSIG=
201804152120 METAR EBBR 152120Z 19005KT 9999 -RA NSC 13/09 Q1011 NOSIG=
201804152050 METAR COR EBBR 152050Z 19006KT 9999 -RA NSC 14/10 Q1011 NOSIG=
201804152020 METAR COR EBBR 152020Z 18003KT CAVOK 13/10 Q1011 NOSIG=
201804151950 METAR EBBR 151950Z 19003KT CAVOK 14/09 Q1011 NOSIG=
201804151920 METAR COR EBBR 151920Z 18003KT CAVOK 14/09 Q1011 NOSIG=
201804151850 METAR EBBR 151850Z 19003KT 9999 FEW040TCU 14/10 Q1011 NOSIG=
201804151820 METAR EBBR 151820Z 23004KT 9999 FEW040CB 14/09 Q1010 NOSIG=
201804151750 METAR EBBR 151750Z 24004KT 9999 FEW040 15/10 Q1010 NOSIG=
201804151720 METAR EBBR 151720Z 22005KT 9999 FEW036 16/10 Q1010 NOSIG=
201804151650 METAR EBBR 151650Z 24007KT 9999 FEW036 16/10 Q1010 NOSIG=
201804151620 METAR EBBR 151620Z 25006KT 9999 FEW038 16/09 Q1010 NOSIG=
201804151550 METAR EBBR 151550Z 23007KT 9999 FEW038 17/10 Q1010 NOSIG=
201804151520 METAR EBBR 151520Z 23008KT 9999 BKN038 17/09 Q1010 NOSIG=
201804151450 METAR EBBR 151450Z 23007KT 9999 SCT039 17/09 Q1010 NOSIG=
201804151420 METAR EBBR 151420Z 21005KT 9999 SCT036 17/10 Q1011 NOSIG=
201804151350 METAR EBBR 151350Z 23008KT 200V260 9999 SCT036 17/10 Q1011
                        NOSIG=
201804151320 METAR EBBR 151320Z 23009KT 9999 SCT036 17/10 Q1011 NOSIG=
201804151250 METAR EBBR 151250Z 22009KT 9999 SCT032 17/10 Q1011 NOSIG=
201804151220 METAR EBBR 151220Z 21011KT 9999 FEW035 17/10 Q1011 NOSIG=
201804151150 METAR EBBR 151150Z 23009KT 9999 FEW030 16/10 Q1011 NOSIG=
201804151120 METAR EBBR 151120Z 22008KT 190V260 9999 SCT030 16/10 Q1012
                        NOSIG=
201804151050 METAR EBBR 151050Z 22008KT 9999 BKN029 15/10 Q1012 NOSIG=
201804151020 METAR EBBR 151020Z 18009KT 160V220 9999 BKN029 16/11 Q1012
                        NOSIG=
201804150950 METAR EBBR 150950Z 19010KT 9999 BKN024 16/10 Q1012 NOSIG=
201804150920 METAR EBBR 150920Z 17008KT 130V200 9999 BKN026 16/11 Q1012
                        NOSIG=
201804150850 METAR EBBR 150850Z 18007KT 130V210 9999 FEW015 15/11 Q1012
                        NOSIG=
201804150820 METAR EBBR 150820Z 18006KT 150V210 9999 FEW013 14/11 Q1012
                        NOSIG=
201804150750 METAR EBBR 150750Z 19007KT 9999 FEW009 14/11 Q1013 NOSIG=
201804150720 METAR EBBR 150720Z 19008KT CAVOK 13/10 Q1013 NOSIG=
201804150650 METAR EBBR 150650Z 18008KT CAVOK 12/10 Q1013 NOSIG=
201804150620 METAR EBBR 150620Z 18008KT CAVOK 11/10 Q1013 NOSIG=
201804150550 METAR EBBR 150550Z 18007KT CAVOK 11/09 Q1013 NOSIG=
201804150520 METAR EBBR 150520Z 17007KT CAVOK 10/09 Q1013 NOSIG=
201804150450 METAR EBBR 150450Z 17007KT CAVOK 10/09 Q1013 NOSIG=
201804150420 METAR EBBR 150420Z 17007KT CAVOK 10/09 Q1013 NOSIG=
201804150350 METAR COR EBBR 150350Z 17006KT CAVOK 10/09 Q1014 NOSIG=
201804150320 METAR EBBR 150320Z 17006KT 9999 FEW030 11/09 Q1014 NOSIG=
201804150250 METAR EBBR 150250Z 17006KT CAVOK 11/10 Q1014 NOSIG=
201804150220 METAR EBBR 150220Z 16005KT 8000 SCT038 11/10 Q1014 NOSIG=
201804150150 METAR EBBR 150150Z 14004KT 8000 SCT039 11/10 Q1014 NOSIG=
201804150120 METAR EBBR 150120Z 13003KT 4000 BR SCT039 BKN046 11/11 Q1015
                        BECMG=
201804150050 METAR EBBR 150050Z 12003KT 3500 BR BKN046 11/11 Q1015 NOSIG=
201804150020 METAR EBBR 150020Z 13003KT 2000 -RA SCT046 12/11 Q1016 NOSIG=
201804142350 METAR EBBR 142350Z 09002KT 2000 -RA SCT046 12/11 Q1016 NOSIG=
201804142320 METAR EBBR 142320Z 00000KT 5000 -RA NSC 12/11 Q1016 NOSIG=
201804142250 METAR EBBR 142250Z VRB01KT 5000 -RA NSC 12/11 Q1016 NOSIG=
201804142220 METAR EBBR 142220Z 24003KT 3000 -RA SCT036 12/11 Q1017 NOSIG=
201804142150 METAR EBBR 142150Z 23003KT 2500 RA SCT036 12/11 Q1017 NOSIG=
201804142120 METAR EBBR 142120Z 21006KT 2500 RA BKN024 12/11 Q1017 NOSIG=
201804142050 METAR EBBR 142050Z 12003KT 070V190 5000 BR NSC 12/11 Q1017
                        NOSIG=
201804142020 METAR EBBR 142020Z VRB02KT 6000 -RA SCT030 12/11 Q1017 NOSIG=
201804141950 METAR EBBR 141950Z 04003KT 5000 -RA SCT044 12/11 Q1017 NOSIG=
201804141920 METAR EBBR 141920Z 02007KT 010V070 8000 SCT044 13/10 Q1017
                        TEMPO 4000 SHRA=
201804141850 METAR COR EBBR 141850Z 30007KT 220V010 6000 -SHRA SCT008
                        BKN044 12/11 Q1017 NOSIG=
201804141820 METAR EBBR 141820Z 30008KT 260V320 5000 BR FEW030CB BKN044
                        14/10 Q1016 RESHRA TEMPO 2500 TSRA=
201804141750 METAR EBBR 141750Z 03004KT 5000 -SHRA FEW030CB BKN040 15/10
                        Q1016 TEMPO 2500 TSRA=
201804141720 METAR EBBR 141720Z 06004KT 8000 FEW030CB 16/10 Q1016 TEMPO
                        4000 SHRA=
201804141650 METAR EBBR 141650Z 06002KT 8000 FEW030TCU 16/09 Q1016 TEMPO
                        4000 SHRA=
201804141620 METAR EBBR 141620Z 05003KT 8000 FEW030TCU 17/09 Q1016 TEMPO
                        4000 SHRA=
201804141550 METAR EBBR 141550Z 05003KT 010V070 8000 FEW030TCU 17/09 Q1017
                        NOSIG=
201804141520 METAR EBBR 141520Z VRB01KT 8000 FEW030TCU 17/09 Q1017 NOSIG=
201804141450 METAR EBBR 141450Z VRB02KT 8000 FEW030 17/09 Q1017 NOSIG=
201804141420 METAR EBBR 141420Z 06003KT 020V100 8000 FEW030 17/09 Q1017
                        NOSIG=
201804141350 METAR EBBR 141350Z VRB02KT 8000 FEW030 17/09 Q1018 NOSIG=
201804141320 METAR EBBR 141320Z VRB01KT 8000 FEW028 16/09 Q1018 NOSIG=
201804141250 METAR EBBR 141250Z VRB02KT 8000 FEW028 16/10 Q1018 NOSIG=
201804141220 METAR EBBR 141220Z VRB02KT 8000 FEW027 15/09 Q1018 NOSIG=
201804141150 METAR EBBR 141150Z VRB02KT 8000 FEW027 15/09 Q1018 NOSIG=
201804141120 METAR EBBR 141120Z VRB01KT 9000 FEW025 15/09 Q1018 NOSIG=
201804141050 METAR EBBR 141050Z VRB01KT 9000 FEW025 14/08 Q1018 NOSIG=
201804141020 METAR EBBR 141020Z VRB01KT 7000 FEW025 14/09 Q1018 NOSIG=
201804140950 METAR EBBR 140950Z 14004KT 060V170 7000 NSC 13/08 Q1018 NOSIG=
201804140920 METAR EBBR 140920Z 14003KT 050V190 7000 NSC 13/08 Q1018 NOSIG=
201804140850 METAR EBBR 140850Z VRB02KT 7000 NSC 13/09 Q1018 NOSIG=
201804140820 METAR EBBR 140820Z 08003KT 060V140 7000 NSC 12/08 Q1018 NOSIG=
201804140750 METAR EBBR 140750Z 11003KT 060V170 6000 NSC 12/08 Q1018 NOSIG=
201804140720 METAR EBBR 140720Z VRB02KT 5000 BR NSC 11/08 Q1018 NOSIG=
201804140650 METAR EBBR 140650Z 18002KT 4000 BR FEW016 09/07 Q1017 NOSIG=
201804140620 METAR EBBR 140620Z 18001KT 4000 MIFG FEW016 08/07 Q1017 NOSIG=
201804140550 METAR EBBR 140550Z 00000KT 4000 MIFG FEW016 06/06 Q1017 NOSIG=
201804140520 METAR EBBR 140520Z 15002KT 4000 MIFG FEW016 06/06 Q1016 NOSIG=
201804140450 METAR EBBR 140450Z 00000KT 4000 MIFG FEW016 06/05 Q1016 NOSIG=
201804140420 METAR EBBR 140420Z VRB01KT 4500 BR FEW016 SCT040 07/06 Q1016
                        NOSIG=
201804140350 METAR EBBR 140350Z 29002KT 4500 BR FEW014 BKN040 08/07 Q1016
                        NOSIG=
201804140320 METAR EBBR 140320Z VRB02KT 4500 BR FEW011 BKN039 07/06 Q1016
                        NOSIG=
201804140250 METAR COR EBBR 140250Z 29002KT 4500 BR BKN011 08/06 Q1016
                        NOSIG=
201804140220 METAR EBBR 140220Z 00000KT 4000 BR BKN010 08/07 Q1015 NOSIG=
201804140150 METAR EBBR 140150Z VRB01KT 4000 BR SCT008 BKN009 08/07 Q1015
                        NOSIG=
201804140120 METAR EBBR 140120Z 32002KT 5000 BR FEW009 SCT034 08/07 Q1015
                        NOSIG=
201804140050 METAR EBBR 140050Z 29003KT 5000 BR SCT048 09/07 Q1015 NOSIG=
201804140020 METAR EBBR 140020Z 30002KT 5000 BR SCT042 09/08 Q1015 NOSIG=

